{
 "type": "FeatureCollection",
 "features": [
  {
   "type": "Feature",
   "properties": {
    "creator": "BRouter-1.7.11-beta",
    "name": "brouter_hiking-mountain_0",
    "track-length": "9879",
    "filtered ascend": "356",
    "plain-ascend": "-75",
    "total-time": "8504",
    "total-energy": "369524",
    "cost": "12752",
    "messages": [
     [
      "Longitude",
      "Latitude",
      "Elevation",
      "Distance",
      "CostPerKm",
      "ElevCost",
      "TurnCost",
      "NodeCost",
      "InitialCost",
      "WayTags",
      "NodeTags",
      "Time",
      "Energy"
     ],
     [
      "44775967",
      "41687156",
      "710",
      "2",
      "1320",
      "0",
      "0",
      "0",
      "0",
      "highway=residential surface=asphalt",
      "",
      "1",
      "22"
     ],
     [
      "44775963",
      "41687178",
      "710",
      "2",
      "1260",
      "0",
      "0",
      "0",
      "0",
      "reversedirection=yes highway=footway surface=paved",
      "",
      "2",
      "50"
     ],
     [
      "44775955",
      "41687194",
      "711",
      "2",
      "3600",
      "0",
      "0",
      "0",
      "0",
      "reversedirection=yes highway=steps",
      "",
      "4",
      "85"
     ],
     [
      "44775943",
      "41687223",
      "711",
      "3",
      "1260",
      "0",
      "0",
      "0",
      "0",
      "reversedirection=yes highway=footway surface=paved",
      "",
      "6",
      "151"
     ],
     [
      "44775646",
      "41687134",
      "713",
      "27",
      "1440",
      "0",
      "0",
      "0",
      "0",
      "reversedirection=yes highway=service",
      "",
      "27",
      "896"
     ],
     [
      "44776012",
      "41687749",
      "722",
      "78",
      "1220",
      "0",
      "0",
      "0",
      "0",
      "highway=residential surface=asphalt",
      "",
      "89",
      "3737"
     ],
     [
      "44775129",
      "41690111",
      "792",
      "378",
      "1320",
      "0",
      "0",
      "0",
      "0",
      "highway=residential surface=cobblestone",
      "",
      "557",
      "57992"
     ],
     [
      "44774988",
      "41690057",
      "793",
      "13",
      "2900",
      "0",
      "0",
      "0",
      "0",
      "reversedirection=yes highway=tertiary surface=asphalt",
      "",
      "574",
      "60164"
     ],
     [
      "44773847",
      "41691472",
      "828",
      "220",
      "1380",
      "0",
      "0",
      "0",
      "0",
      "reversedirection=yes highway=path surface=dirt",
      "barrier=yes bicycle=dismount foot=yes",
      "866",
      "96335"
     ],
     [
      "44773587",
      "41691569",
      "833",
      "24",
      "1380",
      "0",
      "0",
      "0",
      "0",
      "reversedirection=yes highway=path surface=dirt",
      "",
      "895",
      "99790"
     ],
     [
      "44771768",
      "41691983",
      "859",
      "169",
      "1380",
      "0",
      "0",
      "0",
      "0",
      "highway=track surface=dirt tracktype=grade3",
      "",
      "1107",
      "125245"
     ],
     [
      "44766298",
      "41692399",
      "888",
      "472",
      "1260",
      "0",
      "0",
      "0",
      "0",
      "highway=track surface=ground tracktype=grade4",
      "",
      "1558",
      "163589"
     ],
     [
      "44766155",
      "41692681",
      "887",
      "34",
      "1260",
      "0",
      "0",
      "0",
      "0",
      "highway=path surface=ground",
      "",
      "1586",
      "164854"
     ],
     [
      "44762936",
      "41692619",
      "893",
      "269",
      "1050",
      "0",
      "0",
      "0",
      "0",
      "highway=track surface=ground tracktype=grade3 route_hiking_lwn=yes",
      "",
      "1793",
      "172388"
     ],
     [
      "44751543",
      "41694980",
      "834",
      "1084",
      "1050",
      "0",
      "0",
      "0",
      "0",
      "reversedirection=yes highway=track surface=ground tracktype=grade3 route_hiking_lwn=yes",
      "",
      "2513",
      "176965"
     ],
     [
      "44749989",
      "41695977",
      "820",
      "177",
      "1050",
      "0",
      "0",
      "0",
      "0",
      "reversedirection=yes highway=track surface=ground tracktype=grade4 route_hiking_lwn=yes",
      "nodeaccessgranted=yes ford=yes",
      "2645",
      "176965"
     ],
     [
      "44751406",
      "41697023",
      "812",
      "172",
      "1050",
      "0",
      "0",
      "0",
      "0",
      "reversedirection=yes highway=track surface=ground tracktype=grade4 route_hiking_lwn=yes",
      "",
      "2752",
      "176965"
     ],
     [
      "44750864",
      "41697326",
      "821",
      "58",
      "1920",
      "0",
      "0",
      "0",
      "0",
      "highway=path surface=ground sac_scale=mountain_hiking",
      "",
      "2793",
      "177350"
     ],
     [
      "44748799",
      "41698161",
      "786",
      "209",
      "1260",
      "0",
      "0",
      "0",
      "0",
      "reversedirection=yes highway=path surface=ground",
      "",
      "2940",
      "178496"
     ],
     [
      "44748611",
      "41700022",
      "727",
      "291",
      "1260",
      "0",
      "0",
      "0",
      "0",
      "reversedirection=yes highway=track surface=ground tracktype=grade3",
      "",
      "3225",
      "178496"
     ],
     [
      "44748266",
      "41702218",
      "662",
      "290",
      "1260",
      "0",
      "0",
      "0",
      "0",
      "highway=path surface=unpaved",
      "",
      "3553",
      "178496"
     ],
     [
      "44748066",
      "41702243",
      "660",
      "17",
      "3200",
      "0",
      "0",
      "0",
      "0",
      "highway=tertiary surface=asphalt",
      "",
      "3570",
      "178496"
     ],
     [
      "44748692",
      "41703140",
      "630",
      "128",
      "1380",
      "0",
      "0",
      "0",
      "0",
      "highway=path surface=dirt",
      "",
      "3707",
      "178496"
     ],
     [
      "44748768",
      "41703371",
      "622",
      "30",
      "1260",
      "0",
      "0",
      "0",
      "0",
      "highway=path surface=rock",
      "",
      "3740",
      "178496"
     ],
     [
      "44748895",
      "41704397",
      "589",
      "122",
      "1380",
      "0",
      "0",
      "0",
      "0",
      "highway=path surface=dirt",
      "",
      "3892",
      "178496"
     ],
     [
      "44748846",
      "41704605",
      "584",
      "24",
      "1260",
      "0",
      "0",
      "0",
      "0",
      "highway=path surface=rock",
      "",
      "3921",
      "178496"
     ],
     [
      "44748364",
      "41705558",
      "563",
      "122",
      "1260",
      "0",
      "0",
      "0",
      "0",
      "highway=path",
      "",
      "4050",
      "178496"
     ],
     [
      "44748201",
      "41705833",
      "557",
      "34",
      "1260",
      "0",
      "0",
      "0",
      "0",
      "highway=path surface=ground",
      "",
      "4083",
      "178496"
     ],
     [
      "44748111",
      "41705901",
      "556",
      "12",
      "1260",
      "0",
      "0",
      "0",
      "0",
      "highway=path",
      "",
      "4094",
      "178496"
     ],
     [
      "44748337",
      "41706403",
      "544",
      "64",
      "1520",
      "0",
      "0",
      "0",
      "0",
      "highway=residential surface=asphalt",
      "",
      "4155",
      "178496"
     ],
     [
      "44747820",
      "41708073",
      "508",
      "228",
      "1260",
      "0",
      "0",
      "0",
      "0",
      "highway=path surface=unpaved",
      "",
      "4376",
      "178496"
     ],
     [
      "44747957",
      "41708255",
      "503",
      "23",
      "1800",
      "0",
      "0",
      "0",
      "0",
      "highway=path surface=gravel",
      "",
      "4394",
      "178496"
     ],
     [
      "44748326",
      "41708376",
      "500",
      "33",
      "1640",
      "0",
      "0",
      "0",
      "0",
      "highway=service surface=asphalt",
      "",
      "4420",
      "178496"
     ],
     [
      "44748282",
      "41708833",
      "495",
      "52",
      "1460",
      "0",
      "0",
      "0",
      "0",
      "reversedirection=yes highway=footway surface=paved",
      "",
      "4460",
      "178496"
     ],
     [
      "44748425",
      "41708906",
      "494",
      "14",
      "1460",
      "0",
      "0",
      "0",
      "0",
      "reversedirection=yes highway=footway surface=asphalt",
      "",
      "4470",
      "178496"
     ],
     [
      "44748394",
      "41709133",
      "492",
      "25",
      "1260",
      "0",
      "0",
      "0",
      "0",
      "reversedirection=yes highway=path surface=ground",
      "",
      "4489",
      "178496"
     ],
     [
      "44748488",
      "41709509",
      "487",
      "48",
      "1320",
      "0",
      "0",
      "0",
      "0",
      "reversedirection=yes highway=cycleway foot=designated bicycle=designated",
      "",
      "4523",
      "178496"
     ],
     [
      "44748552",
      "41709560",
      "487",
      "8",
      "1640",
      "0",
      "0",
      "0",
      "0",
      "reversedirection=yes highway=service surface=asphalt",
      "barrier=block bicycle=yes foot=yes",
      "4529",
      "178496"
     ],
     [
      "44748575",
      "41709589",
      "486",
      "4",
      "1640",
      "0",
      "0",
      "0",
      "0",
      "reversedirection=yes highway=service surface=asphalt",
      "",
      "4531",
      "178496"
     ],
     [
      "44748111",
      "41710923",
      "484",
      "182",
      "1640",
      "0",
      "0",
      "0",
      "0",
      "reversedirection=yes highway=service surface=paved",
      "",
      "4650",
      "178537"
     ],
     [
      "44748120",
      "41710985",
      "484",
      "7",
      "1460",
      "0",
      "0",
      "0",
      "0",
      "highway=footway surface=paved",
      "",
      "4655",
      "178590"
     ],
     [
      "44747912",
      "41711039",
      "486",
      "19",
      "1260",
      "0",
      "0",
      "0",
      "0",
      "reversedirection=yes highway=footway surface=paved",
      "",
      "4667",
      "178590"
     ],
     [
      "44747587",
      "41711384",
      "492",
      "52",
      "3500",
      "0",
      "0",
      "0",
      "0",
      "highway=steps surface=paving_stones",
      "",
      "4706",
      "179611"
     ],
     [
      "44747654",
      "41711390",
      "492",
      "6",
      "1340",
      "0",
      "0",
      "0",
      "0",
      "highway=service surface=asphalt foot=yes bicycle=yes",
      "",
      "4711",
      "179707"
     ],
     [
      "44748461",
      "41711464",
      "488",
      "68",
      "1260",
      "0",
      "0",
      "0",
      "0",
      "reversedirection=yes highway=footway surface=paved foot=designated bicycle=designated",
      "",
      "4760",
      "180549"
     ],
     [
      "44748443",
      "41711591",
      "490",
      "14",
      "1260",
      "0",
      "0",
      "0",
      "0",
      "highway=footway surface=asphalt",
      "highway=crossing estimated_crossing_class=0 crossing=traffic_signals",
      "4770",
      "180851"
     ],
     [
      "44748435",
      "41711655",
      "490",
      "7",
      "1160",
      "0",
      "0",
      "0",
      "0",
      "highway=footway surface=asphalt",
      "highway=crossing crossing=traffic_signals",
      "4776",
      "181038"
     ],
     [
      "44748245",
      "41712200",
      "493",
      "70",
      "1160",
      "0",
      "0",
      "0",
      "0",
      "highway=footway surface=asphalt",
      "highway=crossing crossing=unmarked",
      "4828",
      "182569"
     ],
     [
      "44748112",
      "41713253",
      "491",
      "118",
      "1260",
      "0",
      "0",
      "0",
      "0",
      "highway=footway surface=asphalt",
      "",
      "4915",
      "184483"
     ],
     [
      "44747941",
      "41713253",
      "491",
      "14",
      "1260",
      "0",
      "0",
      "0",
      "0",
      "reversedirection=yes highway=footway surface=asphalt",
      "highway=traffic_signals estimated_crossing_class=0 traffic_signals=signal",
      "4925",
      "184668"
     ],
     [
      "44747625",
      "41713381",
      "490",
      "34",
      "1260",
      "0",
      "0",
      "0",
      "0",
      "reversedirection=yes highway=footway surface=asphalt",
      "",
      "4949",
      "184917"
     ],
     [
      "44747642",
      "41713435",
      "489",
      "6",
      "1260",
      "0",
      "0",
      "0",
      "0",
      "highway=footway surface=paving_stones",
      "highway=crossing estimated_crossing_class=0 crossing=traffic_signals",
      "4953",
      "184921"
     ],
     [
      "44747692",
      "41713589",
      "489",
      "18",
      "1260",
      "0",
      "0",
      "0",
      "0",
      "highway=footway surface=paving_stones",
      "",
      "4966",
      "184921"
     ],
     [
      "44745420",
      "41714945",
      "471",
      "267",
      "1460",
      "0",
      "0",
      "0",
      "0",
      "highway=footway surface=paving_stones foot=yes",
      "",
      "5140",
      "185039"
     ],
     [
      "44745425",
      "41715126",
      "472",
      "20",
      "1460",
      "0",
      "0",
      "0",
      "0",
      "highway=footway surface=paved",
      "highway=crossing estimated_crossing_class=0 crossing=uncontrolled",
      "5152",
      "185039"
     ],
     [
      "44745426",
      "41715156",
      "473",
      "3",
      "1460",
      "0",
      "0",
      "0",
      "0",
      "highway=footway surface=paved",
      "",
      "5154",
      "185039"
     ],
     [
      "44745426",
      "41715193",
      "473",
      "4",
      "1460",
      "0",
      "0",
      "0",
      "0",
      "highway=footway surface=asphalt",
      "",
      "5157",
      "185039"
     ],
     [
      "44745427",
      "41715214",
      "474",
      "2",
      "1460",
      "0",
      "0",
      "0",
      "0",
      "highway=footway surface=paved",
      "highway=crossing estimated_crossing_class=0 crossing=uncontrolled",
      "5158",
      "185039"
     ],
     [
      "44745431",
      "41715348",
      "476",
      "14",
      "1440",
      "0",
      "0",
      "0",
      "0",
      "reversedirection=yes highway=service",
      "",
      "5168",
      "185099"
     ],
     [
      "44745440",
      "41715479",
      "478",
      "15",
      "1160",
      "0",
      "0",
      "0",
      "0",
      "highway=footway surface=paved",
      "highway=crossing estimated_crossing_class=0 crossing=traffic_signals",
      "5178",
      "185111"
     ],
     [
      "44745444",
      "41715511",
      "478",
      "4",
      "1160",
      "0",
      "0",
      "0",
      "0",
      "highway=footway surface=paved",
      "",
      "5181",
      "185136"
     ],
     [
      "44745454",
      "41715625",
      "480",
      "13",
      "1160",
      "0",
      "0",
      "0",
      "0",
      "highway=footway surface=paving_stones",
      "",
      "5190",
      "185360"
     ],
     [
      "44745457",
      "41715666",
      "480",
      "5",
      "1160",
      "0",
      "0",
      "0",
      "0",
      "highway=footway surface=asphalt",
      "highway=crossing estimated_crossing_class=0 crossing=traffic_signals",
      "5194",
      "185483"
     ],
     [
      "44745461",
      "41715698",
      "481",
      "4",
      "1160",
      "0",
      "0",
      "0",
      "0",
      "highway=footway surface=asphalt",
      "",
      "5197",
      "185596"
     ],
     [
      "44745821",
      "41719096",
      "459",
      "379",
      "1460",
      "0",
      "0",
      "0",
      "0",
      "highway=footway surface=paving_stones",
      "",
      "5447",
      "185596"
     ],
     [
      "44745826",
      "41719205",
      "459",
      "12",
      "1460",
      "0",
      "0",
      "0",
      "0",
      "reversedirection=yes highway=footway surface=asphalt",
      "highway=crossing estimated_crossing_class=0 crossing=uncontrolled",
      "5455",
      "185596"
     ],
     [
      "44745882",
      "41719276",
      "458",
      "11",
      "1460",
      "0",
      "0",
      "0",
      "0",
      "reversedirection=yes highway=footway surface=asphalt",
      "highway=crossing estimated_crossing_class=0 crossing=uncontrolled",
      "5463",
      "185596"
     ],
     [
      "44745918",
      "41719290",
      "458",
      "3",
      "1460",
      "0",
      "0",
      "0",
      "0",
      "reversedirection=yes highway=footway surface=asphalt",
      "barrier=kerb kerb=flush",
      "5465",
      "185596"
     ],
     [
      "44745919",
      "41719785",
      "459",
      "59",
      "1460",
      "0",
      "0",
      "0",
      "0",
      "reversedirection=yes highway=footway surface=asphalt",
      "highway=crossing estimated_crossing_class=0 crossing=traffic_signals",
      "5506",
      "185848"
     ],
     [
      "44745926",
      "41719908",
      "459",
      "14",
      "1460",
      "0",
      "0",
      "0",
      "0",
      "reversedirection=yes highway=footway surface=asphalt",
      "",
      "5516",
      "185958"
     ],
     [
      "44745908",
      "41719909",
      "459",
      "2",
      "1460",
      "0",
      "0",
      "0",
      "0",
      "highway=footway surface=asphalt",
      "",
      "5518",
      "185974"
     ],
     [
      "44745980",
      "41720551",
      "460",
      "72",
      "1260",
      "0",
      "0",
      "0",
      "0",
      "highway=footway surface=paving_stones",
      "",
      "5565",
      "185974"
     ],
     [
      "44745980",
      "41720663",
      "460",
      "12",
      "1260",
      "0",
      "0",
      "0",
      "0",
      "highway=footway surface=asphalt",
      "highway=crossing estimated_crossing_class=0 crossing=uncontrolled",
      "5574",
      "185974"
     ],
     [
      "44745956",
      "41720951",
      "460",
      "32",
      "1260",
      "0",
      "0",
      "0",
      "0",
      "highway=footway surface=asphalt",
      "highway=crossing estimated_crossing_class=0 crossing=uncontrolled",
      "5596",
      "186040"
     ],
     [
      "44745936",
      "41721080",
      "461",
      "14",
      "1260",
      "0",
      "0",
      "0",
      "0",
      "highway=footway surface=asphalt",
      "",
      "5606",
      "186185"
     ],
     [
      "44745794",
      "41722170",
      "468",
      "125",
      "1160",
      "0",
      "0",
      "0",
      "0",
      "reversedirection=yes highway=footway surface=paving_stones foot=yes",
      "",
      "5703",
      "190021"
     ],
     [
      "44745881",
      "41722177",
      "468",
      "7",
      "1224",
      "0",
      "0",
      "0",
      "0",
      "reversedirection=yes highway=footway surface=paving_stones",
      "",
      "5708",
      "190173"
     ],
     [
      "44745964",
      "41722185",
      "468",
      "7",
      "1260",
      "0",
      "0",
      "0",
      "0",
      "highway=footway surface=asphalt",
      "highway=crossing estimated_crossing_class=0 crossing=traffic_signals",
      "5714",
      "190319"
     ],
     [
      "44746077",
      "41722196",
      "468",
      "9",
      "1260",
      "0",
      "0",
      "0",
      "0",
      "highway=footway surface=asphalt",
      "",
      "5720",
      "190498"
     ],
     [
      "44745788",
      "41723877",
      "474",
      "188",
      "1160",
      "0",
      "0",
      "0",
      "0",
      "reversedirection=yes highway=footway surface=asphalt",
      "highway=crossing crossing=unmarked",
      "5869",
      "197050"
     ],
     [
      "44745764",
      "41724078",
      "474",
      "23",
      "1160",
      "0",
      "0",
      "0",
      "0",
      "reversedirection=yes highway=footway surface=asphalt",
      "",
      "5887",
      "197570"
     ],
     [
      "44745709",
      "41724085",
      "474",
      "5",
      "1160",
      "0",
      "0",
      "0",
      "0",
      "reversedirection=yes highway=footway surface=paving_stones",
      "highway=crossing estimated_crossing_class=0 crossing=traffic_signals",
      "5890",
      "197674"
     ],
     [
      "44745662",
      "41724095",
      "474",
      "4",
      "1160",
      "0",
      "0",
      "0",
      "0",
      "reversedirection=yes highway=footway surface=paving_stones",
      "",
      "5893",
      "197755"
     ],
     [
      "44745647",
      "41724203",
      "474",
      "12",
      "1160",
      "0",
      "0",
      "0",
      "0",
      "reversedirection=yes highway=footway surface=asphalt foot=designated",
      "highway=crossing estimated_crossing_class=0 crossing=traffic_signals",
      "5902",
      "198014"
     ],
     [
      "44745522",
      "41725254",
      "478",
      "118",
      "1160",
      "0",
      "0",
      "0",
      "0",
      "reversedirection=yes highway=footway surface=asphalt foot=designated",
      "",
      "5995",
      "202073"
     ],
     [
      "44745520",
      "41725271",
      "478",
      "2",
      "1160",
      "0",
      "0",
      "0",
      "0",
      "reversedirection=yes highway=footway surface=asphalt",
      "",
      "5997",
      "202121"
     ],
     [
      "44745515",
      "41725306",
      "478",
      "4",
      "1160",
      "0",
      "0",
      "0",
      "0",
      "highway=footway surface=asphalt",
      "barrier=kerb kerb=flush",
      "6000",
      "202216"
     ],
     [
      "44745491",
      "41725447",
      "478",
      "16",
      "1160",
      "0",
      "0",
      "0",
      "0",
      "reversedirection=yes highway=footway surface=asphalt",
      "highway=crossing estimated_crossing_class=0 crossing=traffic_signals",
      "6012",
      "202572"
     ],
     [
      "44745467",
      "41725580",
      "478",
      "15",
      "1160",
      "0",
      "0",
      "0",
      "0",
      "reversedirection=yes highway=footway surface=asphalt",
      "",
      "6023",
      "202878"
     ],
     [
      "44744420",
      "41725543",
      "479",
      "89",
      "1260",
      "0",
      "0",
      "0",
      "0",
      "reversedirection=yes highway=footway surface=asphalt foot=yes",
      "",
      "6089",
      "204353"
     ],
     [
      "44744287",
      "41726318",
      "484",
      "87",
      "1160",
      "0",
      "0",
      "0",
      "0",
      "highway=footway surface=asphalt",
      "highway=crossing crossing=unmarked",
      "6160",
      "208193"
     ],
     [
      "44744211",
      "41726769",
      "488",
      "50",
      "1160",
      "0",
      "0",
      "0",
      "0",
      "highway=footway surface=asphalt",
      "highway=crossing crossing=unmarked",
      "6203",
      "210989"
     ],
     [
      "44744122",
      "41727398",
      "491",
      "70",
      "1160",
      "0",
      "0",
      "0",
      "0",
      "highway=footway surface=asphalt",
      "highway=crossing crossing=unmarked",
      "6263",
      "214701"
     ],
     [
      "44744111",
      "41727455",
      "491",
      "6",
      "1160",
      "0",
      "0",
      "0",
      "0",
      "highway=footway surface=asphalt",
      "",
      "6268",
      "214967"
     ],
     [
      "44743921",
      "41728629",
      "499",
      "133",
      "1160",
      "0",
      "0",
      "0",
      "0",
      "reversedirection=yes highway=footway surface=asphalt",
      "",
      "6381",
      "222200"
     ],
     [
      "44743890",
      "41728691",
      "499",
      "7",
      "1260",
      "0",
      "0",
      "0",
      "0",
      "reversedirection=yes highway=footway",
      "highway=crossing estimated_crossing_class=0 crossing=traffic_signals",
      "6387",
      "222566"
     ],
     [
      "44743860",
      "41728759",
      "500",
      "8",
      "1260",
      "0",
      "0",
      "0",
      "0",
      "reversedirection=yes highway=footway",
      "",
      "6394",
      "222975"
     ],
     [
      "44743935",
      "41728774",
      "500",
      "6",
      "1160",
      "0",
      "0",
      "0",
      "0",
      "reversedirection=yes highway=footway surface=asphalt",
      "highway=crossing crossing=traffic_signals",
      "6399",
      "223279"
     ],
     [
      "44743491",
      "41730951",
      "525",
      "263",
      "1220",
      "0",
      "0",
      "0",
      "0",
      "highway=residential surface=asphalt",
      "",
      "6652",
      "245163"
     ],
     [
      "44743660",
      "41730991",
      "526",
      "15",
      "1340",
      "0",
      "0",
      "0",
      "0",
      "reversedirection=yes highway=service surface=asphalt",
      "barrier=swing_gate access=yes motor_vehicle=private",
      "6666",
      "246371"
     ],
     [
      "44743782",
      "41731024",
      "527",
      "11",
      "1340",
      "0",
      "0",
      "0",
      "0",
      "reversedirection=yes highway=service surface=asphalt",
      "",
      "6676",
      "247206"
     ],
     [
      "44743575",
      "41731521",
      "535",
      "59",
      "1260",
      "0",
      "0",
      "0",
      "0",
      "reversedirection=yes highway=path",
      "",
      "6737",
      "253146"
     ],
     [
      "44743623",
      "41731634",
      "537",
      "13",
      "1440",
      "0",
      "0",
      "0",
      "0",
      "reversedirection=yes highway=service surface=unpaved",
      "",
      "6750",
      "254466"
     ],
     [
      "44743521",
      "41731669",
      "538",
      "9",
      "1220",
      "0",
      "0",
      "0",
      "0",
      "highway=residential surface=asphalt",
      "",
      "6760",
      "255377"
     ],
     [
      "44743353",
      "41732593",
      "558",
      "109",
      "1220",
      "0",
      "0",
      "0",
      "0",
      "highway=residential surface=concrete",
      "",
      "6889",
      "270249"
     ],
     [
      "44742991",
      "41732751",
      "563",
      "39",
      "1220",
      "0",
      "0",
      "0",
      "0",
      "highway=residential surface=asphalt",
      "",
      "6937",
      "275895"
     ],
     [
      "44743181",
      "41732797",
      "564",
      "17",
      "1320",
      "0",
      "0",
      "0",
      "0",
      "highway=residential tracktype=grade3",
      "",
      "6956",
      "278050"
     ],
     [
      "44742732",
      "41733194",
      "578",
      "62",
      "1920",
      "0",
      "0",
      "0",
      "0",
      "reversedirection=yes highway=path surface=rock sac_scale=mountain_hiking",
      "",
      "7032",
      "287071"
     ],
     [
      "44742760",
      "41733450",
      "584",
      "29",
      "1260",
      "0",
      "0",
      "0",
      "0",
      "reversedirection=yes highway=path surface=ground",
      "",
      "7072",
      "292127"
     ],
     [
      "44742740",
      "41733500",
      "585",
      "6",
      "1160",
      "0",
      "0",
      "0",
      "0",
      "reversedirection=yes highway=path surface=paved",
      "estimated_crossing_class=3",
      "7080",
      "293131"
     ],
     [
      "44742991",
      "41733612",
      "586",
      "24",
      "4700",
      "0",
      "0",
      "0",
      "0",
      "highway=secondary surface=asphalt",
      "estimated_crossing_class=3",
      "7110",
      "296716"
     ],
     [
      "44742887",
      "41733617",
      "587",
      "9",
      "1440",
      "0",
      "0",
      "0",
      "0",
      "reversedirection=yes highway=service",
      "",
      "7121",
      "297943"
     ],
     [
      "44745287",
      "41734929",
      "595",
      "247",
      "1260",
      "0",
      "0",
      "0",
      "0",
      "reversedirection=yes highway=footway",
      "highway=crossing crossing=unmarked",
      "7352",
      "316676"
     ],
     [
      "44746153",
      "41736568",
      "617",
      "276",
      "1260",
      "0",
      "0",
      "0",
      "0",
      "reversedirection=yes highway=footway",
      "",
      "7601",
      "335203"
     ],
     [
      "44746158",
      "41736601",
      "618",
      "4",
      "1260",
      "0",
      "0",
      "0",
      "0",
      "highway=footway",
      "highway=crossing estimated_crossing_class=4 crossing=unknown",
      "7604",
      "335507"
     ],
     [
      "44746156",
      "41736645",
      "618",
      "5",
      "1260",
      "0",
      "0",
      "0",
      "0",
      "highway=footway",
      "",
      "7609",
      "335893"
     ],
     [
      "44745272",
      "41737356",
      "625",
      "110",
      "1260",
      "0",
      "0",
      "0",
      "0",
      "highway=path",
      "",
      "7713",
      "344592"
     ],
     [
      "44745225",
      "41737367",
      "625",
      "4",
      "1440",
      "0",
      "0",
      "0",
      "0",
      "highway=service",
      "",
      "7716",
      "344829"
     ],
     [
      "44745108",
      "41737257",
      "625",
      "16",
      "1440",
      "0",
      "0",
      "0",
      "0",
      "highway=service surface=unpaved",
      "",
      "7730",
      "345639"
     ],
     [
      "44745000",
      "41737395",
      "625",
      "18",
      "1340",
      "0",
      "0",
      "0",
      "0",
      "highway=service surface=asphalt",
      "barrier=lift_gate bicycle=yes foot=yes motor_vehicle=destination",
      "7745",
      "346434"
     ],
     [
      "44743633",
      "41738373",
      "629",
      "157",
      "1340",
      "0",
      "0",
      "0",
      "0",
      "highway=service surface=asphalt",
      "",
      "7872",
      "352939"
     ],
     [
      "44743376",
      "41738652",
      "629",
      "38",
      "1340",
      "0",
      "0",
      "0",
      "0",
      "reversedirection=yes highway=service surface=asphalt",
      "barrier=swing_gate motor_vehicle=private",
      "7901",
      "353986"
     ],
     [
      "44743367",
      "41738678",
      "629",
      "3",
      "1100",
      "0",
      "0",
      "0",
      "0",
      "reversedirection=yes highway=pedestrian surface=asphalt bicycle=permissive",
      "",
      "7904",
      "354062"
     ],
     [
      "44741831",
      "41739489",
      "633",
      "186",
      "1260",
      "0",
      "0",
      "0",
      "0",
      "highway=footway surface=grass_paver",
      "",
      "8047",
      "359178"
     ],
     [
      "44741088",
      "41739767",
      "634",
      "70",
      "1440",
      "0",
      "0",
      "0",
      "0",
      "highway=service",
      "",
      "8099",
      "360658"
     ],
     [
      "44738397",
      "41740386",
      "632",
      "234",
      "1440",
      "0",
      "0",
      "0",
      "0",
      "highway=service surface=paved",
      "barrier=lift_gate bicycle=yes foot=yes motor_vehicle=permit",
      "8272",
      "364707"
     ],
     [
      "44737763",
      "41740453",
      "631",
      "53",
      "1440",
      "0",
      "0",
      "0",
      "0",
      "reversedirection=yes highway=service surface=asphalt foot=yes bicycle=yes",
      "barrier=unknown bicycle=yes foot=yes motor_vehicle=permit",
      "8310",
      "365217"
     ],
     [
      "44737100",
      "41740567",
      "632",
      "57",
      "1200",
      "0",
      "0",
      "0",
      "0",
      "reversedirection=yes highway=pedestrian surface=paving_stones foot=designated bicycle=yes",
      "",
      "8351",
      "365776"
     ],
     [
      "44734748",
      "41741148",
      "634",
      "207",
      "1200",
      "0",
      "0",
      "0",
      "0",
      "reversedirection=yes highway=pedestrian surface=concrete foot=designated bicycle=designated",
      "",
      "8504",
      "369524"
     ]
    ],
    "times": [
     0,
     1.442,
     2.896,
     4.375,
     6.631,
     11.17,
     19.662,
     27.387,
     31.294,
     39.058,
     44.41,
     53.736,
     68.846,
     78.131,
     89.631,
     107.74,
     117.772,
     166.291,
     174.377,
     184.352,
     192.238,
     202.403,
     219.615,
     235.834,
     294.309,
     301.847,
     310.867,
     322.848,
     327.72,
     332.7,
     346.762,
     349.291,
     365.683,
     395.903,
     417.444,
     455.283,
     506.667,
     557.152,
     574.545,
     596.399,
     601.622,
     627.829,
     661.903,
     717.95,
     737.394,
     763.733,
     775.297,
     780.336,
     803.585,
     811.878,
     820.238,
     860.538,
     866.347,
     888.375,
     895.641,
     909.88,
     945.767,
     956.927,
     1013.693,
     1020.99,
     1031.974,
     1042.912,
     1057.69,
     1064.921,
     1070.933,
     1079.308,
     1088.766,
     1098.176,
     1107.701,
     1132.975,
     1154.451,
     1157.71,
     1186.937,
     1197.274,
     1208.419,
     1216.539,
     1245.965,
     1261.44,
     1273.655,
     1285.785,
     1302.319,
     1328.519,
     1415.26,
     1456.094,
     1499.872,
     1507.469,
     1558.944,
     1564.905,
     1586.115,
     1623.262,
     1687.342,
     1690.295,
     1709.401,
     1772.283,
     1793.3,
     1799.288,
     1808.662,
     1822.263,
     1836.649,
     1857.96,
     1890.519,
     1919.753,
     1954.243,
     1958.692,
     1964.139,
     1976.618,
     1982.157,
     1988.099,
     2009.575,
     2012.704,
     2025.981,
     2040.608,
     2057.425,
     2096.509,
     2113.807,
     2133.546,
     2151.867,
     2162.428,
     2172.189,
     2194.629,
     2216.2,
     2227.416,
     2249.136,
     2288.944,
     2320.845,
     2328.751,
     2353.427,
     2378.994,
     2414.264,
     2425.188,
     2431.333,
     2441.557,
     2449.366,
     2460.405,
     2465.445,
     2471.467,
     2473.325,
     2487.072,
     2491.787,
     2497.979,
     2504.227,
     2511.078,
     2513.638,
     2533.622,
     2542.925,
     2563.027,
     2579.424,
     2587.473,
     2594.773,
     2602.738,
     2614.154,
     2639.395,
     2641.292,
     2645.237,
     2647.234,
     2649.926,
     2666.117,
     2669.373,
     2685.359,
     2694.606,
     2700.674,
     2704.33,
     2718.819,
     2729.075,
     2744.526,
     2752.633,
     2756.552,
     2762.827,
     2768.857,
     2776.001,
     2793.282,
     2798.403,
     2811.212,
     2820.339,
     2844.763,
     2877.162,
     2892.521,
     2903.886,
     2907.771,
     2920.226,
     2930.804,
     2940.464,
     2944.39,
     2950.49,
     2957.839,
     2970.014,
     2984.188,
     2992.262,
     3003.601,
     3018.6,
     3026.681,
     3032.888,
     3036.663,
     3040.46,
     3045.829,
     3056.145,
     3075.144,
     3093.857,
     3102.414,
     3110.404,
     3120.984,
     3128.38,
     3135.718,
     3155.937,
     3173.118,
     3189.438,
     3207.467,
     3215.129,
     3225.221,
     3231.625,
     3240.018,
     3244.179,
     3253.744,
     3285.549,
     3290.73,
     3302.547,
     3316.928,
     3327.873,
     3334.437,
     3357.974,
     3367.979,
     3398.291,
     3427.949,
     3438.307,
     3441.597,
     3448.345,
     3453.966,
     3460.882,
     3479.997,
     3490.291,
     3495.985,
     3500.533,
     3512.828,
     3535.965,
     3542.313,
     3548.497,
     3553.717,
     3570.992,
     3576.984,
     3581.88,
     3589.849,
     3599.071,
     3604.209,
     3621.935,
     3631.895,
     3636.217,
     3641.485,
     3647.881,
     3662.842,
     3678.422,
     3689.385,
     3695.74,
     3707.755,
     3717.437,
     3722.861,
     3732.94,
     3740.895,
     3744.286,
     3757.402,
     3763.323,
     3769.199,
     3778.897,
     3788.592,
     3798.366,
     3804.395,
     3815.614,
     3824.394,
     3830.6,
     3843.562,
     3852.702,
     3876.61,
     3880.319,
     3892.705,
     3896.277,
     3905.844,
     3918.844,
     3921.122,
     3929.081,
     3933.548,
     3963.227,
     3970.574,
     3983.165,
     3990.392,
     3996.518,
     4009.926,
     4021.197,
     4025.19,
     4031.236,
     4036.259,
     4039.218,
     4046.247,
     4050.184,
     4055.087,
     4061.976,
     4069.865,
     4074.672,
     4080.487,
     4083.336,
     4087.053,
     4090.744,
     4094.411,
     4099.031,
     4111.411,
     4127.863,
     4137.464,
     4144.115,
     4148.812,
     4155.371,
     4192.217,
     4206.728,
     4244.852,
     4264.865,
     4285.248,
     4312.009,
     4325.629,
     4334.313,
     4352.865,
     4376.029,
     4384.655,
     4394.314,
     4403.084,
     4420.513,
     4453.521,
     4460.842,
     4470.995,
     4489.369,
     4494.272,
     4499.189,
     4502.724,
     4507.7,
     4513.389,
     4523.396,
     4529.001,
     4531.798,
     4548.787,
     4560.451,
     4569.79,
     4583.916,
     4590.16,
     4597.548,
     4607.222,
     4613.26,
     4620.634,
     4628.074,
     4633.781,
     4639.034,
     4650.169,
     4655.138,
     4661.728,
     4667.906,
     4675.089,
     4683.32,
     4691.021,
     4706.647,
     4711.051,
     4760.261,
     4770.769,
     4776.131,
     4782.333,
     4786.156,
     4789.232,
     4828.74,
     4845.307,
     4885.422,
     4908.062,
     4915.472,
     4925.636,
     4934.978,
     4938.539,
     4942.777,
     4945.58,
     4949.752,
     4953.896,
     4958.701,
     4966.152,
     4997.088,
     5023.589,
     5045.925,
     5066.481,
     5081.627,
     5096.117,
     5111.592,
     5126.35,
     5131.39,
     5140.221,
     5149.336,
     5152.476,
     5154.402,
     5157.025,
     5158.362,
     5161.801,
     5166.791,
     5168.087,
     5176.314,
     5178.413,
     5181.237,
     5185.586,
     5190.829,
     5194.628,
     5197.712,
     5295.034,
     5406.194,
     5447.748,
     5452.48,
     5455.871,
     5458.59,
     5460.633,
     5463.338,
     5465.371,
     5497.562,
     5500.374,
     5506.709,
     5516.661,
     5518.083,
     5563.243,
     5565.962,
     5572.099,
     5574.15,
     5576.889,
     5592.847,
     5596.36,
     5599.196,
     5606.411,
     5699.199,
     5701.441,
     5703.699,
     5708.956,
     5714.194,
     5720.906,
     5745.458,
     5869.667,
     5883.251,
     5887.002,
     5890.745,
     5893.732,
     5902.739,
     5912.601,
     5995.954,
     5997.47,
     6000.497,
     6012.539,
     6023.744,
     6071.317,
     6074.249,
     6078.678,
     6089.237,
     6160.668,
     6203.689,
     6256.652,
     6263.233,
     6268.163,
     6305,
     6326.279,
     6358.165,
     6363.232,
     6376.002,
     6378.54,
     6381.903,
     6387.837,
     6394.593,
     6399.646,
     6419.352,
     6436.429,
     6460.973,
     6491.359,
     6514.155,
     6548.709,
     6615.677,
     6652.34,
     6666.571,
     6676.821,
     6715.128,
     6726.171,
     6737.466,
     6742.588,
     6750.875,
     6756.021,
     6760.142,
     6764.275,
     6814.589,
     6836.757,
     6861.997,
     6873.814,
     6880.93,
     6889.319,
     6892.948,
     6897.865,
     6904.022,
     6910.122,
     6937.068,
     6956.451,
     6973.183,
     6977.834,
     6997.735,
     7002.534,
     7008.653,
     7014.716,
     7022.223,
     7032.618,
     7053.259,
     7072.549,
     7080.581,
     7097.162,
     7110.521,
     7121.177,
     7187.438,
     7274.639,
     7292.232,
     7352.451,
     7448.125,
     7457.967,
     7490.23,
     7500.989,
     7508.248,
     7515.681,
     7523.151,
     7534.631,
     7551.174,
     7563.799,
     7569.562,
     7586.972,
     7601.054,
     7604.78,
     7609.462,
     7620.92,
     7630.419,
     7636.042,
     7653.35,
     7668.767,
     7691.55,
     7704.407,
     7713.259,
     7716.749,
     7730.229,
     7736.021,
     7745.009,
     7753.946,
     7802.034,
     7820.818,
     7851.014,
     7872.606,
     7889.552,
     7901.815,
     7904.1,
     7910.987,
     7917.125,
     7923.334,
     7946.999,
     7964.367,
     7983.223,
     7996.346,
     8003.229,
     8010.014,
     8026.218,
     8030.62,
     8047.089,
     8067.1,
     8099.543,
     8116.15,
     8181.441,
     8185.768,
     8244.647,
     8249.051,
     8262.117,
     8272.257,
     8277.994,
     8280.862,
     8284.478,
     8301.671,
     8309.483,
     8310.194,
     8351.021,
     8369.774,
     8379.938,
     8385.056,
     8407.237,
     8414.708,
     8444.308,
     8499.276,
     8504.319
    ]
   },
   "geometry": {
    "type": "LineString",
    "coordinates": [
     [
      44.77599,
      41.687156,
      710.25
     ],
     [
      44.775967,
      41.687156,
      710.5
     ],
     [
      44.775963,
      41.687178,
      710.75
     ],
     [
      44.775955,
      41.687194,
      711.25
     ],
     [
      44.775943,
      41.687223,
      711.75
     ],
     [
      44.775877,
      41.687215,
      712
     ],
     [
      44.77575,
      41.687178,
      712.75
     ],
     [
      44.775646,
      41.687134,
      713
     ],
     [
      44.775674,
      41.687176,
      713.5
     ],
     [
      44.77576,
      41.68724,
      713.5
     ],
     [
      44.775836,
      41.687271,
      713.25
     ],
     [
      44.775897,
      41.68738,
      714.5
     ],
     [
      44.775909,
      41.687553,
      717.75
     ],
     [
      44.775938,
      41.687648,
      720
     ],
     [
      44.776012,
      41.687749,
      722
     ],
     [
      44.776172,
      41.687887,
      723.75
     ],
     [
      44.776238,
      41.687968,
      725
     ],
     [
      44.776357,
      41.688365,
      733
     ],
     [
      44.776398,
      41.68843,
      734
     ],
     [
      44.776479,
      41.688491,
      734.5
     ],
     [
      44.776538,
      41.688549,
      735
     ],
     [
      44.77657,
      41.688635,
      736.75
     ],
     [
      44.776497,
      41.688761,
      741.75
     ],
     [
      44.776553,
      41.688879,
      744
     ],
     [
      44.775997,
      41.688669,
      747.75
     ],
     [
      44.775965,
      41.688729,
      750
     ],
     [
      44.775948,
      41.688797,
      752.25
     ],
     [
      44.775909,
      41.688881,
      755.25
     ],
     [
      44.775875,
      41.688908,
      756.75
     ],
     [
      44.775833,
      41.688924,
      758
     ],
     [
      44.775702,
      41.688944,
      760
     ],
     [
      44.775686,
      41.68896,
      760.75
     ],
     [
      44.775638,
      41.689058,
      764.25
     ],
     [
      44.775624,
      41.689243,
      769
     ],
     [
      44.775555,
      41.689371,
      772.5
     ],
     [
      44.775407,
      41.689565,
      778.25
     ],
     [
      44.775235,
      41.689829,
      785.5
     ],
     [
      44.775129,
      41.690111,
      792.25
     ],
     [
      44.774988,
      41.690057,
      793
     ],
     [
      44.774929,
      41.690191,
      796.25
     ],
     [
      44.774937,
      41.690226,
      796.75
     ],
     [
      44.774879,
      41.690393,
      800.5
     ],
     [
      44.774705,
      41.690566,
      805.5
     ],
     [
      44.774582,
      41.690909,
      812.25
     ],
     [
      44.77452,
      41.691033,
      814.25
     ],
     [
      44.774373,
      41.691176,
      817.75
     ],
     [
      44.774271,
      41.691205,
      819.5
     ],
     [
      44.774243,
      41.69123,
      820
     ],
     [
      44.774351,
      41.691383,
      821
     ],
     [
      44.774332,
      41.691441,
      822
     ],
     [
      44.774291,
      41.691497,
      823.25
     ],
     [
      44.773907,
      41.691484,
      828
     ],
     [
      44.773847,
      41.691472,
      828.5
     ],
     [
      44.773646,
      41.691535,
      831.75
     ],
     [
      44.773587,
      41.691569,
      833.25
     ],
     [
      44.77345,
      41.691532,
      834
     ],
     [
      44.773132,
      41.6916,
      839.5
     ],
     [
      44.773039,
      41.691632,
      841.5
     ],
     [
      44.772555,
      41.691725,
      848.75
     ],
     [
      44.772486,
      41.691722,
      849.75
     ],
     [
      44.772395,
      41.691761,
      851
     ],
     [
      44.772292,
      41.691772,
      852.25
     ],
     [
      44.772152,
      41.691758,
      854.25
     ],
     [
      44.772088,
      41.691777,
      855
     ],
     [
      44.772039,
      41.691799,
      855.75
     ],
     [
      44.771982,
      41.691844,
      856.5
     ],
     [
      44.771923,
      41.691906,
      857.25
     ],
     [
      44.771855,
      41.691952,
      858.25
     ],
     [
      44.771768,
      41.691983,
      859.75
     ],
     [
      44.771516,
      41.691949,
      862.25
     ],
     [
      44.771307,
      41.691892,
      863.25
     ],
     [
      44.77127,
      41.69189,
      863.5
     ],
     [
      44.770947,
      41.691867,
      865.25
     ],
     [
      44.770831,
      41.691857,
      866
     ],
     [
      44.770709,
      41.691882,
      866.5
     ],
     [
      44.770626,
      41.691926,
      867.5
     ],
     [
      44.770385,
      41.692103,
      870.5
     ],
     [
      44.770243,
      41.692188,
      872.25
     ],
     [
      44.770107,
      41.692218,
      873.25
     ],
     [
      44.769971,
      41.692237,
      874.25
     ],
     [
      44.769771,
      41.692249,
      874.5
     ],
     [
      44.769435,
      41.692257,
      875.25
     ],
     [
      44.768287,
      41.692315,
      879
     ],
     [
      44.767722,
      41.692326,
      882
     ],
     [
      44.767121,
      41.69236,
      885
     ],
     [
      44.767008,
      41.692366,
      885.5
     ],
     [
      44.766298,
      41.692399,
      888.5
     ],
     [
      44.766231,
      41.692441,
      889.5
     ],
     [
      44.766155,
      41.692681,
      887.75
     ],
     [
      44.765596,
      41.692634,
      889
     ],
     [
      44.764589,
      41.692577,
      889.5
     ],
     [
      44.764543,
      41.692593,
      889.25
     ],
     [
      44.764238,
      41.692634,
      889.25
     ],
     [
      44.763265,
      41.692616,
      892
     ],
     [
      44.762936,
      41.692619,
      893.25
     ],
     [
      44.76289,
      41.69268,
      892.5
     ],
     [
      44.762817,
      41.692784,
      891.5
     ],
     [
      44.762678,
      41.692906,
      890
     ],
     [
      44.762494,
      41.693019,
      888.75
     ],
     [
      44.762179,
      41.693124,
      889.5
     ],
     [
      44.761653,
      41.693233,
      892.25
     ],
     [
      44.761206,
      41.693302,
      894.5
     ],
     [
      44.760708,
      41.693448,
      895.25
     ],
     [
      44.760666,
      41.693491,
      894.75
     ],
     [
      44.760646,
      41.69355,
      893.25
     ],
     [
      44.760668,
      41.693722,
      888.25
     ],
     [
      44.760649,
      41.693795,
      886.5
     ],
     [
      44.760599,
      41.693868,
      885
     ],
     [
      44.760352,
      41.694127,
      882
     ],
     [
      44.760311,
      41.69416,
      881.75
     ],
     [
      44.760148,
      41.694308,
      878.25
     ],
     [
      44.759949,
      41.694443,
      875.25
     ],
     [
      44.759676,
      41.694545,
      873
     ],
     [
      44.758932,
      41.694662,
      872.25
     ],
     [
      44.758595,
      41.694698,
      871.75
     ],
     [
      44.758242,
      41.694694,
      873.75
     ],
     [
      44.757905,
      41.694791,
      869.75
     ],
     [
      44.7577,
      41.694822,
      869.25
     ],
     [
      44.757519,
      41.69488,
      867
     ],
     [
      44.757186,
      41.695021,
      861
     ],
     [
      44.756853,
      41.695112,
      857.25
     ],
     [
      44.756673,
      41.695149,
      855.75
     ],
     [
      44.7563,
      41.695196,
      854.5
     ],
     [
      44.755548,
      41.69526,
      853
     ],
     [
      44.754946,
      41.69532,
      849.75
     ],
     [
      44.754784,
      41.695318,
      848.75
     ],
     [
      44.754347,
      41.695232,
      850.5
     ],
     [
      44.753855,
      41.695202,
      848
     ],
     [
      44.753183,
      41.695101,
      845.75
     ],
     [
      44.75298,
      41.695061,
      845.5
     ],
     [
      44.752863,
      41.695068,
      843.75
     ],
     [
      44.752672,
      41.695098,
      840.5
     ],
     [
      44.75253,
      41.695095,
      839
     ],
     [
      44.75233,
      41.695073,
      838
     ],
     [
      44.752241,
      41.69505,
      838
     ],
     [
      44.752136,
      41.694998,
      839
     ],
     [
      44.752115,
      41.694981,
      839.5
     ],
     [
      44.75195,
      41.694839,
      843.75
     ],
     [
      44.751877,
      41.694808,
      844.25
     ],
     [
      44.751776,
      41.694838,
      841.75
     ],
     [
      44.751675,
      41.694881,
      838.75
     ],
     [
      44.751575,
      41.69495,
      836
     ],
     [
      44.751543,
      41.69498,
      834.75
     ],
     [
      44.751375,
      41.695181,
      827.75
     ],
     [
      44.751271,
      41.695262,
      825.25
     ],
     [
      44.751092,
      41.69543,
      820.5
     ],
     [
      44.750903,
      41.69554,
      818
     ],
     [
      44.750824,
      41.695606,
      816.5
     ],
     [
      44.750758,
      41.695675,
      815
     ],
     [
      44.750665,
      41.695733,
      814.25
     ],
     [
      44.75051,
      41.695799,
      814
     ],
     [
      44.75003,
      41.695909,
      818.75
     ],
     [
      44.749999,
      41.695926,
      819.25
     ],
     [
      44.749989,
      41.695977,
      820.25
     ],
     [
      44.749999,
      41.696007,
      820.5
     ],
     [
      44.75003,
      41.696032,
      820.75
     ],
     [
      44.750297,
      41.696131,
      819.25
     ],
     [
      44.750342,
      41.696164,
      819
     ],
     [
      44.750579,
      41.696306,
      818
     ],
     [
      44.75075,
      41.696332,
      816.25
     ],
     [
      44.750862,
      41.696371,
      815.25
     ],
     [
      44.750908,
      41.696414,
      815
     ],
     [
      44.751062,
      41.696597,
      814
     ],
     [
      44.751165,
      41.696731,
      813
     ],
     [
      44.751302,
      41.696932,
      812.75
     ],
     [
      44.751406,
      41.697023,
      812.25
     ],
     [
      44.751332,
      41.697018,
      813.25
     ],
     [
      44.751235,
      41.697051,
      815
     ],
     [
      44.751147,
      41.6971,
      816.75
     ],
     [
      44.751056,
      41.697161,
      818.5
     ],
     [
      44.750864,
      41.697326,
      821.75
     ],
     [
      44.750807,
      41.697368,
      822.25
     ],
     [
      44.750622,
      41.697426,
      823.25
     ],
     [
      44.750513,
      41.697492,
      823.75
     ],
     [
      44.750119,
      41.697587,
      819.25
     ],
     [
      44.749513,
      41.69774,
      809
     ],
     [
      44.749238,
      41.697795,
      805.5
     ],
     [
      44.749025,
      41.697813,
      804.5
     ],
     [
      44.748965,
      41.69784,
      803
     ],
     [
      44.74887,
      41.697966,
      796.5
     ],
     [
      44.748825,
      41.698072,
      791
     ],
     [
      44.748799,
      41.698161,
      786.5
     ],
     [
      44.748779,
      41.698196,
      784.75
     ],
     [
      44.748735,
      41.69824,
      782.75
     ],
     [
      44.748672,
      41.698287,
      780.5
     ],
     [
      44.748593,
      41.698366,
      777
     ],
     [
      44.748487,
      41.698447,
      774.75
     ],
     [
      44.748393,
      41.698469,
      774.75
     ],
     [
      44.748254,
      41.69849,
      774.75
     ],
     [
      44.748063,
      41.698552,
      774.25
     ],
     [
      44.747941,
      41.698571,
      774.75
     ],
     [
      44.747848,
      41.698599,
      774.75
     ],
     [
      44.747799,
      41.698624,
      774.75
     ],
     [
      44.74778,
      41.698665,
      774
     ],
     [
      44.747848,
      41.698696,
      773
     ],
     [
      44.747992,
      41.698733,
      770.75
     ],
     [
      44.748212,
      41.698841,
      765.75
     ],
     [
      44.748365,
      41.698974,
      760
     ],
     [
      44.748426,
      41.699036,
      757
     ],
     [
      44.748467,
      41.699106,
      754
     ],
     [
      44.748503,
      41.699193,
      750.5
     ],
     [
      44.748513,
      41.699253,
      748.75
     ],
     [
      44.748493,
      41.699314,
      747.5
     ],
     [
      44.748445,
      41.699481,
      744.25
     ],
     [
      44.748446,
      41.699624,
      740.25
     ],
     [
      44.748457,
      41.699763,
      736.5
     ],
     [
      44.748518,
      41.699896,
      732
     ],
     [
      44.748559,
      41.699951,
      730.25
     ],
     [
      44.748611,
      41.700022,
      727.75
     ],
     [
      44.74856,
      41.700056,
      727.5
     ],
     [
      44.748512,
      41.700117,
      726.5
     ],
     [
      44.748527,
      41.70015,
      725.5
     ],
     [
      44.748526,
      41.700227,
      723.5
     ],
     [
      44.748422,
      41.700466,
      717.25
     ],
     [
      44.74839,
      41.700499,
      716.25
     ],
     [
      44.748365,
      41.700595,
      713.5
     ],
     [
      44.748346,
      41.700707,
      710
     ],
     [
      44.748397,
      41.700791,
      707.75
     ],
     [
      44.748373,
      41.700839,
      706
     ],
     [
      44.748387,
      41.701016,
      700.75
     ],
     [
      44.748418,
      41.701089,
      699
     ],
     [
      44.748442,
      41.701314,
      692.25
     ],
     [
      44.748405,
      41.701529,
      685.5
     ],
     [
      44.748456,
      41.701603,
      683.5
     ],
     [
      44.748483,
      41.701613,
      683.5
     ],
     [
      44.748478,
      41.701663,
      681.75
     ],
     [
      44.748437,
      41.701699,
      680.5
     ],
     [
      44.748431,
      41.701755,
      678.5
     ],
     [
      44.748534,
      41.701881,
      674.75
     ],
     [
      44.74861,
      41.70194,
      673
     ],
     [
      44.748601,
      41.701981,
      671.5
     ],
     [
      44.748568,
      41.702005,
      670.5
     ],
     [
      44.74844,
      41.702023,
      669.25
     ],
     [
      44.748199,
      41.702092,
      666
     ],
     [
      44.748205,
      41.702146,
      664.25
     ],
     [
      44.748264,
      41.70217,
      663.75
     ],
     [
      44.748266,
      41.702218,
      662.25
     ],
     [
      44.748066,
      41.702243,
      660.75
     ],
     [
      44.748078,
      41.702295,
      659
     ],
     [
      44.74813,
      41.702317,
      658.5
     ],
     [
      44.748174,
      41.702378,
      656.75
     ],
     [
      44.748185,
      41.702456,
      654.25
     ],
     [
      44.7482,
      41.7025,
      652.75
     ],
     [
      44.748145,
      41.702635,
      648.25
     ],
     [
      44.748137,
      41.702714,
      645.5
     ],
     [
      44.748163,
      41.702743,
      644.75
     ],
     [
      44.748218,
      41.702747,
      644.5
     ],
     [
      44.748264,
      41.70279,
      643
     ],
     [
      44.74841,
      41.702853,
      640.75
     ],
     [
      44.748471,
      41.702975,
      636.5
     ],
     [
      44.748545,
      41.703041,
      634.25
     ],
     [
      44.748613,
      41.703058,
      633.5
     ],
     [
      44.748692,
      41.70314,
      630.75
     ],
     [
      44.748773,
      41.703192,
      629
     ],
     [
      44.748785,
      41.703239,
      627.25
     ],
     [
      44.748748,
      41.703312,
      624.75
     ],
     [
      44.748768,
      41.703371,
      622.5
     ],
     [
      44.748758,
      41.7034,
      621.5
     ],
     [
      44.748827,
      41.703489,
      618.25
     ],
     [
      44.748827,
      41.703535,
      616.5
     ],
     [
      44.748863,
      41.703566,
      615.5
     ],
     [
      44.748859,
      41.703634,
      613
     ],
     [
      44.748809,
      41.703692,
      611
     ],
     [
      44.748853,
      41.703752,
      608.75
     ],
     [
      44.748897,
      41.703787,
      607.5
     ],
     [
      44.748854,
      41.703865,
      604.75
     ],
     [
      44.74889,
      41.703924,
      602.5
     ],
     [
      44.748853,
      41.703964,
      601.25
     ],
     [
      44.748866,
      41.704055,
      598
     ],
     [
      44.748855,
      41.704121,
      595.5
     ],
     [
      44.748888,
      41.704282,
      591.5
     ],
     [
      44.748908,
      41.704309,
      590.75
     ],
     [
      44.748895,
      41.704397,
      589
     ],
     [
      44.748903,
      41.704421,
      588.5
     ],
     [
      44.748854,
      41.704485,
      587
     ],
     [
      44.748853,
      41.704584,
      585
     ],
     [
      44.748846,
      41.704605,
      584.5
     ],
     [
      44.748796,
      41.704651,
      583.5
     ],
     [
      44.748792,
      41.704683,
      582.75
     ],
     [
      44.748591,
      41.704859,
      578.5
     ],
     [
      44.748583,
      41.704922,
      577.25
     ],
     [
      44.748491,
      41.705004,
      575.25
     ],
     [
      44.748491,
      41.705064,
      573.75
     ],
     [
      44.748452,
      41.705109,
      572.75
     ],
     [
      44.748382,
      41.705211,
      570.5
     ],
     [
      44.748365,
      41.705309,
      568.25
     ],
     [
      44.748373,
      41.705348,
      567.5
     ],
     [
      44.748367,
      41.705398,
      566.25
     ],
     [
      44.748377,
      41.705444,
      565.25
     ],
     [
      44.748408,
      41.705464,
      565
     ],
     [
      44.748387,
      41.705526,
      563.5
     ],
     [
      44.748364,
      41.705558,
      563
     ],
     [
      44.748319,
      41.705591,
      562.25
     ],
     [
      44.748281,
      41.705652,
      561
     ],
     [
      44.748284,
      41.705726,
      559.5
     ],
     [
      44.748235,
      41.705755,
      559
     ],
     [
      44.748227,
      41.705813,
      557.75
     ],
     [
      44.748201,
      41.705833,
      557.5
     ],
     [
      44.748154,
      41.705841,
      557.5
     ],
     [
      44.748128,
      41.705868,
      557
     ],
     [
      44.748111,
      41.705901,
      556.5
     ],
     [
      44.748137,
      41.705938,
      555.5
     ],
     [
      44.748147,
      41.706051,
      553
     ],
     [
      44.748146,
      41.706204,
      549.75
     ],
     [
      44.748175,
      41.706293,
      547.5
     ],
     [
      44.748214,
      41.706346,
      546.25
     ],
     [
      44.748259,
      41.706378,
      545.5
     ],
     [
      44.748337,
      41.706403,
      544.5
     ],
     [
      44.748344,
      41.706723,
      537.5
     ],
     [
      44.748333,
      41.706858,
      534.25
     ],
     [
      44.748418,
      41.707178,
      526.25
     ],
     [
      44.748377,
      41.707351,
      522.25
     ],
     [
      44.748427,
      41.707531,
      517.75
     ],
     [
      44.748569,
      41.707735,
      512.75
     ],
     [
      44.748395,
      41.707784,
      512.5
     ],
     [
      44.7483,
      41.707834,
      511.75
     ],
     [
      44.748152,
      41.707988,
      508.75
     ],
     [
      44.74782,
      41.708073,
      508
     ],
     [
      44.74787,
      41.708166,
      506
     ],
     [
      44.747957,
      41.708255,
      503.75
     ],
     [
      44.748076,
      41.708305,
      502.5
     ],
     [
      44.748326,
      41.708376,
      500.5
     ],
     [
      44.74825,
      41.708748,
      496.5
     ],
     [
      44.748282,
      41.708833,
      495.5
     ],
     [
      44.748425,
      41.708906,
      494.5
     ],
     [
      44.748394,
      41.709133,
      492
     ],
     [
      44.748346,
      41.709182,
      491.75
     ],
     [
      44.748322,
      41.709238,
      491
     ],
     [
      44.748322,
      41.709286,
      490.25
     ],
     [
      44.748341,
      41.709343,
      489.5
     ],
     [
      44.748379,
      41.709412,
      488.75
     ],
     [
      44.748488,
      41.709509,
      487.5
     ],
     [
      44.748552,
      41.70956,
      487
     ],
     [
      44.748575,
      41.709589,
      486.5
     ],
     [
      44.748702,
      41.709779,
      484.75
     ],
     [
      44.748784,
      41.709917,
      483.75
     ],
     [
      44.748833,
      41.710038,
      483.25
     ],
     [
      44.748854,
      41.710232,
      483
     ],
     [
      44.748836,
      41.710325,
      482.75
     ],
     [
      44.748788,
      41.710431,
      482.5
     ],
     [
      44.748706,
      41.710558,
      482.25
     ],
     [
      44.74865,
      41.710633,
      482
     ],
     [
      44.748567,
      41.710716,
      482
     ],
     [
      44.748467,
      41.710795,
      481.75
     ],
     [
      44.748376,
      41.710844,
      482
     ],
     [
      44.748289,
      41.710879,
      482.75
     ],
     [
      44.748111,
      41.710923,
      484.25
     ],
     [
      44.74812,
      41.710985,
      484.75
     ],
     [
      44.748003,
      41.710996,
      485.5
     ],
     [
      44.747912,
      41.711039,
      486.5
     ],
     [
      44.74783,
      41.711099,
      487.75
     ],
     [
      44.747764,
      41.711181,
      489
     ],
     [
      44.747652,
      41.711202,
      490
     ],
     [
      44.747587,
      41.711384,
      492.25
     ],
     [
      44.747654,
      41.71139,
      492
     ],
     [
      44.748461,
      41.711464,
      488.75
     ],
     [
      44.748443,
      41.711591,
      490
     ],
     [
      44.748435,
      41.711655,
      490.75
     ],
     [
      44.748427,
      41.711723,
      491.25
     ],
     [
      44.748369,
      41.711718,
      491
     ],
     [
      44.748327,
      41.711726,
      491.25
     ],
     [
      44.748245,
      41.7122,
      493.75
     ],
     [
      44.748211,
      41.7124,
      494.5
     ],
     [
      44.748128,
      41.712903,
      493.25
     ],
     [
      44.748089,
      41.713167,
      492
     ],
     [
      44.748112,
      41.713253,
      491.75
     ],
     [
      44.747941,
      41.713253,
      491.25
     ],
     [
      44.747781,
      41.713248,
      491
     ],
     [
      44.747762,
      41.713294,
      490.75
     ],
     [
      44.747725,
      41.71334,
      490.5
     ],
     [
      44.747688,
      41.713362,
      490.25
     ],
     [
      44.747625,
      41.713381,
      490
     ],
     [
      44.747642,
      41.713435,
      489.75
     ],
     [
      44.74766,
      41.713496,
      489.5
     ],
     [
      44.747692,
      41.713589,
      489
     ],
     [
      44.747143,
      41.713669,
      487.5
     ],
     [
      44.746703,
      41.713756,
      485.5
     ],
     [
      44.746342,
      41.713873,
      484.25
     ],
     [
      44.746024,
      41.714036,
      482
     ],
     [
      44.745818,
      41.7142,
      479.25
     ],
     [
      44.745659,
      41.714364,
      476.25
     ],
     [
      44.745527,
      41.714556,
      474
     ],
     [
      44.745444,
      41.714751,
      472.5
     ],
     [
      44.745427,
      41.714821,
      472
     ],
     [
      44.74542,
      41.714945,
      471.25
     ],
     [
      44.745424,
      41.715083,
      472.25
     ],
     [
      44.745425,
      41.715126,
      472.75
     ],
     [
      44.745426,
      41.715156,
      473.25
     ],
     [
      44.745426,
      41.715193,
      473.75
     ],
     [
      44.745427,
      41.715214,
      474.25
     ],
     [
      44.745429,
      41.715262,
      475
     ],
     [
      44.745429,
      41.715326,
      476
     ],
     [
      44.745431,
      41.715348,
      476.25
     ],
     [
      44.745438,
      41.715453,
      477.75
     ],
     [
      44.74544,
      41.715479,
      478.25
     ],
     [
      44.745444,
      41.715511,
      478.5
     ],
     [
      44.745449,
      41.715561,
      479.25
     ],
     [
      44.745454,
      41.715625,
      480.25
     ],
     [
      44.745457,
      41.715666,
      480.75
     ],
     [
      44.745461,
      41.715698,
      481.25
     ],
     [
      44.745584,
      41.716978,
      476.5
     ],
     [
      44.745763,
      41.718531,
      459.5
     ],
     [
      44.745821,
      41.719096,
      459
     ],
     [
      44.745824,
      41.719159,
      459
     ],
     [
      44.745826,
      41.719205,
      459
     ],
     [
      44.74583,
      41.719239,
      459
     ],
     [
      44.745844,
      41.719259,
      459
     ],
     [
      44.745882,
      41.719276,
      458.75
     ],
     [
      44.745918,
      41.71929,
      458.75
     ],
     [
      44.745963,
      41.719699,
      459.5
     ],
     [
      44.745916,
      41.719701,
      459.5
     ],
     [
      44.745919,
      41.719785,
      459.5
     ],
     [
      44.745926,
      41.719908,
      459.75
     ],
     [
      44.745908,
      41.719909,
      459.75
     ],
     [
      44.74596,
      41.720517,
      460
     ],
     [
      44.74598,
      41.720551,
      460
     ],
     [
      44.74598,
      41.720636,
      460
     ],
     [
      44.74598,
      41.720663,
      460
     ],
     [
      44.745981,
      41.720699,
      460
     ],
     [
      44.745964,
      41.720904,
      460.25
     ],
     [
      44.745956,
      41.720951,
      460.5
     ],
     [
      44.745948,
      41.72099,
      460.75
     ],
     [
      44.745936,
      41.72108,
      461.25
     ],
     [
      44.745765,
      41.72214,
      468.25
     ],
     [
      44.745798,
      41.722143,
      468.25
     ],
     [
      44.745794,
      41.72217,
      468.5
     ],
     [
      44.745881,
      41.722177,
      468.5
     ],
     [
      44.745964,
      41.722185,
      468.5
     ],
     [
      44.746077,
      41.722196,
      468.5
     ],
     [
      44.746032,
      41.722471,
      470.75
     ],
     [
      44.745788,
      41.723877,
      474
     ],
     [
      44.745762,
      41.724036,
      474.5
     ],
     [
      44.745764,
      41.724078,
      474.5
     ],
     [
      44.745709,
      41.724085,
      474.5
     ],
     [
      44.745662,
      41.724095,
      474.5
     ],
     [
      44.745647,
      41.724203,
      474.75
     ],
     [
      44.745632,
      41.724316,
      475.25
     ],
     [
      44.745522,
      41.725254,
      478.5
     ],
     [
      44.74552,
      41.725271,
      478.5
     ],
     [
      44.745515,
      41.725306,
      478.5
     ],
     [
      44.745491,
      41.725447,
      478.5
     ],
     [
      44.745467,
      41.72558,
      478.5
     ],
     [
      44.744695,
      41.725513,
      478.25
     ],
     [
      44.744653,
      41.725532,
      478.5
     ],
     [
      44.744593,
      41.725559,
      478.75
     ],
     [
      44.74442,
      41.725543,
      479.5
     ],
     [
      44.744287,
      41.726318,
      484
     ],
     [
      44.744211,
      41.726769,
      488.25
     ],
     [
      44.744136,
      41.727323,
      491
     ],
     [
      44.744122,
      41.727398,
      491.5
     ],
     [
      44.744111,
      41.727455,
      491.75
     ],
     [
      44.744035,
      41.727839,
      494.25
     ],
     [
      44.74399,
      41.728059,
      495.75
     ],
     [
      44.743925,
      41.728386,
      497.75
     ],
     [
      44.743916,
      41.72844,
      498.25
     ],
     [
      44.743887,
      41.72857,
      499
     ],
     [
      44.743889,
      41.728601,
      499.25
     ],
     [
      44.743921,
      41.728629,
      499.25
     ],
     [
      44.74389,
      41.728691,
      499.75
     ],
     [
      44.74386,
      41.728759,
      500
     ],
     [
      44.743935,
      41.728774,
      500.25
     ],
     [
      44.743875,
      41.72898,
      501.5
     ],
     [
      44.743861,
      41.729156,
      502.5
     ],
     [
      44.743877,
      41.7294,
      505.75
     ],
     [
      44.743999,
      41.729673,
      509.25
     ],
     [
      44.744101,
      41.729876,
      511.5
     ],
     [
      44.743778,
      41.730076,
      515.25
     ],
     [
      44.743705,
      41.730659,
      521.75
     ],
     [
      44.743491,
      41.730951,
      525.5
     ],
     [
      44.74366,
      41.730991,
      526.5
     ],
     [
      44.743782,
      41.731024,
      527
     ],
     [
      44.743695,
      41.731349,
      532.5
     ],
     [
      44.74363,
      41.731432,
      534
     ],
     [
      44.743575,
      41.731521,
      535.75
     ],
     [
      44.743602,
      41.731563,
      536.5
     ],
     [
      44.743623,
      41.731634,
      537.5
     ],
     [
      44.743567,
      41.731649,
      538
     ],
     [
      44.743521,
      41.731669,
      538.5
     ],
     [
      44.743495,
      41.731697,
      539
     ],
     [
      44.743348,
      41.732055,
      546.75
     ],
     [
      44.743281,
      41.732219,
      550.25
     ],
     [
      44.743251,
      41.732407,
      554
     ],
     [
      44.74327,
      41.732492,
      555.75
     ],
     [
      44.743301,
      41.732539,
      557
     ],
     [
      44.743353,
      41.732593,
      558.25
     ],
     [
      44.743355,
      41.732624,
      559.25
     ],
     [
      44.743339,
      41.732656,
      560.25
     ],
     [
      44.743296,
      41.732682,
      561
     ],
     [
      44.743247,
      41.732701,
      561.5
     ],
     [
      44.742991,
      41.732751,
      563.75
     ],
     [
      44.743181,
      41.732797,
      564.5
     ],
     [
      44.743128,
      41.732915,
      568
     ],
     [
      44.743078,
      41.732925,
      568.5
     ],
     [
      44.742949,
      41.733029,
      572
     ],
     [
      44.7429,
      41.733038,
      572.5
     ],
     [
      44.742852,
      41.733068,
      573.75
     ],
     [
      44.742799,
      41.733081,
      574.25
     ],
     [
      44.742781,
      41.733131,
      576
     ],
     [
      44.742732,
      41.733194,
      578.25
     ],
     [
      44.742787,
      41.733325,
      582
     ],
     [
      44.74276,
      41.73345,
      584.75
     ],
     [
      44.74274,
      41.7335,
      585.75
     ],
     [
      44.742879,
      41.733553,
      586
     ],
     [
      44.742991,
      41.733612,
      586.5
     ],
     [
      44.742887,
      41.733617,
      587.25
     ],
     [
      44.743481,
      41.733931,
      590
     ],
     [
      44.744401,
      41.734437,
      592
     ],
     [
      44.744597,
      41.73455,
      592.75
     ],
     [
      44.745287,
      41.734929,
      595.5
     ],
     [
      44.74636,
      41.735516,
      601
     ],
     [
      44.746468,
      41.735585,
      602.25
     ],
     [
      44.746773,
      41.73581,
      606.25
     ],
     [
      44.746857,
      41.735895,
      607.75
     ],
     [
      44.746885,
      41.735964,
      608.75
     ],
     [
      44.74689,
      41.736038,
      610
     ],
     [
      44.746865,
      41.736105,
      610.75
     ],
     [
      44.746803,
      41.736206,
      612.25
     ],
     [
      44.746692,
      41.736335,
      614
     ],
     [
      44.746576,
      41.736412,
      615.25
     ],
     [
      44.746508,
      41.736439,
      615.75
     ],
     [
      44.746324,
      41.736519,
      617
     ],
     [
      44.746153,
      41.736568,
      617.5
     ],
     [
      44.746158,
      41.736601,
      618
     ],
     [
      44.746156,
      41.736645,
      618.5
     ],
     [
      44.746069,
      41.736731,
      619.75
     ],
     [
      44.745984,
      41.736799,
      620.5
     ],
     [
      44.745925,
      41.736823,
      620.75
     ],
     [
      44.745775,
      41.736945,
      622.5
     ],
     [
      44.7457,
      41.737074,
      624
     ],
     [
      44.745504,
      41.737231,
      625.25
     ],
     [
      44.745372,
      41.737309,
      625.75
     ],
     [
      44.745272,
      41.737356,
      625.5
     ],
     [
      44.745225,
      41.737367,
      625.5
     ],
     [
      44.745108,
      41.737257,
      625
     ],
     [
      44.745079,
      41.737318,
      625
     ],
     [
      44.745,
      41.737395,
      625
     ],
     [
      44.74491,
      41.737462,
      625.25
     ],
     [
      44.744434,
      41.737833,
      628
     ],
     [
      44.744227,
      41.737974,
      628.75
     ],
     [
      44.74387,
      41.738192,
      629
     ],
     [
      44.743633,
      41.738373,
      629
     ],
     [
      44.743472,
      41.73853,
      629.5
     ],
     [
      44.743376,
      41.738652,
      629.75
     ],
     [
      44.743367,
      41.738678,
      629.75
     ],
     [
      44.743265,
      41.738664,
      630
     ],
     [
      44.743173,
      41.738687,
      630.25
     ],
     [
      44.743103,
      41.738739,
      630.75
     ],
     [
      44.742878,
      41.738951,
      631.75
     ],
     [
      44.742678,
      41.739079,
      632.5
     ],
     [
      44.742444,
      41.73921,
      633
     ],
     [
      44.742287,
      41.739309,
      633
     ],
     [
      44.742213,
      41.739364,
      633
     ],
     [
      44.742174,
      41.739438,
      632.75
     ],
     [
      44.742041,
      41.739611,
      632.25
     ],
     [
      44.741983,
      41.739646,
      632.25
     ],
     [
      44.741831,
      41.739489,
      633
     ],
     [
      44.741572,
      41.739629,
      633
     ],
     [
      44.741088,
      41.739767,
      634
     ],
     [
      44.740843,
      41.739838,
      634.5
     ],
     [
      44.739813,
      41.740088,
      633.75
     ],
     [
      44.739745,
      41.740106,
      633.75
     ],
     [
      44.738838,
      41.740297,
      632.75
     ],
     [
      44.738769,
      41.740316,
      632.5
     ],
     [
      44.73856,
      41.74035,
      632.25
     ],
     [
      44.738397,
      41.740386,
      632.25
     ],
     [
      44.738299,
      41.740395,
      632
     ],
     [
      44.738249,
      41.7404,
      632
     ],
     [
      44.738191,
      41.740399,
      632.25
     ],
     [
      44.737903,
      41.74044,
      632
     ],
     [
      44.737772,
      41.740452,
      631.75
     ],
     [
      44.737763,
      41.740453,
      631.75
     ],
     [
      44.7371,
      41.740567,
      632
     ],
     [
      44.73679,
      41.740607,
      632.25
     ],
     [
      44.736627,
      41.740637,
      632.5
     ],
     [
      44.736553,
      41.740673,
      632.75
     ],
     [
      44.736251,
      41.740817,
      633.25
     ],
     [
      44.736141,
      41.740851,
      633.75
     ],
     [
      44.735701,
      41.740958,
      635.5
     ],
     [
      44.734834,
      41.74114,
      634.5
     ],
     [
      44.734748,
      41.741148,
      634.25
     ]
    ]
   }
  }
 ]
}