{
 "type": "FeatureCollection",
 "features": [
  {
   "type": "Feature",
   "properties": {
    "creator": "BRouter-1.7.11-beta",
    "name": "brouter_trekking_0",
    "track-length": "14435",
    "filtered ascend": "252",
    "plain-ascend": "-75",
    "total-time": "3736",
    "total-energy": "346280",
    "cost": "37886",
    "messages": [
     [
      "Longitude",
      "Latitude",
      "Elevation",
      "Distance",
      "CostPerKm",
      "ElevCost",
      "TurnCost",
      "NodeCost",
      "InitialCost",
      "WayTags",
      "NodeTags",
      "Time",
      "Energy"
     ],
     [
      "44775598",
      "41687062",
      "712",
      "35",
      "1150",
      "0",
      "5",
      "0",
      "0",
      "highway=residential surface=asphalt",
      "",
      "8",
      "878"
     ],
     [
      "44779449",
      "41684168",
      "689",
      "638",
      "1150",
      "664",
      "157",
      "0",
      "0",
      "reversedirection=yes highway=residential surface=asphalt",
      "estimated_crossing_class=4",
      "97",
      "8013"
     ],
     [
      "44782200",
      "41684280",
      "673",
      "230",
      "1650",
      "746",
      "43",
      "0",
      "0",
      "highway=secondary surface=asphalt smoothness=good",
      "estimated_crossing_class=4",
      "116",
      "8013"
     ],
     [
      "44785836",
      "41683759",
      "643",
      "493",
      "1650",
      "1354",
      "167",
      "0",
      "0",
      "highway=secondary surface=asphalt smoothness=good",
      "estimated_crossing_class=4",
      "156",
      "8905"
     ],
     [
      "44787239",
      "41683869",
      "633",
      "117",
      "1650",
      "477",
      "1",
      "0",
      "0",
      "highway=secondary surface=asphalt",
      "estimated_crossing_class=4",
      "166",
      "8905"
     ],
     [
      "44787983",
      "41684173",
      "635",
      "74",
      "1650",
      "78",
      "3",
      "0",
      "0",
      "highway=secondary surface=asphalt",
      "estimated_crossing_class=4",
      "172",
      "9198"
     ],
     [
      "44790674",
      "41686447",
      "594",
      "707",
      "1650",
      "1890",
      "68",
      "0",
      "0",
      "highway=secondary surface=asphalt",
      "estimated_crossing_class=4",
      "239",
      "12452"
     ],
     [
      "44789844",
      "41686529",
      "592",
      "104",
      "1650",
      "0",
      "65",
      "0",
      "0",
      "highway=secondary surface=asphalt",
      "estimated_crossing_class=4",
      "254",
      "13926"
     ],
     [
      "44791653",
      "41686753",
      "585",
      "154",
      "1650",
      "33",
      "5",
      "0",
      "0",
      "highway=secondary surface=asphalt",
      "",
      "267",
      "15129"
     ],
     [
      "44794736",
      "41684897",
      "553",
      "584",
      "1650",
      "1475",
      "87",
      "0",
      "0",
      "highway=secondary surface=asphalt oneway=no",
      "estimated_crossing_class=4",
      "320",
      "17935"
     ],
     [
      "44795906",
      "41686687",
      "539",
      "225",
      "1650",
      "727",
      "9",
      "0",
      "0",
      "highway=secondary surface=asphalt oneway=no",
      "",
      "338",
      "18302"
     ],
     [
      "44796382",
      "41687129",
      "535",
      "62",
      "1650",
      "0",
      "0",
      "0",
      "0",
      "highway=secondary surface=asphalt",
      "",
      "343",
      "18317"
     ],
     [
      "44795730",
      "41687857",
      "526",
      "136",
      "1650",
      "0",
      "18",
      "0",
      "0",
      "highway=secondary surface=asphalt oneway=yes",
      "",
      "357",
      "19684"
     ],
     [
      "44794965",
      "41687876",
      "522",
      "64",
      "1650",
      "589",
      "0",
      "0",
      "0",
      "highway=secondary surface=asphalt",
      "",
      "365",
      "20450"
     ],
     [
      "44793356",
      "41687983",
      "517",
      "137",
      "1650",
      "362",
      "10",
      "0",
      "0",
      "highway=secondary surface=asphalt oneway=no",
      "estimated_crossing_class=4",
      "376",
      "20450"
     ],
     [
      "44791751",
      "41688476",
      "503",
      "149",
      "1650",
      "488",
      "17",
      "0",
      "0",
      "highway=secondary surface=asphalt oneway=no",
      "highway=crossing estimated_crossing_class=4 crossing=unmarked",
      "388",
      "20491"
     ],
     [
      "44789765",
      "41689498",
      "494",
      "295",
      "1650",
      "957",
      "71",
      "0",
      "0",
      "highway=secondary surface=asphalt oneway=no",
      "estimated_crossing_class=4",
      "429",
      "23369"
     ],
     [
      "44789728",
      "41689752",
      "493",
      "28",
      "1150",
      "0",
      "3",
      "0",
      "0",
      "reversedirection=yes highway=residential",
      "",
      "431",
      "23621"
     ],
     [
      "44790278",
      "41690002",
      "491",
      "54",
      "1350",
      "0",
      "52",
      "0",
      "0",
      "reversedirection=yes highway=service",
      "",
      "435",
      "23989"
     ],
     [
      "44790743",
      "41689591",
      "487",
      "61",
      "1150",
      "0",
      "86",
      "0",
      "0",
      "highway=residential",
      "",
      "440",
      "24381"
     ],
     [
      "44792679",
      "41690439",
      "483",
      "188",
      "1150",
      "215",
      "71",
      "0",
      "0",
      "reversedirection=yes highway=residential",
      "",
      "459",
      "25559"
     ],
     [
      "44792626",
      "41690601",
      "488",
      "18",
      "1150",
      "0",
      "93",
      "0",
      "0",
      "highway=residential",
      "",
      "462",
      "25834"
     ],
     [
      "44793558",
      "41690751",
      "486",
      "84",
      "1150",
      "0",
      "80",
      "0",
      "0",
      "reversedirection=yes highway=residential",
      "barrier=bar bicycle=yes foot=yes motor_vehicle=no motorcycle=yes",
      "477",
      "27398"
     ],
     [
      "44793870",
      "41690729",
      "483",
      "26",
      "3050",
      "0",
      "0",
      "0",
      "0",
      "reversedirection=yes highway=pedestrian",
      "barrier=bar bicycle=yes foot=yes motor_vehicle=no motorcycle=yes",
      "481",
      "27723"
     ],
     [
      "44795337",
      "41690776",
      "471",
      "126",
      "1150",
      "318",
      "17",
      "0",
      "0",
      "reversedirection=yes highway=residential",
      "",
      "492",
      "28201"
     ],
     [
      "44795381",
      "41690842",
      "471",
      "8",
      "1150",
      "0",
      "30",
      "0",
      "0",
      "highway=residential oneway=yes",
      "",
      "493",
      "28201"
     ],
     [
      "44795067",
      "41691075",
      "476",
      "37",
      "1150",
      "0",
      "67",
      "0",
      "0",
      "reversedirection=yes highway=residential",
      "",
      "497",
      "28582"
     ],
     [
      "44794608",
      "41691908",
      "481",
      "102",
      "1150",
      "0",
      "1",
      "0",
      "0",
      "reversedirection=yes highway=residential surface=asphalt",
      "",
      "518",
      "30674"
     ],
     [
      "44792977",
      "41694612",
      "491",
      "361",
      "1150",
      "0",
      "121",
      "0",
      "0",
      "reversedirection=yes highway=residential surface=cobblestone",
      "crossing=unknown",
      "676",
      "46562"
     ],
     [
      "44793014",
      "41694628",
      "490",
      "4",
      "1150",
      "11",
      "9",
      "0",
      "0",
      "reversedirection=yes highway=residential surface=cobblestone",
      "",
      "677",
      "46600"
     ],
     [
      "44791644",
      "41696235",
      "501",
      "220",
      "1450",
      "0",
      "116",
      "0",
      "0",
      "highway=tertiary surface=asphalt oneway=no",
      "",
      "734",
      "52347"
     ],
     [
      "44790941",
      "41697835",
      "509",
      "186",
      "1450",
      "0",
      "2",
      "0",
      "0",
      "reversedirection=yes highway=tertiary surface=asphalt",
      "traffic_calming=bump",
      "817",
      "60611"
     ],
     [
      "44790768",
      "41698457",
      "506",
      "71",
      "1450",
      "0",
      "2",
      "0",
      "0",
      "reversedirection=yes highway=tertiary surface=asphalt",
      "",
      "834",
      "62309"
     ],
     [
      "44789584",
      "41699552",
      "507",
      "157",
      "1450",
      "0",
      "2",
      "0",
      "0",
      "reversedirection=yes highway=tertiary surface=asphalt smoothness=excellent oneway=no",
      "highway=crossing crossing=uncontrolled",
      "866",
      "65552"
     ],
     [
      "44789403",
      "41699715",
      "506",
      "24",
      "1450",
      "0",
      "0",
      "0",
      "0",
      "reversedirection=yes highway=tertiary surface=asphalt smoothness=excellent oneway=no",
      "",
      "871",
      "66043"
     ],
     [
      "44786517",
      "41702061",
      "486",
      "401",
      "1450",
      "237",
      "36",
      "0",
      "0",
      "reversedirection=yes highway=tertiary surface=asphalt oneway=no",
      "highway=crossing crossing=unmarked",
      "911",
      "69402"
     ],
     [
      "44786546",
      "41702125",
      "486",
      "8",
      "1450",
      "22",
      "0",
      "0",
      "0",
      "reversedirection=yes highway=tertiary surface=asphalt oneway=no",
      "highway=crossing crossing=unmarked",
      "911",
      "69455"
     ],
     [
      "44786755",
      "41702606",
      "482",
      "56",
      "1450",
      "159",
      "0",
      "0",
      "0",
      "reversedirection=yes highway=tertiary surface=asphalt oneway=no",
      "",
      "916",
      "69455"
     ],
     [
      "44786718",
      "41702614",
      "483",
      "3",
      "1150",
      "0",
      "93",
      "0",
      "0",
      "reversedirection=yes highway=residential surface=asphalt oneway=no",
      "highway=crossing crossing=unmarked",
      "916",
      "69479"
     ],
     [
      "44785832",
      "41702799",
      "481",
      "77",
      "1150",
      "33",
      "0",
      "0",
      "0",
      "reversedirection=yes highway=residential surface=asphalt oneway=no",
      "",
      "922",
      "70117"
     ],
     [
      "44786046",
      "41703319",
      "474",
      "60",
      "1150",
      "336",
      "94",
      "0",
      "0",
      "reversedirection=yes highway=residential surface=cobblestone",
      "highway=crossing crossing=unmarked",
      "927",
      "70117"
     ],
     [
      "44786063",
      "41703361",
      "474",
      "5",
      "1150",
      "10",
      "0",
      "0",
      "0",
      "reversedirection=yes highway=residential surface=cobblestone",
      "",
      "928",
      "70117"
     ],
     [
      "44786071",
      "41703383",
      "474",
      "3",
      "1150",
      "12",
      "0",
      "0",
      "0",
      "highway=residential surface=sett oneway=yes",
      "highway=crossing crossing=unmarked",
      "928",
      "70117"
     ],
     [
      "44786149",
      "41703603",
      "472",
      "25",
      "1150",
      "97",
      "0",
      "0",
      "0",
      "highway=residential surface=sett oneway=yes",
      "",
      "930",
      "70117"
     ],
     [
      "44786355",
      "41704186",
      "466",
      "67",
      "1150",
      "299",
      "0",
      "0",
      "0",
      "highway=residential surface=asphalt oneway=yes",
      "highway=crossing crossing=unmarked",
      "935",
      "70117"
     ],
     [
      "44786364",
      "41704213",
      "465",
      "3",
      "1150",
      "12",
      "0",
      "0",
      "0",
      "highway=residential surface=asphalt oneway=yes",
      "",
      "935",
      "70117"
     ],
     [
      "44784020",
      "41704170",
      "470",
      "195",
      "1450",
      "0",
      "115",
      "0",
      "0",
      "highway=tertiary surface=asphalt oneway=yes",
      "highway=crossing crossing=unmarked",
      "958",
      "72422"
     ],
     [
      "44783826",
      "41704210",
      "471",
      "17",
      "1450",
      "0",
      "2",
      "0",
      "0",
      "highway=tertiary surface=asphalt oneway=yes",
      "",
      "962",
      "72780"
     ],
     [
      "44783719",
      "41704346",
      "471",
      "19",
      "1150",
      "0",
      "17",
      "0",
      "0",
      "highway=residential oneway=yes",
      "highway=crossing crossing=unmarked",
      "966",
      "73175"
     ],
     [
      "44784164",
      "41706087",
      "464",
      "274",
      "1150",
      "135",
      "125",
      "0",
      "0",
      "highway=residential surface=asphalt oneway=yes",
      "traffic_calming=bump",
      "996",
      "75292"
     ],
     [
      "44784106",
      "41706134",
      "464",
      "11",
      "1150",
      "0",
      "102",
      "0",
      "0",
      "highway=residential surface=asphalt oneway=yes",
      "highway=crossing",
      "999",
      "75595"
     ],
     [
      "44784792",
      "41707227",
      "457",
      "134",
      "1150",
      "0",
      "0",
      "0",
      "0",
      "highway=residential surface=asphalt oneway=yes",
      "highway=crossing crossing=marked kerb=lowered",
      "1017",
      "77395"
     ],
     [
      "44784847",
      "41707317",
      "457",
      "11",
      "1150",
      "0",
      "0",
      "0",
      "0",
      "highway=residential surface=asphalt oneway=yes",
      "estimated_crossing_class=6",
      "1019",
      "77541"
     ],
     [
      "44785048",
      "41707243",
      "456",
      "19",
      "1250",
      "0",
      "92",
      "0",
      "0",
      "highway=primary surface=asphalt cycleway=share_busway oneway=yes oneway:bicycle=no",
      "estimated_crossing_class=6",
      "1021",
      "77756"
     ],
     [
      "44785897",
      "41706925",
      "452",
      "79",
      "1250",
      "0",
      "0",
      "0",
      "0",
      "highway=primary surface=asphalt cycleway=share_busway oneway=yes oneway:bicycle=no",
      "estimated_crossing_class=6",
      "1028",
      "78476"
     ],
     [
      "44785979",
      "41706892",
      "452",
      "8",
      "1250",
      "0",
      "0",
      "0",
      "0",
      "highway=primary surface=asphalt cycleway=share_busway oneway=yes oneway:bicycle=no",
      "estimated_crossing_class=6",
      "1029",
      "78551"
     ],
     [
      "44786480",
      "41706683",
      "449",
      "48",
      "1250",
      "106",
      "0",
      "0",
      "0",
      "highway=primary surface=asphalt cycleway=share_busway oneway=yes",
      "estimated_crossing_class=0",
      "1033",
      "78857"
     ],
     [
      "44786586",
      "41706839",
      "448",
      "19",
      "1050",
      "72",
      "91",
      "0",
      "0",
      "reversedirection=yes highway=cycleway surface=asphalt cycleway=crossing",
      "",
      "1034",
      "78942"
     ],
     [
      "44786505",
      "41706871",
      "448",
      "8",
      "1050",
      "0",
      "83",
      "0",
      "0",
      "reversedirection=yes highway=cycleway",
      "estimated_crossing_class=0",
      "1035",
      "79009"
     ],
     [
      "44786381",
      "41706924",
      "449",
      "12",
      "1050",
      "0",
      "0",
      "0",
      "0",
      "reversedirection=yes highway=cycleway",
      "",
      "1036",
      "79124"
     ],
     [
      "44784076",
      "41710591",
      "441",
      "467",
      "1050",
      "12",
      "163",
      "0",
      "0",
      "highway=cycleway surface=paving_stones smoothness=excellent",
      "highway=crossing",
      "1094",
      "84890"
     ],
     [
      "44781864",
      "41712610",
      "419",
      "310",
      "1050",
      "1041",
      "17",
      "0",
      "0",
      "highway=cycleway surface=paving_stones smoothness=excellent",
      "",
      "1118",
      "84909"
     ],
     [
      "44781849",
      "41712648",
      "419",
      "4",
      "1050",
      "0",
      "72",
      "20",
      "0",
      "highway=cycleway foot=designated bicycle=designated cycleway=crossing",
      "highway=crossing estimated_crossing_class=0 crossing=traffic_signals",
      "1119",
      "84922"
     ],
     [
      "44781802",
      "41712763",
      "418",
      "13",
      "1050",
      "0",
      "0",
      "20",
      "0",
      "highway=cycleway foot=designated bicycle=designated cycleway=crossing",
      "highway=crossing estimated_crossing_class=0 crossing=traffic_signals",
      "1120",
      "84952"
     ],
     [
      "44781774",
      "41712832",
      "418",
      "8",
      "1050",
      "3",
      "0",
      "0",
      "0",
      "highway=cycleway foot=designated bicycle=designated cycleway=crossing",
      "",
      "1120",
      "84970"
     ],
     [
      "44781371",
      "41713218",
      "416",
      "55",
      "5050",
      "54",
      "29",
      "0",
      "0",
      "reversedirection=yes highway=footway",
      "",
      "1125",
      "85236"
     ],
     [
      "44779849",
      "41714025",
      "424",
      "158",
      "5050",
      "5",
      "3",
      "0",
      "0",
      "reversedirection=yes highway=footway surface=asphalt",
      "",
      "1151",
      "87803"
     ],
     [
      "44779871",
      "41714059",
      "424",
      "4",
      "1150",
      "0",
      "48",
      "0",
      "0",
      "highway=residential",
      "",
      "1152",
      "87931"
     ],
     [
      "44779474",
      "41714766",
      "432",
      "87",
      "1050",
      "0",
      "59",
      "0",
      "0",
      "reversedirection=yes highway=cycleway surface=asphalt",
      "estimated_crossing_class=4",
      "1189",
      "91616"
     ],
     [
      "44779207",
      "41715148",
      "433",
      "48",
      "1250",
      "0",
      "6",
      "0",
      "0",
      "reversedirection=yes highway=primary surface=asphalt foot=no smoothness=excellent oneway=yes oneway:bicycle=no cycleway:right=lane",
      "estimated_crossing_class=6",
      "1210",
      "93761"
     ],
     [
      "44778856",
      "41715675",
      "436",
      "65",
      "1250",
      "0",
      "0",
      "0",
      "0",
      "reversedirection=yes highway=primary surface=asphalt foot=no smoothness=excellent oneway=yes oneway:bicycle=no cycleway:right=lane",
      "estimated_crossing_class=6",
      "1244",
      "97158"
     ],
     [
      "44778228",
      "41717598",
      "444",
      "243",
      "1050",
      "0",
      "72",
      "0",
      "0",
      "reversedirection=yes highway=cycleway surface=asphalt smoothness=good",
      "highway=crossing",
      "1343",
      "107087"
     ],
     [
      "44777926",
      "41717846",
      "447",
      "37",
      "1050",
      "0",
      "0",
      "0",
      "0",
      "reversedirection=yes highway=cycleway surface=asphalt smoothness=good",
      "highway=crossing crossing=uncontrolled",
      "1363",
      "109018"
     ],
     [
      "44776795",
      "41719275",
      "449",
      "185",
      "1050",
      "0",
      "3",
      "0",
      "0",
      "reversedirection=yes highway=cycleway surface=asphalt smoothness=good",
      "highway=crossing crossing=unmarked",
      "1431",
      "115849"
     ],
     [
      "44776230",
      "41719765",
      "450",
      "72",
      "1050",
      "0",
      "0",
      "0",
      "0",
      "reversedirection=yes highway=cycleway surface=asphalt smoothness=good",
      "",
      "1447",
      "117411"
     ],
     [
      "44776162",
      "41719828",
      "450",
      "9",
      "1050",
      "0",
      "0",
      "0",
      "0",
      "reversedirection=yes highway=cycleway surface=asphalt",
      "highway=crossing crossing=uncontrolled",
      "1448",
      "117589"
     ],
     [
      "44776253",
      "41719882",
      "449",
      "10",
      "5050",
      "0",
      "91",
      "20",
      "0",
      "highway=footway surface=asphalt",
      "highway=crossing estimated_crossing_class=0 crossing=traffic_signals",
      "1452",
      "117933"
     ],
     [
      "44776376",
      "41719953",
      "448",
      "13",
      "5050",
      "0",
      "0",
      "0",
      "0",
      "highway=footway surface=asphalt",
      "highway=crossing crossing=uncontrolled",
      "1455",
      "118283"
     ],
     [
      "44773510",
      "41722615",
      "449",
      "381",
      "1050",
      "0",
      "163",
      "0",
      "0",
      "highway=cycleway surface=asphalt",
      "estimated_crossing_class=0",
      "1528",
      "125571"
     ],
     [
      "44771602",
      "41724404",
      "450",
      "254",
      "1050",
      "0",
      "0",
      "0",
      "0",
      "highway=cycleway surface=asphalt",
      "highway=crossing crossing=uncontrolled",
      "1576",
      "130342"
     ],
     [
      "44771556",
      "41724442",
      "450",
      "6",
      "1050",
      "0",
      "0",
      "0",
      "0",
      "highway=cycleway surface=asphalt",
      "highway=crossing crossing=uncontrolled",
      "1577",
      "130460"
     ],
     [
      "44770465",
      "41725483",
      "451",
      "147",
      "1050",
      "0",
      "0",
      "0",
      "0",
      "highway=cycleway surface=asphalt",
      "highway=crossing crossing=uncontrolled",
      "1608",
      "133553"
     ],
     [
      "44770359",
      "41725583",
      "451",
      "14",
      "1050",
      "0",
      "0",
      "0",
      "0",
      "highway=cycleway surface=asphalt",
      "highway=crossing crossing=uncontrolled",
      "1611",
      "133828"
     ],
     [
      "44769962",
      "41725963",
      "453",
      "54",
      "1050",
      "0",
      "0",
      "0",
      "0",
      "highway=cycleway surface=asphalt",
      "estimated_crossing_class=0",
      "1626",
      "135393"
     ],
     [
      "44769220",
      "41726669",
      "453",
      "100",
      "1050",
      "0",
      "0",
      "20",
      "0",
      "highway=cycleway surface=asphalt",
      "highway=crossing crossing=traffic_signals",
      "1646",
      "137380"
     ],
     [
      "44769025",
      "41726731",
      "453",
      "18",
      "1050",
      "0",
      "11",
      "0",
      "0",
      "highway=cycleway surface=asphalt",
      "estimated_crossing_class=0",
      "1650",
      "137756"
     ],
     [
      "44768337",
      "41727417",
      "455",
      "95",
      "1250",
      "0",
      "12",
      "0",
      "0",
      "highway=primary surface=asphalt oneway=yes cycleway:right=share_busway",
      "highway=motorway_junction",
      "1677",
      "140462"
     ],
     [
      "44768257",
      "41727687",
      "455",
      "31",
      "1150",
      "0",
      "6",
      "0",
      "0",
      "highway=secondary surface=asphalt oneway=yes cycleway:right=share_busway",
      "estimated_crossing_class=0",
      "1683",
      "141108"
     ],
     [
      "44768225",
      "41727856",
      "454",
      "19",
      "1150",
      "0",
      "0",
      "20",
      "0",
      "highway=secondary surface=asphalt oneway=yes cycleway:right=share_busway",
      "highway=crossing estimated_crossing_class=0 crossing=traffic_signals",
      "1687",
      "141420"
     ],
     [
      "44768074",
      "41728745",
      "453",
      "100",
      "1150",
      "0",
      "0",
      "0",
      "0",
      "highway=secondary surface=asphalt oneway=yes cycleway:right=share_busway",
      "estimated_crossing_class=5",
      "1699",
      "142687"
     ],
     [
      "44767973",
      "41729270",
      "452",
      "59",
      "1150",
      "0",
      "0",
      "0",
      "0",
      "highway=secondary surface=asphalt oneway=yes cycleway:right=share_busway",
      "estimated_crossing_class=5",
      "1707",
      "143481"
     ],
     [
      "44767915",
      "41729582",
      "452",
      "34",
      "1150",
      "0",
      "0",
      "20",
      "0",
      "highway=secondary surface=asphalt oneway=yes cycleway:right=share_busway",
      "highway=crossing estimated_crossing_class=0 crossing=traffic_signals",
      "1712",
      "143968"
     ],
     [
      "44767894",
      "41729708",
      "452",
      "14",
      "1150",
      "0",
      "0",
      "20",
      "0",
      "highway=secondary surface=asphalt oneway=yes cycleway:right=share_busway",
      "highway=traffic_signals estimated_crossing_class=0",
      "1714",
      "144180"
     ],
     [
      "44767699",
      "41730886",
      "454",
      "132",
      "1150",
      "0",
      "0",
      "20",
      "0",
      "highway=secondary surface=asphalt oneway=yes cycleway:right=share_busway",
      "highway=crossing estimated_crossing_class=0 crossing=traffic_signals",
      "1742",
      "146921"
     ],
     [
      "44767732",
      "41731043",
      "454",
      "18",
      "1150",
      "0",
      "1",
      "20",
      "0",
      "highway=secondary surface=asphalt oneway=yes cycleway:right=share_busway",
      "highway=traffic_signals estimated_crossing_class=0",
      "1745",
      "147252"
     ],
     [
      "44767750",
      "41731176",
      "454",
      "15",
      "1650",
      "0",
      "0",
      "20",
      "0",
      "highway=secondary surface=asphalt oneway=yes",
      "highway=crossing estimated_crossing_class=0 crossing=traffic_signals",
      "1748",
      "147533"
     ],
     [
      "44767829",
      "41731624",
      "454",
      "52",
      "1650",
      "0",
      "6",
      "0",
      "0",
      "highway=secondary surface=asphalt oneway=yes",
      "estimated_crossing_class=5",
      "1758",
      "148550"
     ],
     [
      "44767768",
      "41731762",
      "455",
      "18",
      "1650",
      "0",
      "29",
      "0",
      "0",
      "highway=secondary_link oneway=yes",
      "estimated_crossing_class=0",
      "1761",
      "148896"
     ],
     [
      "44767478",
      "41731738",
      "456",
      "24",
      "1650",
      "0",
      "16",
      "20",
      "0",
      "highway=secondary surface=asphalt oneway=yes",
      "highway=crossing estimated_crossing_class=0 crossing=traffic_signals",
      "1767",
      "149500"
     ],
     [
      "44767359",
      "41731726",
      "456",
      "10",
      "1650",
      "0",
      "0",
      "0",
      "0",
      "highway=secondary surface=asphalt oneway=yes",
      "estimated_crossing_class=0",
      "1770",
      "149752"
     ],
     [
      "44767227",
      "41731737",
      "456",
      "11",
      "1150",
      "0",
      "2",
      "0",
      "0",
      "highway=residential surface=asphalt oneway=yes",
      "highway=crossing crossing=uncontrolled",
      "1773",
      "150018"
     ],
     [
      "44760570",
      "41731081",
      "474",
      "559",
      "1150",
      "0",
      "2",
      "0",
      "0",
      "highway=residential surface=asphalt oneway=yes",
      "",
      "1969",
      "169657"
     ],
     [
      "44760146",
      "41733473",
      "503",
      "269",
      "1150",
      "0",
      "91",
      "0",
      "0",
      "highway=residential surface=asphalt oneway=no",
      "",
      "2189",
      "191625"
     ],
     [
      "44759740",
      "41734780",
      "539",
      "157",
      "1150",
      "0",
      "21",
      "0",
      "0",
      "reversedirection=yes highway=residential surface=asphalt oneway=no",
      "",
      "2430",
      "215798"
     ],
     [
      "44759698",
      "41735001",
      "545",
      "25",
      "1150",
      "0",
      "18",
      "0",
      "0",
      "highway=residential",
      "",
      "2476",
      "220416"
     ],
     [
      "44758867",
      "41735464",
      "556",
      "122",
      "1150",
      "0",
      "40",
      "0",
      "0",
      "reversedirection=yes highway=residential",
      "",
      "2685",
      "241221"
     ],
     [
      "44751819",
      "41737432",
      "598",
      "752",
      "1150",
      "0",
      "193",
      "0",
      "0",
      "reversedirection=yes highway=residential surface=unpaved tracktype=grade3 smoothness=bad",
      "estimated_crossing_class=4",
      "3150",
      "287745"
     ],
     [
      "44750899",
      "41737309",
      "604",
      "78",
      "1650",
      "0",
      "43",
      "0",
      "0",
      "reversedirection=yes highway=secondary surface=asphalt",
      "estimated_crossing_class=4",
      "3205",
      "293280"
     ],
     [
      "44750186",
      "41737120",
      "608",
      "63",
      "1650",
      "0",
      "0",
      "0",
      "0",
      "reversedirection=yes highway=secondary surface=asphalt",
      "estimated_crossing_class=4",
      "3248",
      "297557"
     ],
     [
      "44748309",
      "41736539",
      "611",
      "170",
      "1650",
      "0",
      "1",
      "0",
      "0",
      "reversedirection=yes highway=secondary surface=asphalt",
      "estimated_crossing_class=4",
      "3327",
      "305461"
     ],
     [
      "44747829",
      "41736255",
      "610",
      "51",
      "1650",
      "0",
      "0",
      "0",
      "0",
      "reversedirection=yes highway=secondary surface=asphalt",
      "estimated_crossing_class=4",
      "3338",
      "306556"
     ],
     [
      "44747771",
      "41736220",
      "610",
      "6",
      "1650",
      "0",
      "0",
      "0",
      "0",
      "reversedirection=yes highway=secondary surface=asphalt",
      "highway=crossing crossing=zebra",
      "3339",
      "306670"
     ],
     [
      "44747713",
      "41736183",
      "610",
      "6",
      "1650",
      "0",
      "0",
      "0",
      "0",
      "reversedirection=yes highway=secondary surface=asphalt",
      "",
      "3340",
      "306776"
     ],
     [
      "44747504",
      "41736102",
      "611",
      "20",
      "1650",
      "0",
      "4",
      "0",
      "0",
      "highway=secondary surface=asphalt oneway=yes",
      "",
      "3344",
      "307188"
     ],
     [
      "44747173",
      "41736107",
      "611",
      "28",
      "1650",
      "0",
      "13",
      "0",
      "0",
      "highway=secondary_link oneway=yes",
      "estimated_crossing_class=1",
      "3350",
      "307733"
     ],
     [
      "44747071",
      "41736154",
      "611",
      "10",
      "1650",
      "0",
      "6",
      "0",
      "0",
      "highway=secondary_link oneway=yes",
      "highway=give_way",
      "3352",
      "307975"
     ],
     [
      "44746968",
      "41736206",
      "612",
      "10",
      "1650",
      "0",
      "0",
      "0",
      "0",
      "highway=secondary_link oneway=yes",
      "",
      "3355",
      "308259"
     ],
     [
      "44746764",
      "41736353",
      "614",
      "23",
      "1650",
      "0",
      "4",
      "0",
      "0",
      "highway=secondary surface=paved oneway=yes",
      "",
      "3363",
      "309094"
     ],
     [
      "44746691",
      "41736406",
      "615",
      "8",
      "1650",
      "0",
      "0",
      "0",
      "0",
      "highway=secondary surface=paved oneway=no",
      "highway=crossing crossing=uncontrolled",
      "3367",
      "309438"
     ],
     [
      "44746481",
      "41736506",
      "616",
      "21",
      "1650",
      "0",
      "3",
      "0",
      "0",
      "highway=secondary surface=paved oneway=no",
      "estimated_crossing_class=4",
      "3377",
      "310437"
     ],
     [
      "44746317",
      "41736559",
      "617",
      "15",
      "1650",
      "0",
      "0",
      "0",
      "0",
      "highway=secondary surface=paved oneway=no",
      "estimated_crossing_class=4",
      "3384",
      "311190"
     ],
     [
      "44746158",
      "41736601",
      "618",
      "14",
      "1650",
      "0",
      "0",
      "0",
      "0",
      "highway=secondary surface=paved oneway=no",
      "highway=crossing estimated_crossing_class=4 crossing=unknown",
      "3391",
      "311875"
     ],
     [
      "44745614",
      "41736751",
      "621",
      "48",
      "1650",
      "0",
      "0",
      "0",
      "0",
      "highway=secondary surface=paved oneway=no",
      "estimated_crossing_class=4",
      "3420",
      "314811"
     ],
     [
      "44745487",
      "41736786",
      "622",
      "11",
      "1650",
      "0",
      "0",
      "0",
      "0",
      "highway=secondary surface=asphalt oneway=no",
      "estimated_crossing_class=4",
      "3427",
      "315428"
     ],
     [
      "44744976",
      "41736997",
      "625",
      "49",
      "1650",
      "0",
      "0",
      "0",
      "0",
      "highway=secondary surface=asphalt oneway=no",
      "estimated_crossing_class=4",
      "3456",
      "318395"
     ],
     [
      "44744862",
      "41737050",
      "626",
      "11",
      "1650",
      "0",
      "0",
      "0",
      "0",
      "highway=secondary surface=asphalt oneway=no",
      "traffic_calming=bump",
      "3463",
      "319042"
     ],
     [
      "44744803",
      "41737083",
      "626",
      "6",
      "1650",
      "0",
      "0",
      "0",
      "0",
      "highway=secondary surface=asphalt oneway=no",
      "estimated_crossing_class=4",
      "3466",
      "319396"
     ],
     [
      "44741088",
      "41739767",
      "634",
      "437",
      "1350",
      "0",
      "15",
      "0",
      "0",
      "highway=service",
      "",
      "3618",
      "334594"
     ],
     [
      "44738560",
      "41740350",
      "632",
      "220",
      "1350",
      "0",
      "1",
      "0",
      "0",
      "highway=service surface=paved oneway=yes",
      "",
      "3667",
      "339465"
     ],
     [
      "44738397",
      "41740386",
      "632",
      "14",
      "1350",
      "0",
      "0",
      "0",
      "0",
      "highway=service surface=paved",
      "barrier=lift_gate bicycle=yes foot=yes motor_vehicle=permit",
      "3669",
      "339726"
     ],
     [
      "44737763",
      "41740453",
      "631",
      "53",
      "1350",
      "0",
      "4",
      "0",
      "0",
      "reversedirection=yes highway=service surface=asphalt foot=yes bicycle=yes",
      "barrier=unknown bicycle=yes foot=yes motor_vehicle=permit",
      "3679",
      "340628"
     ],
     [
      "44737100",
      "41740567",
      "632",
      "57",
      "2250",
      "0",
      "0",
      "0",
      "0",
      "reversedirection=yes highway=pedestrian surface=paving_stones foot=designated bicycle=yes",
      "",
      "3688",
      "341601"
     ],
     [
      "44734748",
      "41741148",
      "634",
      "207",
      "5150",
      "0",
      "7",
      "0",
      "0",
      "reversedirection=yes highway=pedestrian surface=concrete foot=designated bicycle=designated smoothness=excellent oneway=no oneway:bicycle=yes cycleway:right=yes",
      "",
      "3735",
      "346280"
     ]
    ],
    "times": [
     0,
     0.36,
     2.548,
     5.403,
     8.778,
     10.925,
     14.21,
     22.283,
     32.546,
     35.288,
     37.259,
     39.097,
     41.998,
     49.925,
     59.57,
     61.112,
     62.479,
     64.26,
     66.035,
     70.926,
     72.728,
     74.466,
     75.539,
     78.339,
     80.419,
     82.099,
     83.939,
     84.739,
     86.739,
     88.179,
     89.432,
     90.323,
     93.203,
     96.003,
     96.883,
     97.904,
     102.304,
     108.944,
     116.304,
     132.304,
     138.464,
     139.744,
     140.704,
     141.504,
     142.315,
     144.715,
     149.632,
     150.609,
     151.409,
     152.369,
     155.009,
     156.849,
     159.729,
     161.889,
     162.369,
     163.009,
     166.209,
     167.249,
     167.809,
     168.449,
     169.009,
     169.569,
     169.969,
     171.357,
     172.807,
     178.632,
     180.87,
     181.33,
     182.69,
     184.45,
     193.57,
     194.37,
     201.17,
     204.93,
     209.09,
     210.45,
     211.33,
     212.61,
     213.17,
     213.41,
     213.65,
     213.89,
     214.21,
     214.45,
     214.77,
     217.41,
     232.025,
     234.39,
     236.368,
     237.776,
     239.539,
     242.567,
     245.525,
     250.734,
     251.582,
     252.222,
     252.68,
     252.891,
     253.08,
     254.279,
     259.085,
     261.565,
     264.125,
     267.287,
     282.887,
     285.447,
     287.367,
     288.567,
     289.207,
     289.847,
     290.407,
     290.887,
     291.527,
     292.487,
     296.181,
     299.319,
     305.522,
     306.402,
     307.28,
     308.266,
     310.514,
     315.01,
     316.073,
     316.511,
     316.919,
     317.288,
     317.551,
     317.885,
     318.45,
     319.41,
     320.533,
     321.832,
     325.512,
     329.752,
     331.912,
     333.272,
     333.912,
     334.392,
     335.752,
     338.552,
     342.712,
     343.112,
     343.512,
     345.032,
     346.494,
     347.313,
     348.163,
     349.145,
     349.958,
     350.903,
     351.988,
     353.226,
     357.318,
     360.968,
     364.271,
     364.976,
     365.536,
     365.696,
     366.016,
     366.656,
     367.696,
     368.176,
     369.856,
     370.576,
     373.536,
     376.496,
     377.136,
     377.696,
     378.176,
     380.176,
     381.056,
     381.936,
     383.056,
     383.776,
     384.336,
     385.616,
     388.416,
     389.856,
     390.496,
     391.136,
     391.696,
     392.576,
     394.209,
     394.854,
     395.792,
     403.496,
     407.04,
     409.017,
     410.55,
     411.886,
     412.97,
     413.981,
     415.769,
     417.035,
     419.036,
     421.996,
     422.396,
     423.116,
     423.436,
     424.156,
     424.796,
     425.516,
     426.236,
     426.796,
     427.834,
     428.465,
     429.002,
     431.527,
     435.847,
     437.502,
     439.262,
     440.782,
     442.062,
     448.142,
     448.813,
     449.118,
     455.779,
     458.069,
     459.578,
     460.581,
     462.327,
     462.739,
     465.057,
     466.572,
     472.071,
     476.615,
     477.967,
     481.216,
     482.709,
     484.247,
     484.638,
     484.993,
     487.153,
     488.113,
     490.033,
     491.393,
     492.673,
     493.313,
     495.634,
     497.129,
     499.64,
     500.491,
     511.34,
     518.04,
     553.599,
     561.153,
     570.428,
     584.547,
     607.795,
     612.9,
     620.387,
     626.893,
     632.016,
     636.677,
     648.309,
     658.781,
     664.319,
     667.39,
     670.064,
     671.381,
     672.613,
     675.369,
     676.697,
     676.904,
     677.277,
     678.524,
     679.23,
     688.582,
     692.582,
     694.493,
     697.565,
     709.37,
     711.056,
     716.948,
     718.91,
     734.733,
     736.718,
     748.799,
     781.065,
     804.313,
     811.117,
     817.361,
     820.534,
     824.677,
     833.277,
     834.34,
     848.935,
     858.391,
     860.15,
     863.532,
     866.758,
     871.675,
     876.01,
     882.152,
     883.466,
     886.718,
     888.283,
     894.203,
     896.603,
     897.958,
     902.239,
     903.293,
     904.326,
     904.969,
     905.625,
     906.822,
     909.135,
     909.553,
     911.073,
     911.393,
     911.713,
     916.193,
     916.433,
     919.955,
     922.801,
     927.601,
     928.001,
     928.241,
     930.241,
     935.601,
     935.841,
     941.216,
     945.944,
     949.196,
     958.89,
     959.615,
     962.47,
     963.755,
     964.812,
     965.649,
     966.424,
     968.558,
     975.007,
     984.047,
     986.322,
     988.101,
     988.578,
     989.086,
     989.662,
     996.631,
     998.621,
     999.658,
     1006.757,
     1012.591,
     1017.653,
     1019.117,
     1021.264,
     1025.165,
     1028.459,
     1029.214,
     1030.604,
     1033.164,
     1033.964,
     1034.364,
     1034.684,
     1035.35,
     1036.504,
     1037.668,
     1038.411,
     1039.161,
     1040.119,
     1058.23,
     1068.996,
     1085.384,
     1087.306,
     1088.252,
     1092.358,
     1093.285,
     1093.893,
     1094.143,
     1099.343,
     1100.703,
     1102.303,
     1110.623,
     1112.063,
     1112.863,
     1113.743,
     1117.263,
     1118.223,
     1118.943,
     1119.263,
     1120.303,
     1120.943,
     1121.983,
     1123.823,
     1124.223,
     1124.623,
     1125.346,
     1126.245,
     1127.102,
     1127.865,
     1137.928,
     1140.175,
     1142.143,
     1148.015,
     1151.009,
     1152.29,
     1153.835,
     1177.905,
     1189.136,
     1210.582,
     1244.555,
     1249.214,
     1251.765,
     1258.828,
     1268.829,
     1277.76,
     1286.075,
     1296.997,
     1318.716,
     1323.244,
     1325.537,
     1327.431,
     1328.96,
     1332.471,
     1343.821,
     1363.128,
     1370.511,
     1375.038,
     1395.227,
     1416.695,
     1429.614,
     1431.436,
     1447.045,
     1448.829,
     1452.27,
     1455.762,
     1489.91,
     1499.926,
     1523.607,
     1523.984,
     1524.924,
     1525.486,
     1528.635,
     1533.721,
     1542.893,
     1562.672,
     1576.35,
     1577.526,
     1608.449,
     1611.198,
     1623.628,
     1625.31,
     1626.842,
     1646.714,
     1650.471,
     1677.523,
     1681.137,
     1683.983,
     1687.106,
     1699.771,
     1707.708,
     1707.992,
     1709.763,
     1712.579,
     1714.693,
     1742.099,
     1743.026,
     1743.948,
     1745.415,
     1746.871,
     1748.227,
     1750.521,
     1751.533,
     1752.935,
     1754.517,
     1755.885,
     1758.389,
     1759.908,
     1760.285,
     1760.85,
     1761.853,
     1767.885,
     1770.405,
     1773.069,
     1822.527,
     1879.55,
     1969.408,
     2006.675,
     2008.204,
     2160.089,
     2172.468,
     2189.079,
     2219.823,
     2239.105,
     2253.935,
     2279.244,
     2305.318,
     2325.324,
     2361.269,
     2416.669,
     2430.81,
     2453.105,
     2462.101,
     2476.992,
     2503.939,
     2566.379,
     2593.693,
     2606.939,
     2628.693,
     2664.983,
     2677.805,
     2685.037,
     2691.004,
     2706.625,
     2718.823,
     2761.944,
     2782.525,
     2815.685,
     2849.642,
     2861.528,
     2871.254,
     2886.087,
     2917.423,
     2954.171,
     2998.662,
     3019.575,
     3028.581,
     3037.447,
     3081.978,
     3098.472,
     3104.551,
     3114.98,
     3123.706,
     3127.605,
     3133.931,
     3140.394,
     3150.248,
     3165.289,
     3205.597,
     3237.249,
     3248.362,
     3305.962,
     3327.388,
     3330.69,
     3338.341,
     3339.48,
     3340.537,
     3342.344,
     3344.665,
     3348.494,
     3350.105,
     3352.527,
     3355.365,
     3358.795,
     3360.187,
     3363.718,
     3367.158,
     3374.27,
     3377.145,
     3384.675,
     3391.52,
     3420.883,
     3427.051,
     3445.858,
     3456.719,
     3463.188,
     3466.73,
     3473.806,
     3476.015,
     3524.551,
     3538.121,
     3541.771,
     3546.708,
     3555.862,
     3570.586,
     3580.529,
     3601.466,
     3607.54,
     3618.671,
     3624.384,
     3641.395,
     3642.476,
     3662.714,
     3663.958,
     3667.376,
     3669.986,
     3671.366,
     3672.056,
     3672.976,
     3677.081,
     3678.841,
     3679.002,
     3688.737,
     3693.427,
     3696.087,
     3697.492,
     3704.096,
     3706.489,
     3718.887,
     3734.269,
     3735.519
    ]
   },
   "geometry": {
    "type": "LineString",
    "coordinates": [
     [
      44.77599,
      41.687156,
      710.25
     ],
     [
      44.775967,
      41.687156,
      710.5
     ],
     [
      44.775843,
      41.68715,
      711.25
     ],
     [
      44.775727,
      41.687113,
      712
     ],
     [
      44.775598,
      41.687062,
      712.5
     ],
     [
      44.775531,
      41.687015,
      712.5
     ],
     [
      44.775411,
      41.686951,
      712.75
     ],
     [
      44.775151,
      41.686852,
      714
     ],
     [
      44.774777,
      41.686779,
      717.5
     ],
     [
      44.774682,
      41.686753,
      718.25
     ],
     [
      44.77464,
      41.686706,
      718.25
     ],
     [
      44.774647,
      41.686641,
      717.5
     ],
     [
      44.774741,
      41.686528,
      716.5
     ],
     [
      44.775027,
      41.686241,
      713.75
     ],
     [
      44.775794,
      41.685806,
      708.25
     ],
     [
      44.775871,
      41.685715,
      708
     ],
     [
      44.77596,
      41.68563,
      707.25
     ],
     [
      44.776086,
      41.685509,
      706.5
     ],
     [
      44.776165,
      41.685373,
      706.5
     ],
     [
      44.77619,
      41.685088,
      707.75
     ],
     [
      44.77631,
      41.68502,
      707.25
     ],
     [
      44.776486,
      41.684998,
      706.25
     ],
     [
      44.776617,
      41.685014,
      705
     ],
     [
      44.777019,
      41.685113,
      701.25
     ],
     [
      44.777325,
      41.685092,
      699
     ],
     [
      44.777555,
      41.685022,
      698
     ],
     [
      44.777786,
      41.684916,
      696.5
     ],
     [
      44.777882,
      41.684857,
      695.75
     ],
     [
      44.778071,
      41.684687,
      695.25
     ],
     [
      44.778191,
      41.684551,
      695
     ],
     [
      44.778315,
      41.684452,
      695
     ],
     [
      44.778436,
      41.684416,
      694.25
     ],
     [
      44.778868,
      41.684399,
      691.5
     ],
     [
      44.779281,
      41.684321,
      689.25
     ],
     [
      44.779383,
      41.684261,
      689.25
     ],
     [
      44.779449,
      41.684168,
      689.75
     ],
     [
      44.780102,
      41.68413,
      685
     ],
     [
      44.781093,
      41.684224,
      679.25
     ],
     [
      44.7822,
      41.68428,
      673
     ],
     [
      44.7846,
      41.684395,
      662.25
     ],
     [
      44.785524,
      41.684433,
      653.25
     ],
     [
      44.785713,
      41.684401,
      651.75
     ],
     [
      44.785826,
      41.684341,
      651
     ],
     [
      44.785847,
      41.684253,
      651.25
     ],
     [
      44.785824,
      41.684166,
      652
     ],
     [
      44.78558,
      41.683969,
      650.75
     ],
     [
      44.785124,
      41.683675,
      651.25
     ],
     [
      44.785076,
      41.683597,
      650.5
     ],
     [
      44.785114,
      41.68351,
      648.25
     ],
     [
      44.785261,
      41.683512,
      646.25
     ],
     [
      44.785586,
      41.683682,
      645
     ],
     [
      44.785836,
      41.683759,
      643
     ],
     [
      44.786258,
      41.683846,
      641
     ],
     [
      44.786581,
      41.683897,
      639.25
     ],
     [
      44.786654,
      41.683899,
      638.5
     ],
     [
      44.786755,
      41.683901,
      637.75
     ],
     [
      44.787239,
      41.683869,
      633.25
     ],
     [
      44.787399,
      41.683872,
      632.25
     ],
     [
      44.787488,
      41.683881,
      631.75
     ],
     [
      44.787574,
      41.683901,
      631.5
     ],
     [
      44.787647,
      41.683926,
      631.75
     ],
     [
      44.787713,
      41.683959,
      632
     ],
     [
      44.787758,
      41.683992,
      632.5
     ],
     [
      44.787888,
      41.684088,
      634
     ],
     [
      44.787983,
      41.684173,
      635.25
     ],
     [
      44.788396,
      41.684551,
      634
     ],
     [
      44.788586,
      41.684714,
      632.25
     ],
     [
      44.788636,
      41.684742,
      631.75
     ],
     [
      44.788836,
      41.684785,
      629
     ],
     [
      44.7891,
      41.684825,
      625.5
     ],
     [
      44.790415,
      41.685112,
      612.5
     ],
     [
      44.790521,
      41.685145,
      611.25
     ],
     [
      44.791432,
      41.685484,
      603.5
     ],
     [
      44.791924,
      41.68569,
      602.75
     ],
     [
      44.79245,
      41.685944,
      597.5
     ],
     [
      44.792648,
      41.685948,
      595.75
     ],
     [
      44.792781,
      41.685931,
      595
     ],
     [
      44.792969,
      41.685917,
      593.75
     ],
     [
      44.793047,
      41.685929,
      593.25
     ],
     [
      44.79308,
      41.685942,
      592.75
     ],
     [
      44.793107,
      41.685966,
      592.5
     ],
     [
      44.793118,
      41.685994,
      592.25
     ],
     [
      44.793118,
      41.686029,
      592
     ],
     [
      44.793106,
      41.686057,
      591.75
     ],
     [
      44.793068,
      41.686083,
      591.75
     ],
     [
      44.792699,
      41.686186,
      593.25
     ],
     [
      44.791367,
      41.686458,
      595
     ],
     [
      44.791144,
      41.68647,
      594.25
     ],
     [
      44.790946,
      41.686468,
      594
     ],
     [
      44.79082,
      41.686464,
      594
     ],
     [
      44.790674,
      41.686447,
      594.5
     ],
     [
      44.790307,
      41.686433,
      595
     ],
     [
      44.790021,
      41.686411,
      595.75
     ],
     [
      44.789762,
      41.686377,
      598.25
     ],
     [
      44.789714,
      41.686389,
      598
     ],
     [
      44.789684,
      41.686421,
      597
     ],
     [
      44.789686,
      41.686459,
      595.5
     ],
     [
      44.789699,
      41.686476,
      595
     ],
     [
      44.789719,
      41.686489,
      594.25
     ],
     [
      44.789844,
      41.686529,
      592
     ],
     [
      44.790511,
      41.686588,
      589.25
     ],
     [
      44.790863,
      41.686664,
      587
     ],
     [
      44.791238,
      41.686727,
      585.5
     ],
     [
      44.791653,
      41.686753,
      585.5
     ],
     [
      44.793992,
      41.686862,
      571.75
     ],
     [
      44.794368,
      41.686907,
      565.75
     ],
     [
      44.794655,
      41.686931,
      561
     ],
     [
      44.794829,
      41.686927,
      558.75
     ],
     [
      44.794924,
      41.686917,
      557.5
     ],
     [
      44.795011,
      41.686895,
      556.75
     ],
     [
      44.795074,
      41.686852,
      556
     ],
     [
      44.795113,
      41.686811,
      556
     ],
     [
      44.795122,
      41.686738,
      557
     ],
     [
      44.795079,
      41.686636,
      559.5
     ],
     [
      44.79494,
      41.686376,
      562.25
     ],
     [
      44.79485,
      41.686114,
      564
     ],
     [
      44.794885,
      41.685495,
      558.5
     ],
     [
      44.794876,
      41.685418,
      558
     ],
     [
      44.794837,
      41.685347,
      557.75
     ],
     [
      44.794774,
      41.685286,
      558.25
     ],
     [
      44.794631,
      41.68518,
      559
     ],
     [
      44.794329,
      41.684975,
      558.75
     ],
     [
      44.794275,
      41.6849,
      558
     ],
     [
      44.794272,
      41.684868,
      557.5
     ],
     [
      44.794283,
      41.684837,
      557
     ],
     [
      44.794307,
      41.684811,
      556.25
     ],
     [
      44.794341,
      41.684793,
      555.75
     ],
     [
      44.794382,
      41.684783,
      555.25
     ],
     [
      44.79447,
      41.684789,
      554.75
     ],
     [
      44.794602,
      41.684821,
      554
     ],
     [
      44.794736,
      41.684897,
      553.75
     ],
     [
      44.79487,
      41.684999,
      553.25
     ],
     [
      44.79515,
      41.685361,
      550.5
     ],
     [
      44.795288,
      41.685827,
      548.5
     ],
     [
      44.79538,
      41.68606,
      546.75
     ],
     [
      44.795445,
      41.686204,
      545.5
     ],
     [
      44.795485,
      41.686269,
      544.75
     ],
     [
      44.795515,
      41.686314,
      544.25
     ],
     [
      44.795637,
      41.686441,
      541.5
     ],
     [
      44.795906,
      41.686687,
      539.25
     ],
     [
      44.796309,
      41.68705,
      535.75
     ],
     [
      44.796345,
      41.68709,
      535.5
     ],
     [
      44.796382,
      41.687129,
      535.25
     ],
     [
      44.796502,
      41.687273,
      534
     ],
     [
      44.796573,
      41.687414,
      532.75
     ],
     [
      44.796578,
      41.687497,
      532.25
     ],
     [
      44.796565,
      41.687575,
      531.75
     ],
     [
      44.796518,
      41.687655,
      531
     ],
     [
      44.796459,
      41.687714,
      530.5
     ],
     [
      44.796377,
      41.68777,
      530
     ],
     [
      44.79627,
      41.687808,
      529.25
     ],
     [
      44.796138,
      41.687828,
      528.75
     ],
     [
      44.79573,
      41.687857,
      526.5
     ],
     [
      44.79539,
      41.687877,
      524.75
     ],
     [
      44.795108,
      41.687887,
      523.25
     ],
     [
      44.795047,
      41.687885,
      522.75
     ],
     [
      44.794965,
      41.687876,
      522.25
     ],
     [
      44.794945,
      41.687873,
      522.5
     ],
     [
      44.794894,
      41.687865,
      523
     ],
     [
      44.794798,
      41.687865,
      523
     ],
     [
      44.794642,
      41.687883,
      522
     ],
     [
      44.794572,
      41.687904,
      520.75
     ],
     [
      44.794348,
      41.687992,
      516
     ],
     [
      44.794244,
      41.688005,
      515.25
     ],
     [
      44.793794,
      41.687999,
      516.25
     ],
     [
      44.793356,
      41.687983,
      517.75
     ],
     [
      44.793257,
      41.687993,
      517.5
     ],
     [
      44.793184,
      41.688014,
      516.75
     ],
     [
      44.793123,
      41.68804,
      515.5
     ],
     [
      44.792909,
      41.688194,
      508.25
     ],
     [
      44.792803,
      41.688247,
      506
     ],
     [
      44.792671,
      41.688269,
      505.5
     ],
     [
      44.792499,
      41.688269,
      506.25
     ],
     [
      44.792388,
      41.688281,
      506.25
     ],
     [
      44.792308,
      41.6883,
      506
     ],
     [
      44.792138,
      41.688359,
      504.75
     ],
     [
      44.791751,
      41.688476,
      503.75
     ],
     [
      44.791557,
      41.688543,
      502.25
     ],
     [
      44.791472,
      41.688566,
      501.5
     ],
     [
      44.791382,
      41.688582,
      501.25
     ],
     [
      44.791301,
      41.688588,
      501
     ],
     [
      44.791175,
      41.688581,
      501.5
     ],
     [
      44.790974,
      41.688533,
      503
     ],
     [
      44.79091,
      41.68851,
      503.75
     ],
     [
      44.790844,
      41.688477,
      504.75
     ],
     [
      44.790553,
      41.688301,
      513.25
     ],
     [
      44.790451,
      41.68828,
      515.5
     ],
     [
      44.790394,
      41.688283,
      515.75
     ],
     [
      44.790344,
      41.688298,
      515.75
     ],
     [
      44.790302,
      41.688322,
      515.25
     ],
     [
      44.790269,
      41.688353,
      514.5
     ],
     [
      44.790241,
      41.688393,
      513.5
     ],
     [
      44.790226,
      41.688444,
      512
     ],
     [
      44.790222,
      41.688503,
      510.25
     ],
     [
      44.790242,
      41.688636,
      506
     ],
     [
      44.790346,
      41.688957,
      495.25
     ],
     [
      44.790352,
      41.689003,
      493.75
     ],
     [
      44.790331,
      41.689085,
      491.5
     ],
     [
      44.790304,
      41.689113,
      491
     ],
     [
      44.790213,
      41.68916,
      490.25
     ],
     [
      44.790127,
      41.68919,
      490.75
     ],
     [
      44.790024,
      41.689215,
      491.75
     ],
     [
      44.789927,
      41.689256,
      492.75
     ],
     [
      44.789859,
      41.689298,
      493.5
     ],
     [
      44.789768,
      41.689377,
      494.5
     ],
     [
      44.789753,
      41.689441,
      494.5
     ],
     [
      44.789765,
      41.689498,
      494.25
     ],
     [
      44.789728,
      41.689752,
      493.75
     ],
     [
      44.790278,
      41.690002,
      491
     ],
     [
      44.79041,
      41.689853,
      490
     ],
     [
      44.79058,
      41.689706,
      488.75
     ],
     [
      44.790743,
      41.689591,
      487.5
     ],
     [
      44.790922,
      41.689639,
      486.5
     ],
     [
      44.791684,
      41.690017,
      482.25
     ],
     [
      44.791722,
      41.690075,
      483.5
     ],
     [
      44.791746,
      41.690091,
      483.75
     ],
     [
      44.792327,
      41.690333,
      484.25
     ],
     [
      44.792538,
      41.690402,
      483.75
     ],
     [
      44.792679,
      41.690439,
      483.75
     ],
     [
      44.79264,
      41.690519,
      486
     ],
     [
      44.792626,
      41.690601,
      488.25
     ],
     [
      44.792639,
      41.690616,
      488.5
     ],
     [
      44.792788,
      41.690632,
      488
     ],
     [
      44.792878,
      41.690663,
      488.25
     ],
     [
      44.793054,
      41.690775,
      490
     ],
     [
      44.793418,
      41.69077,
      487.75
     ],
     [
      44.793558,
      41.690751,
      486.25
     ],
     [
      44.79387,
      41.690729,
      483.5
     ],
     [
      44.794006,
      41.690749,
      483.25
     ],
     [
      44.794132,
      41.690798,
      483.25
     ],
     [
      44.794171,
      41.690804,
      483.25
     ],
     [
      44.794209,
      41.690802,
      482.75
     ],
     [
      44.79452,
      41.690732,
      479
     ],
     [
      44.79466,
      41.690712,
      477.5
     ],
     [
      44.794946,
      41.690718,
      475.5
     ],
     [
      44.79515,
      41.690738,
      473.5
     ],
     [
      44.795337,
      41.690776,
      471.75
     ],
     [
      44.795381,
      41.690842,
      471.75
     ],
     [
      44.795154,
      41.690993,
      474.75
     ],
     [
      44.795067,
      41.691075,
      476
     ],
     [
      44.794922,
      41.691258,
      477.75
     ],
     [
      44.794887,
      41.691312,
      478.25
     ],
     [
      44.794714,
      41.691683,
      481.25
     ],
     [
      44.794608,
      41.691908,
      481.75
     ],
     [
      44.793965,
      41.692483,
      489
     ],
     [
      44.793837,
      41.692569,
      492
     ],
     [
      44.793797,
      41.692726,
      492.5
     ],
     [
      44.793723,
      41.692984,
      493.25
     ],
     [
      44.793566,
      41.693433,
      494.5
     ],
     [
      44.793488,
      41.693535,
      495
     ],
     [
      44.79334,
      41.693595,
      497.25
     ],
     [
      44.793229,
      41.693636,
      499.25
     ],
     [
      44.793153,
      41.693655,
      500.75
     ],
     [
      44.793094,
      41.69368,
      501.75
     ],
     [
      44.792986,
      41.693799,
      502
     ],
     [
      44.79287,
      41.693914,
      502.25
     ],
     [
      44.792836,
      41.694007,
      501.25
     ],
     [
      44.792879,
      41.694112,
      498.5
     ],
     [
      44.792955,
      41.694165,
      496.25
     ],
     [
      44.792985,
      41.69421,
      495.25
     ],
     [
      44.792998,
      41.694272,
      494.5
     ],
     [
      44.792992,
      41.694492,
      492.5
     ],
     [
      44.792962,
      41.694595,
      492
     ],
     [
      44.792977,
      41.694612,
      491.5
     ],
     [
      44.793014,
      41.694628,
      490.75
     ],
     [
      44.792923,
      41.694707,
      491.25
     ],
     [
      44.792864,
      41.694738,
      491.75
     ],
     [
      44.792454,
      41.694913,
      494.75
     ],
     [
      44.792296,
      41.695,
      495.25
     ],
     [
      44.792242,
      41.695051,
      495.75
     ],
     [
      44.792195,
      41.695144,
      496
     ],
     [
      44.792049,
      41.695491,
      496.75
     ],
     [
      44.792026,
      41.695546,
      497
     ],
     [
      44.79196,
      41.695732,
      497.25
     ],
     [
      44.791929,
      41.695793,
      497.5
     ],
     [
      44.791644,
      41.696235,
      501.25
     ],
     [
      44.79162,
      41.6963,
      501.75
     ],
     [
      44.791511,
      41.696595,
      503.25
     ],
     [
      44.791234,
      41.697202,
      506.5
     ],
     [
      44.791046,
      41.697547,
      510.25
     ],
     [
      44.790983,
      41.697673,
      510.25
     ],
     [
      44.790941,
      41.697835,
      509.5
     ],
     [
      44.790915,
      41.697938,
      508.75
     ],
     [
      44.790867,
      41.698144,
      507.5
     ],
     [
      44.790789,
      41.698424,
      506.25
     ],
     [
      44.790768,
      41.698457,
      506.5
     ],
     [
      44.790149,
      41.699064,
      508
     ],
     [
      44.789857,
      41.699312,
      506.75
     ],
     [
      44.789799,
      41.699359,
      507
     ],
     [
      44.789692,
      41.699452,
      507
     ],
     [
      44.789584,
      41.699552,
      507
     ],
     [
      44.789403,
      41.699715,
      506.75
     ],
     [
      44.789215,
      41.699892,
      506.25
     ],
     [
      44.788851,
      41.700251,
      501.5
     ],
     [
      44.788752,
      41.700325,
      500.5
     ],
     [
      44.788371,
      41.700547,
      497.5
     ],
     [
      44.788195,
      41.700661,
      496.5
     ],
     [
      44.787496,
      41.701079,
      493.5
     ],
     [
      44.787206,
      41.701247,
      491
     ],
     [
      44.787031,
      41.701301,
      491.25
     ],
     [
      44.786531,
      41.701347,
      494.75
     ],
     [
      44.786432,
      41.701374,
      495
     ],
     [
      44.786354,
      41.701425,
      494.75
     ],
     [
      44.786316,
      41.701467,
      494.25
     ],
     [
      44.786297,
      41.701527,
      493.25
     ],
     [
      44.78632,
      41.701612,
      491.5
     ],
     [
      44.786433,
      41.701851,
      488.5
     ],
     [
      44.786442,
      41.701899,
      488
     ],
     [
      44.786517,
      41.702061,
      486.75
     ],
     [
      44.786532,
      41.702092,
      486.5
     ],
     [
      44.786546,
      41.702125,
      486.25
     ],
     [
      44.786755,
      41.702606,
      482.75
     ],
     [
      44.786718,
      41.702614,
      483
     ],
     [
      44.786224,
      41.702722,
      482.25
     ],
     [
      44.785832,
      41.702799,
      481
     ],
     [
      44.786046,
      41.703319,
      474.5
     ],
     [
      44.786063,
      41.703361,
      474.25
     ],
     [
      44.786071,
      41.703383,
      474
     ],
     [
      44.786149,
      41.703603,
      472
     ],
     [
      44.786355,
      41.704186,
      466
     ],
     [
      44.786364,
      41.704213,
      465.75
     ],
     [
      44.785559,
      41.704186,
      466.25
     ],
     [
      44.784973,
      41.704184,
      465.75
     ],
     [
      44.784711,
      41.704181,
      467.25
     ],
     [
      44.78402,
      41.70417,
      470.75
     ],
     [
      44.783976,
      41.704173,
      471
     ],
     [
      44.783826,
      41.70421,
      471.75
     ],
     [
      44.783763,
      41.704242,
      471.75
     ],
     [
      44.783731,
      41.704279,
      471.75
     ],
     [
      44.783719,
      41.704311,
      471.75
     ],
     [
      44.783719,
      41.704346,
      471.5
     ],
     [
      44.78382,
      41.704465,
      470
     ],
     [
      44.78429,
      41.705016,
      463.25
     ],
     [
      44.784999,
      41.705882,
      457
     ],
     [
      44.7848,
      41.70593,
      458.75
     ],
     [
      44.784601,
      41.705978,
      460.25
     ],
     [
      44.784551,
      41.70599,
      460.75
     ],
     [
      44.784507,
      41.706,
      461
     ],
     [
      44.784461,
      41.706012,
      461.5
     ],
     [
      44.784164,
      41.706087,
      464
     ],
     [
      44.784088,
      41.706104,
      464.5
     ],
     [
      44.784106,
      41.706134,
      464.25
     ],
     [
      44.784312,
      41.706482,
      462.75
     ],
     [
      44.784616,
      41.706945,
      459.75
     ],
     [
      44.784792,
      41.707227,
      457.75
     ],
     [
      44.784847,
      41.707317,
      457.25
     ],
     [
      44.785048,
      41.707243,
      456.25
     ],
     [
      44.7855,
      41.70708,
      454.25
     ],
     [
      44.785897,
      41.706925,
      452.75
     ],
     [
      44.785979,
      41.706892,
      452.5
     ],
     [
      44.786148,
      41.706823,
      451.5
     ],
     [
      44.78648,
      41.706683,
      449.5
     ],
     [
      44.78654,
      41.706765,
      448.5
     ],
     [
      44.786565,
      41.706803,
      448.25
     ],
     [
      44.786586,
      41.706839,
      448
     ],
     [
      44.786505,
      41.706871,
      448.5
     ],
     [
      44.786381,
      41.706924,
      449.25
     ],
     [
      44.786519,
      41.707003,
      447.75
     ],
     [
      44.786539,
      41.70708,
      447.25
     ],
     [
      44.786535,
      41.707157,
      447
     ],
     [
      44.786485,
      41.707249,
      447
     ],
     [
      44.785696,
      41.708243,
      449
     ],
     [
      44.78508,
      41.70898,
      446.5
     ],
     [
      44.784461,
      41.709825,
      447
     ],
     [
      44.784338,
      41.709984,
      447.25
     ],
     [
      44.78428,
      41.710059,
      446.75
     ],
     [
      44.784101,
      41.71041,
      443.25
     ],
     [
      44.784086,
      41.710499,
      442.25
     ],
     [
      44.784087,
      41.710563,
      441.5
     ],
     [
      44.784076,
      41.710591,
      441
     ],
     [
      44.783856,
      41.711155,
      434.25
     ],
     [
      44.783784,
      41.7113,
      433
     ],
     [
      44.783653,
      41.711453,
      433.25
     ],
     [
      44.782861,
      41.712172,
      427.5
     ],
     [
      44.782771,
      41.712322,
      423.5
     ],
     [
      44.782692,
      41.712388,
      421.75
     ],
     [
      44.782588,
      41.712446,
      420.5
     ],
     [
      44.782105,
      41.712601,
      418.75
     ],
     [
      44.781968,
      41.712617,
      419
     ],
     [
      44.781864,
      41.71261,
      419
     ],
     [
      44.781849,
      41.712648,
      419
     ],
     [
      44.781802,
      41.712763,
      418.5
     ],
     [
      44.781774,
      41.712832,
      418
     ],
     [
      44.781679,
      41.712924,
      417.75
     ],
     [
      44.781522,
      41.713094,
      416.75
     ],
     [
      44.781478,
      41.71312,
      416.5
     ],
     [
      44.781455,
      41.713161,
      416.5
     ],
     [
      44.781371,
      41.713218,
      416.25
     ],
     [
      44.781287,
      41.713291,
      416
     ],
     [
      44.781203,
      41.71335,
      416
     ],
     [
      44.78112,
      41.713389,
      416.5
     ],
     [
      44.780315,
      41.71371,
      420.75
     ],
     [
      44.780185,
      41.713773,
      421.5
     ],
     [
      44.780096,
      41.713832,
      422
     ],
     [
      44.779911,
      41.713963,
      423.5
     ],
     [
      44.779849,
      41.714025,
      424.5
     ],
     [
      44.779871,
      41.714059,
      424.5
     ],
     [
      44.7798,
      41.714125,
      425.25
     ],
     [
      44.779504,
      41.714555,
      430.25
     ],
     [
      44.779474,
      41.714766,
      432
     ],
     [
      44.779207,
      41.715148,
      433.25
     ],
     [
      44.778856,
      41.715675,
      436.75
     ],
     [
      44.778717,
      41.71569,
      436.75
     ],
     [
      44.778661,
      41.715738,
      436.75
     ],
     [
      44.778574,
      41.715886,
      437.5
     ],
     [
      44.778495,
      41.716082,
      438.75
     ],
     [
      44.77845,
      41.716253,
      440
     ],
     [
      44.778444,
      41.716406,
      441
     ],
     [
      44.778488,
      41.716594,
      442.25
     ],
     [
      44.778636,
      41.717034,
      442.75
     ],
     [
      44.778648,
      41.717149,
      442.75
     ],
     [
      44.778641,
      41.717209,
      442.75
     ],
     [
      44.778623,
      41.717257,
      442.75
     ],
     [
      44.778595,
      41.717299,
      442.75
     ],
     [
      44.778511,
      41.717386,
      442.75
     ],
     [
      44.778228,
      41.717598,
      444
     ],
     [
      44.777926,
      41.717846,
      447.5
     ],
     [
      44.777816,
      41.717938,
      448.75
     ],
     [
      44.77775,
      41.717995,
      449.75
     ],
     [
      44.77759,
      41.718232,
      452.5
     ],
     [
      44.777304,
      41.718687,
      450.75
     ],
     [
      44.77687,
      41.71921,
      449
     ],
     [
      44.776795,
      41.719275,
      449
     ],
     [
      44.77623,
      41.719765,
      450
     ],
     [
      44.776162,
      41.719828,
      450
     ],
     [
      44.776253,
      41.719882,
      449.25
     ],
     [
      44.776376,
      41.719953,
      448.5
     ],
     [
      44.774996,
      41.721241,
      447.75
     ],
     [
      44.774551,
      41.721641,
      447.75
     ],
     [
      44.773709,
      41.722437,
      449
     ],
     [
      44.77371,
      41.722455,
      449
     ],
     [
      44.773672,
      41.72249,
      449
     ],
     [
      44.773635,
      41.722499,
      449
     ],
     [
      44.77351,
      41.722615,
      449
     ],
     [
      44.773307,
      41.722814,
      449
     ],
     [
      44.772927,
      41.723154,
      449.25
     ],
     [
      44.772088,
      41.723945,
      449.25
     ],
     [
      44.771602,
      41.724404,
      450.25
     ],
     [
      44.771556,
      41.724442,
      450.25
     ],
     [
      44.770465,
      41.725483,
      451.25
     ],
     [
      44.770359,
      41.725583,
      451.5
     ],
     [
      44.770048,
      41.725878,
      453.5
     ],
     [
      44.770006,
      41.725921,
      453.75
     ],
     [
      44.769962,
      41.725963,
      453.5
     ],
     [
      44.76922,
      41.726669,
      453
     ],
     [
      44.769025,
      41.726731,
      453.5
     ],
     [
      44.768337,
      41.727417,
      455.75
     ],
     [
      44.768285,
      41.727557,
      455.75
     ],
     [
      44.768257,
      41.727687,
      455.25
     ],
     [
      44.768225,
      41.727856,
      454.75
     ],
     [
      44.768074,
      41.728745,
      453
     ],
     [
      44.767973,
      41.72927,
      452.5
     ],
     [
      44.767969,
      41.729291,
      452.5
     ],
     [
      44.767946,
      41.729409,
      452.25
     ],
     [
      44.767915,
      41.729582,
      452.5
     ],
     [
      44.767894,
      41.729708,
      452.5
     ],
     [
      44.767699,
      41.730886,
      454.25
     ],
     [
      44.767699,
      41.730929,
      454.25
     ],
     [
      44.767709,
      41.730974,
      454.25
     ],
     [
      44.767732,
      41.731043,
      454.25
     ],
     [
      44.767747,
      41.731115,
      454.25
     ],
     [
      44.76775,
      41.731176,
      454.5
     ],
     [
      44.767735,
      41.731286,
      454.5
     ],
     [
      44.767721,
      41.731332,
      454.75
     ],
     [
      44.767716,
      41.731392,
      454.75
     ],
     [
      44.767725,
      41.73146,
      454.75
     ],
     [
      44.767752,
      41.731518,
      454.75
     ],
     [
      44.767829,
      41.731624,
      454.75
     ],
     [
      44.767843,
      41.731696,
      454.75
     ],
     [
      44.767837,
      41.731718,
      454.75
     ],
     [
      44.767824,
      41.731739,
      454.75
     ],
     [
      44.767768,
      41.731762,
      455
     ],
     [
      44.767478,
      41.731738,
      456
     ],
     [
      44.767359,
      41.731726,
      456.25
     ],
     [
      44.767227,
      41.731737,
      456.25
     ],
     [
      44.765138,
      41.731552,
      462
     ],
     [
      44.763058,
      41.731332,
      466.5
     ],
     [
      44.76057,
      41.731081,
      474.5
     ],
     [
      44.760452,
      41.73176,
      479.75
     ],
     [
      44.760444,
      41.731793,
      480
     ],
     [
      44.760208,
      41.73314,
      497
     ],
     [
      44.76016,
      41.733304,
      499.5
     ],
     [
      44.760146,
      41.733473,
      503.5
     ],
     [
      44.760067,
      41.733695,
      509.5
     ],
     [
      44.759997,
      41.733819,
      513.25
     ],
     [
      44.759964,
      41.733912,
      515.75
     ],
     [
      44.759965,
      41.734064,
      519.5
     ],
     [
      44.760018,
      41.734208,
      522.75
     ],
     [
      44.760039,
      41.734322,
      525.25
     ],
     [
      44.759972,
      41.734502,
      530.25
     ],
     [
      44.759807,
      41.73473,
      537.5
     ],
     [
      44.75974,
      41.73478,
      539.5
     ],
     [
      44.759693,
      41.73488,
      542.5
     ],
     [
      44.7597,
      41.734927,
      543.5
     ],
     [
      44.759698,
      41.735001,
      545.5
     ],
     [
      44.759692,
      41.735128,
      548.5
     ],
     [
      44.759645,
      41.735394,
      555.25
     ],
     [
      44.759583,
      41.735512,
      558.5
     ],
     [
      44.759529,
      41.735557,
      560
     ],
     [
      44.759383,
      41.735558,
      561
     ],
     [
      44.759104,
      41.735511,
      560.75
     ],
     [
      44.758962,
      41.735494,
      558.25
     ],
     [
      44.758867,
      41.735464,
      556.25
     ],
     [
      44.758808,
      41.735521,
      556.25
     ],
     [
      44.758754,
      41.735697,
      557.75
     ],
     [
      44.758754,
      41.735834,
      559.5
     ],
     [
      44.758787,
      41.736194,
      565.5
     ],
     [
      44.758819,
      41.736365,
      568.75
     ],
     [
      44.75893,
      41.736591,
      573.25
     ],
     [
      44.758765,
      41.736866,
      574.5
     ],
     [
      44.75858,
      41.736902,
      573.5
     ],
     [
      44.758391,
      41.736929,
      573
     ],
     [
      44.758072,
      41.736964,
      573.5
     ],
     [
      44.757507,
      41.737052,
      577
     ],
     [
      44.756771,
      41.737098,
      579.75
     ],
     [
      44.755914,
      41.73714,
      584
     ],
     [
      44.755192,
      41.737127,
      583.5
     ],
     [
      44.754856,
      41.737129,
      584.25
     ],
     [
      44.754641,
      41.73718,
      586.75
     ],
     [
      44.753742,
      41.737229,
      591
     ],
     [
      44.753285,
      41.737255,
      591.75
     ],
     [
      44.753057,
      41.737238,
      591.25
     ],
     [
      44.752749,
      41.737315,
      592.75
     ],
     [
      44.752461,
      41.737338,
      593.25
     ],
     [
      44.752323,
      41.737306,
      593.25
     ],
     [
      44.752123,
      41.737297,
      594.25
     ],
     [
      44.751942,
      41.73731,
      595.5
     ],
     [
      44.751819,
      41.737432,
      598
     ],
     [
      44.751532,
      41.737411,
      599.75
     ],
     [
      44.750899,
      41.737309,
      604
     ],
     [
      44.750387,
      41.737179,
      607
     ],
     [
      44.750186,
      41.73712,
      608
     ],
     [
      44.748976,
      41.736801,
      610.75
     ],
     [
      44.748309,
      41.736539,
      611.5
     ],
     [
      44.748186,
      41.736476,
      611.5
     ],
     [
      44.747829,
      41.736255,
      610.5
     ],
     [
      44.747771,
      41.73622,
      610.5
     ],
     [
      44.747713,
      41.736183,
      610.25
     ],
     [
      44.747614,
      41.736151,
      610.75
     ],
     [
      44.747504,
      41.736102,
      611
     ],
     [
      44.747267,
      41.736095,
      610.75
     ],
     [
      44.747173,
      41.736107,
      611
     ],
     [
      44.747071,
      41.736154,
      611.75
     ],
     [
      44.746968,
      41.736206,
      612.5
     ],
     [
      44.746889,
      41.736277,
      613.5
     ],
     [
      44.746852,
      41.7363,
      613.75
     ],
     [
      44.746764,
      41.736353,
      614.5
     ],
     [
      44.746691,
      41.736406,
      615.25
     ],
     [
      44.746542,
      41.736486,
      616.25
     ],
     [
      44.746481,
      41.736506,
      616.75
     ],
     [
      44.746317,
      41.736559,
      617.5
     ],
     [
      44.746158,
      41.736601,
      618
     ],
     [
      44.745614,
      41.736751,
      621.25
     ],
     [
      44.745487,
      41.736786,
      622.25
     ],
     [
      44.745169,
      41.736908,
      624.25
     ],
     [
      44.744976,
      41.736997,
      625
     ],
     [
      44.744862,
      41.73705,
      626
     ],
     [
      44.744803,
      41.737083,
      626.5
     ],
     [
      44.744731,
      41.737181,
      627
     ],
     [
      44.744704,
      41.737208,
      627
     ],
     [
      44.743845,
      41.737806,
      629
     ],
     [
      44.743509,
      41.738122,
      629
     ],
     [
      44.743412,
      41.738225,
      629
     ],
     [
      44.743284,
      41.738368,
      629.25
     ],
     [
      44.743088,
      41.73858,
      630.5
     ],
     [
      44.742793,
      41.738877,
      632
     ],
     [
      44.742533,
      41.739053,
      632.75
     ],
     [
      44.741831,
      41.739489,
      633
     ],
     [
      44.741572,
      41.739629,
      633
     ],
     [
      44.741088,
      41.739767,
      634
     ],
     [
      44.740843,
      41.739838,
      634.5
     ],
     [
      44.739813,
      41.740088,
      633.75
     ],
     [
      44.739745,
      41.740106,
      633.75
     ],
     [
      44.738838,
      41.740297,
      632.75
     ],
     [
      44.738769,
      41.740316,
      632.5
     ],
     [
      44.73856,
      41.74035,
      632.25
     ],
     [
      44.738397,
      41.740386,
      632.25
     ],
     [
      44.738299,
      41.740395,
      632
     ],
     [
      44.738249,
      41.7404,
      632
     ],
     [
      44.738191,
      41.740399,
      632.25
     ],
     [
      44.737903,
      41.74044,
      632
     ],
     [
      44.737772,
      41.740452,
      631.75
     ],
     [
      44.737763,
      41.740453,
      631.75
     ],
     [
      44.7371,
      41.740567,
      632
     ],
     [
      44.73679,
      41.740607,
      632.25
     ],
     [
      44.736627,
      41.740637,
      632.5
     ],
     [
      44.736553,
      41.740673,
      632.75
     ],
     [
      44.736251,
      41.740817,
      633.25
     ],
     [
      44.736141,
      41.740851,
      633.75
     ],
     [
      44.735701,
      41.740958,
      635.5
     ],
     [
      44.734834,
      41.74114,
      634.5
     ],
     [
      44.734748,
      41.741148,
      634.25
     ]
    ]
   }
  }
 ]
}