{
 "type": "FeatureCollection",
 "features": [
  {
   "type": "Feature",
   "properties": {
    "creator": "BRouter-1.7.11-beta",
    "name": "brouter_hiking-mountain_0",
    "track-length": "2083",
    "filtered ascend": "47",
    "plain-ascend": "-118",
    "total-time": "1646",
    "total-energy": "37427",
    "cost": "4044",
    "messages": [
     [
      "Longitude",
      "Latitude",
      "Elevation",
      "Distance",
      "CostPerKm",
      "ElevCost",
      "TurnCost",
      "NodeCost",
      "InitialCost",
      "WayTags",
      "NodeTags",
      "Time",
      "Energy"
     ],
     [
      "44780978",
      "41687054",
      "667",
      "435",
      "1520",
      "0",
      "0",
      "0",
      "0",
      "reversedirection=yes highway=residential surface=asphalt",
      "",
      "295",
      "27"
     ],
     [
      "44781237",
      "41687043",
      "666",
      "22",
      "1320",
      "0",
      "0",
      "0",
      "0",
      "reversedirection=yes highway=residential surface=dirt foot=yes",
      "",
      "309",
      "27"
     ],
     [
      "44781159",
      "41687511",
      "674",
      "53",
      "1320",
      "0",
      "0",
      "0",
      "0",
      "reversedirection=yes highway=residential surface=dirt",
      "",
      "345",
      "138"
     ],
     [
      "44781026",
      "41688151",
      "686",
      "72",
      "1320",
      "0",
      "0",
      "0",
      "0",
      "highway=residential surface=dirt",
      "",
      "404",
      "3341"
     ],
     [
      "44782668",
      "41688783",
      "680",
      "162",
      "1260",
      "0",
      "0",
      "0",
      "0",
      "reversedirection=yes highway=path",
      "",
      "530",
      "8162"
     ],
     [
      "44782919",
      "41689735",
      "681",
      "114",
      "1050",
      "0",
      "0",
      "0",
      "0",
      "highway=footway surface=paving_stones route_hiking_lwn=yes",
      "",
      "609",
      "8919"
     ],
     [
      "44782921",
      "41689753",
      "681",
      "2",
      "1050",
      "0",
      "0",
      "0",
      "0",
      "highway=footway surface=wood route_hiking_lwn=yes",
      "",
      "610",
      "8952"
     ],
     [
      "44783203",
      "41690174",
      "676",
      "53",
      "1250",
      "0",
      "0",
      "0",
      "0",
      "highway=footway surface=paving_stones route_hiking_lwn=yes",
      "",
      "646",
      "9064"
     ],
     [
      "44783213",
      "41690186",
      "675",
      "2",
      "3200",
      "0",
      "0",
      "0",
      "0",
      "highway=steps surface=paving_stones route_hiking_lwn=yes",
      "",
      "648",
      "9072"
     ],
     [
      "44783313",
      "41690308",
      "674",
      "16",
      "1250",
      "0",
      "0",
      "0",
      "0",
      "highway=footway surface=paving_stones route_hiking_lwn=yes",
      "",
      "659",
      "9072"
     ],
     [
      "44783346",
      "41690342",
      "674",
      "5",
      "3200",
      "0",
      "0",
      "0",
      "0",
      "highway=steps surface=paving_stones route_hiking_lwn=yes",
      "",
      "662",
      "9072"
     ],
     [
      "44783420",
      "41690531",
      "675",
      "23",
      "1250",
      "0",
      "0",
      "0",
      "0",
      "highway=footway surface=paving_stones route_hiking_lwn=yes",
      "",
      "678",
      "9100"
     ],
     [
      "44783471",
      "41690705",
      "675",
      "20",
      "3200",
      "0",
      "0",
      "0",
      "0",
      "highway=steps surface=paving_stones route_hiking_lwn=yes",
      "",
      "692",
      "9277"
     ],
     [
      "44783487",
      "41690933",
      "678",
      "27",
      "1050",
      "0",
      "0",
      "0",
      "0",
      "highway=footway surface=paving_stones route_hiking_lwn=yes",
      "",
      "710",
      "9301"
     ],
     [
      "44783435",
      "41691283",
      "682",
      "42",
      "2900",
      "0",
      "0",
      "0",
      "0",
      "highway=steps surface=paving_stones route_hiking_lwn=yes",
      "",
      "742",
      "10231"
     ],
     [
      "44783547",
      "41691300",
      "679",
      "10",
      "1050",
      "0",
      "0",
      "0",
      "0",
      "highway=footway surface=wood route_hiking_lwn=yes",
      "",
      "749",
      "10388"
     ],
     [
      "44783857",
      "41691631",
      "676",
      "54",
      "3200",
      "0",
      "0",
      "0",
      "0",
      "highway=steps surface=paving_stones route_hiking_lwn=yes",
      "",
      "786",
      "10577"
     ],
     [
      "44783830",
      "41691826",
      "683",
      "22",
      "1000",
      "0",
      "0",
      "0",
      "0",
      "highway=footway surface=paving_stones route_hiking_lwn=yes",
      "",
      "803",
      "11206"
     ],
     [
      "44783840",
      "41691862",
      "685",
      "5",
      "2900",
      "0",
      "0",
      "0",
      "0",
      "highway=steps surface=paving_stones route_hiking_lwn=yes",
      "",
      "807",
      "11384"
     ],
     [
      "44784119",
      "41691991",
      "685",
      "27",
      "1000",
      "0",
      "0",
      "0",
      "0",
      "highway=footway surface=paving_stones route_hiking_lwn=yes",
      "",
      "829",
      "12376"
     ],
     [
      "44784171",
      "41692016",
      "685",
      "5",
      "2900",
      "0",
      "0",
      "0",
      "0",
      "highway=steps surface=paving_stones route_hiking_lwn=yes",
      "",
      "832",
      "12550"
     ],
     [
      "44784578",
      "41692151",
      "681",
      "38",
      "1050",
      "0",
      "0",
      "0",
      "0",
      "highway=footway surface=paving_stones route_hiking_lwn=yes",
      "",
      "860",
      "13190"
     ],
     [
      "44784620",
      "41692202",
      "683",
      "7",
      "2900",
      "0",
      "0",
      "0",
      "0",
      "highway=steps surface=paving_stones route_hiking_lwn=yes",
      "",
      "866",
      "13434"
     ],
     [
      "44784656",
      "41692261",
      "686",
      "7",
      "1000",
      "0",
      "0",
      "0",
      "0",
      "highway=footway surface=paving_stones route_hiking_lwn=yes",
      "",
      "871",
      "13617"
     ],
     [
      "44784839",
      "41692478",
      "696",
      "30",
      "2900",
      "0",
      "0",
      "0",
      "0",
      "highway=steps surface=paving_stones route_hiking_lwn=yes",
      "",
      "901",
      "16347"
     ],
     [
      "44784909",
      "41692521",
      "698",
      "8",
      "1000",
      "0",
      "0",
      "0",
      "0",
      "highway=footway surface=paving_stones route_hiking_lwn=yes",
      "",
      "910",
      "17209"
     ],
     [
      "44785169",
      "41692598",
      "697",
      "27",
      "2900",
      "0",
      "0",
      "0",
      "0",
      "highway=steps surface=paving_stones route_hiking_lwn=yes",
      "",
      "937",
      "19844"
     ],
     [
      "44785548",
      "41692595",
      "692",
      "32",
      "1250",
      "0",
      "0",
      "0",
      "0",
      "highway=footway surface=paving_stones route_hiking_lwn=yes",
      "",
      "962",
      "20934"
     ],
     [
      "44785837",
      "41692824",
      "698",
      "40",
      "2900",
      "0",
      "0",
      "0",
      "0",
      "highway=steps surface=paving_stones route_hiking_lwn=yes",
      "",
      "996",
      "22862"
     ],
     [
      "44785777",
      "41692850",
      "700",
      "6",
      "1000",
      "0",
      "0",
      "0",
      "0",
      "highway=footway surface=paving_stones route_hiking_lwn=yes",
      "",
      "1001",
      "23308"
     ],
     [
      "44785822",
      "41693001",
      "706",
      "17",
      "2900",
      "0",
      "0",
      "0",
      "0",
      "highway=steps surface=paving_stones route_hiking_lwn=yes",
      "",
      "1019",
      "25091"
     ],
     [
      "44785942",
      "41693048",
      "707",
      "11",
      "1000",
      "0",
      "0",
      "0",
      "0",
      "highway=footway surface=paving_stones route_hiking_lwn=yes",
      "",
      "1031",
      "26300"
     ],
     [
      "44785922",
      "41693162",
      "712",
      "13",
      "2900",
      "0",
      "0",
      "0",
      "0",
      "highway=steps surface=paving_stones route_hiking_lwn=yes",
      "",
      "1046",
      "28118"
     ],
     [
      "44786045",
      "41693225",
      "713",
      "12",
      "1000",
      "0",
      "0",
      "0",
      "0",
      "highway=footway surface=paving_stones route_hiking_lwn=yes",
      "",
      "1061",
      "29762"
     ],
     [
      "44786099",
      "41693286",
      "715",
      "9",
      "2900",
      "0",
      "0",
      "0",
      "0",
      "highway=steps surface=paving_stones route_hiking_lwn=yes",
      "",
      "1071",
      "30993"
     ],
     [
      "44786604",
      "41693459",
      "715",
      "46",
      "1000",
      "0",
      "0",
      "0",
      "0",
      "highway=footway surface=paving_stones route_hiking_lwn=yes",
      "",
      "1120",
      "36022"
     ],
     [
      "44786882",
      "41693467",
      "711",
      "23",
      "1050",
      "0",
      "0",
      "0",
      "0",
      "reversedirection=yes highway=footway route_hiking_lwn=yes",
      "",
      "1140",
      "37272"
     ],
     [
      "44787487",
      "41693455",
      "701",
      "51",
      "3000",
      "0",
      "0",
      "0",
      "0",
      "reversedirection=yes highway=steps route_hiking_lwn=yes",
      "",
      "1175",
      "37362"
     ],
     [
      "44787481",
      "41693501",
      "700",
      "5",
      "1050",
      "0",
      "0",
      "0",
      "0",
      "reversedirection=yes highway=footway surface=wood route_hiking_lwn=yes",
      "",
      "1179",
      "37396"
     ],
     [
      "44787533",
      "41693593",
      "698",
      "13",
      "3000",
      "0",
      "0",
      "0",
      "0",
      "reversedirection=yes highway=steps route_hiking_lwn=yes",
      "",
      "1188",
      "37427"
     ],
     [
      "44787656",
      "41693591",
      "692",
      "11",
      "1050",
      "0",
      "0",
      "0",
      "0",
      "reversedirection=yes highway=footway surface=wood route_hiking_lwn=yes",
      "",
      "1194",
      "37427"
     ],
     [
      "44787794",
      "41693509",
      "692",
      "15",
      "1050",
      "0",
      "0",
      "0",
      "0",
      "reversedirection=yes highway=footway route_hiking_lwn=yes",
      "",
      "1204",
      "37427"
     ],
     [
      "44788425",
      "41693041",
      "672",
      "74",
      "3000",
      "0",
      "0",
      "0",
      "0",
      "reversedirection=yes highway=steps route_hiking_lwn=yes",
      "",
      "1262",
      "37427"
     ],
     [
      "44788474",
      "41693030",
      "670",
      "4",
      "1250",
      "0",
      "0",
      "0",
      "0",
      "reversedirection=yes highway=footway surface=paving_stones route_hiking_lwn=yes",
      "",
      "1266",
      "37427"
     ],
     [
      "44788483",
      "41693056",
      "671",
      "3",
      "1250",
      "0",
      "0",
      "0",
      "0",
      "highway=footway surface=paving_stones route_hiking_lwn=yes",
      "",
      "1269",
      "37427"
     ],
     [
      "44788507",
      "41693960",
      "654",
      "121",
      "3000",
      "0",
      "0",
      "0",
      "0",
      "highway=steps route_hiking_lwn=yes",
      "",
      "1370",
      "37427"
     ],
     [
      "44788543",
      "41693976",
      "652",
      "6",
      "1250",
      "0",
      "0",
      "0",
      "0",
      "highway=footway surface=paving_stones route_hiking_lwn=yes",
      "",
      "1376",
      "37427"
     ],
     [
      "44788434",
      "41694087",
      "653",
      "15",
      "3000",
      "0",
      "0",
      "0",
      "0",
      "highway=steps route_hiking_lwn=yes",
      "",
      "1389",
      "37427"
     ],
     [
      "44788384",
      "41694110",
      "654",
      "5",
      "1050",
      "0",
      "0",
      "0",
      "0",
      "highway=footway surface=wood route_hiking_lwn=yes",
      "",
      "1393",
      "37427"
     ],
     [
      "44788210",
      "41694170",
      "651",
      "16",
      "3000",
      "0",
      "0",
      "0",
      "0",
      "highway=steps route_hiking_lwn=yes",
      "",
      "1403",
      "37427"
     ],
     [
      "44788218",
      "41694201",
      "650",
      "9",
      "1050",
      "0",
      "0",
      "0",
      "0",
      "highway=footway surface=wood route_hiking_lwn=yes",
      "",
      "1409",
      "37427"
     ],
     [
      "44788264",
      "41694211",
      "649",
      "4",
      "3000",
      "0",
      "0",
      "0",
      "0",
      "highway=steps surface=wood route_hiking_lwn=yes",
      "",
      "1411",
      "37427"
     ],
     [
      "44788878",
      "41694076",
      "634",
      "57",
      "3000",
      "0",
      "0",
      "0",
      "0",
      "highway=steps route_hiking_lwn=yes",
      "",
      "1469",
      "37427"
     ],
     [
      "44788917",
      "41694099",
      "632",
      "7",
      "1050",
      "0",
      "0",
      "0",
      "0",
      "highway=footway route_hiking_lwn=yes",
      "",
      "1476",
      "37427"
     ],
     [
      "44789033",
      "41695041",
      "604",
      "147",
      "3000",
      "0",
      "0",
      "0",
      "0",
      "highway=steps route_hiking_lwn=yes",
      "",
      "1607",
      "37427"
     ],
     [
      "44789060",
      "41695079",
      "601",
      "5",
      "1250",
      "0",
      "0",
      "0",
      "0",
      "highway=footway surface=paving_stones route_hiking_lwn=yes",
      "",
      "1614",
      "37427"
     ],
     [
      "44789278",
      "41695097",
      "591",
      "18",
      "3000",
      "0",
      "0",
      "0",
      "0",
      "reversedirection=yes highway=steps route_hiking_lwn=yes",
      "",
      "1645",
      "37427"
     ]
    ],
    "times": [
     0,
     15.994,
     19.931,
     24.83,
     28.894,
     37.249,
     44.742,
     101.73,
     117.569,
     124.872,
     154.155,
     176.166,
     180.406,
     203.416,
     211.878,
     238.413,
     242.168,
     245.289,
     262.16,
     273.721,
     295.193,
     309.295,
     316.711,
     345.259,
     374.043,
     389.143,
     404.575,
     420.895,
     437.935,
     450.237,
     459.416,
     464.531,
     469.68,
     505.756,
     521.446,
     530.479,
     535.87,
     542.42,
     551.531,
     559.3,
     567.288,
     576.922,
     594.612,
     598.313,
     609.38,
     610.852,
     622.948,
     632.718,
     646.806,
     648.205,
     659.059,
     662.44,
     664.456,
     665.801,
     678.278,
     692.55,
     702.501,
     707.989,
     710.811,
     712.984,
     717.44,
     720.482,
     725.109,
     735.742,
     737.254,
     739.499,
     742.412,
     749.745,
     760.449,
     762.572,
     765.427,
     766.725,
     770.838,
     775.451,
     781.974,
     785.229,
     786.547,
     803.528,
     805.903,
     807.496,
     829.023,
     832.978,
     850.716,
     858.007,
     860.97,
     866.507,
     867.964,
     871.86,
     882.903,
     887.896,
     901.59,
     910.045,
     921.936,
     926.168,
     937.515,
     946.035,
     962.791,
     974.334,
     981.341,
     983.746,
     996.214,
     1001.767,
     1006.611,
     1019.554,
     1031.282,
     1046.894,
     1061.138,
     1065.783,
     1071.816,
     1107.984,
     1120.805,
     1129.939,
     1140.504,
     1168.521,
     1174.946,
     1175.66,
     1179.199,
     1183.412,
     1185.484,
     1188.135,
     1189.463,
     1194.973,
     1204.717,
     1208.615,
     1215.731,
     1227.457,
     1242.11,
     1259.052,
     1262.796,
     1263.741,
     1266.667,
     1269.512,
     1274.099,
     1285.311,
     1298.247,
     1305.578,
     1320.152,
     1322.411,
     1327.243,
     1330.615,
     1342.801,
     1359.162,
     1360.088,
     1370.504,
     1372.372,
     1374.282,
     1376.201,
     1387.046,
     1389.6,
     1393.562,
     1403.547,
     1405.993,
     1406.601,
     1409.023,
     1411.712,
     1423.732,
     1428.224,
     1450.047,
     1469.418,
     1472.514,
     1473.549,
     1476.718,
     1485.749,
     1500.324,
     1514.962,
     1523.703,
     1525.747,
     1533.673,
     1537.286,
     1539.843,
     1544.901,
     1549.593,
     1555.689,
     1574.899,
     1594.402,
     1607.033,
     1614.162,
     1645.774
    ]
   },
   "geometry": {
    "type": "LineString",
    "coordinates": [
     [
      44.77599,
      41.687156,
      710.25
     ],
     [
      44.776279,
      41.687165,
      708
     ],
     [
      44.776343,
      41.687137,
      707.25
     ],
     [
      44.776413,
      41.687096,
      706
     ],
     [
      44.776461,
      41.687056,
      705
     ],
     [
      44.776601,
      41.687013,
      703.25
     ],
     [
      44.776743,
      41.686995,
      702
     ],
     [
      44.777751,
      41.68691,
      693.5
     ],
     [
      44.778015,
      41.686831,
      690
     ],
     [
      44.778145,
      41.686814,
      688.5
     ],
     [
      44.778623,
      41.686841,
      683
     ],
     [
      44.778975,
      41.686899,
      679.25
     ],
     [
      44.779041,
      41.686915,
      678.5
     ],
     [
      44.779412,
      41.686969,
      675
     ],
     [
      44.779547,
      41.68701,
      674.25
     ],
     [
      44.779954,
      41.687194,
      673.75
     ],
     [
      44.780021,
      41.687215,
      673.75
     ],
     [
      44.780082,
      41.687215,
      673.5
     ],
     [
      44.780377,
      41.687148,
      671.25
     ],
     [
      44.780584,
      41.687104,
      670
     ],
     [
      44.780978,
      41.687054,
      667.75
     ],
     [
      44.781237,
      41.687043,
      666.25
     ],
     [
      44.781254,
      41.68715,
      668
     ],
     [
      44.781159,
      41.687511,
      674
     ],
     [
      44.781082,
      41.687836,
      680.5
     ],
     [
      44.781068,
      41.687999,
      683.5
     ],
     [
      44.781026,
      41.688151,
      686.75
     ],
     [
      44.781225,
      41.688234,
      686.25
     ],
     [
      44.781458,
      41.688309,
      685.5
     ],
     [
      44.781647,
      41.688348,
      684.5
     ],
     [
      44.781647,
      41.688445,
      687.25
     ],
     [
      44.781681,
      41.688492,
      688.25
     ],
     [
      44.781733,
      41.688531,
      688.75
     ],
     [
      44.782296,
      41.688666,
      684.75
     ],
     [
      44.782528,
      41.68873,
      682.5
     ],
     [
      44.782668,
      41.688783,
      680.5
     ],
     [
      44.782743,
      41.688828,
      679.5
     ],
     [
      44.782827,
      41.688897,
      678.5
     ],
     [
      44.782908,
      41.689008,
      678
     ],
     [
      44.782963,
      41.689111,
      677.5
     ],
     [
      44.782971,
      41.689215,
      678
     ],
     [
      44.782961,
      41.689337,
      678.75
     ],
     [
      44.782908,
      41.689548,
      680.75
     ],
     [
      44.782905,
      41.689597,
      681
     ],
     [
      44.782919,
      41.689735,
      681
     ],
     [
      44.782921,
      41.689753,
      681
     ],
     [
      44.783031,
      41.689895,
      678.25
     ],
     [
      44.783094,
      41.690017,
      677
     ],
     [
      44.783203,
      41.690174,
      676
     ],
     [
      44.783213,
      41.690186,
      675.75
     ],
     [
      44.783313,
      41.690308,
      674.75
     ],
     [
      44.783346,
      41.690342,
      674.5
     ],
     [
      44.783362,
      41.690363,
      674.25
     ],
     [
      44.783369,
      41.690376,
      674.25
     ],
     [
      44.78342,
      41.690531,
      675
     ],
     [
      44.783471,
      41.690705,
      675.75
     ],
     [
      44.783509,
      41.690833,
      676.5
     ],
     [
      44.783504,
      41.690904,
      677.25
     ],
     [
      44.783487,
      41.690933,
      678
     ],
     [
      44.783469,
      41.690961,
      678.75
     ],
     [
      44.783461,
      41.691017,
      679.5
     ],
     [
      44.783446,
      41.691053,
      680.25
     ],
     [
      44.783443,
      41.691106,
      680.75
     ],
     [
      44.783381,
      41.691221,
      683.5
     ],
     [
      44.783384,
      41.691243,
      683.5
     ],
     [
      44.783397,
      41.691265,
      683.25
     ],
     [
      44.783435,
      41.691283,
      682.5
     ],
     [
      44.783547,
      41.6913,
      679.75
     ],
     [
      44.783712,
      41.691356,
      676
     ],
     [
      44.783733,
      41.691374,
      675.75
     ],
     [
      44.783742,
      41.691408,
      676
     ],
     [
      44.783738,
      41.691423,
      676.25
     ],
     [
      44.7837,
      41.691472,
      677.75
     ],
     [
      44.783769,
      41.691503,
      676.5
     ],
     [
      44.78383,
      41.691579,
      676
     ],
     [
      44.783859,
      41.691616,
      675.75
     ],
     [
      44.783857,
      41.691631,
      676
     ],
     [
      44.78383,
      41.691826,
      683.75
     ],
     [
      44.783831,
      41.691849,
      684.75
     ],
     [
      44.78384,
      41.691862,
      685
     ],
     [
      44.784119,
      41.691991,
      685.5
     ],
     [
      44.784171,
      41.692016,
      685.75
     ],
     [
      44.78444,
      41.69208,
      681
     ],
     [
      44.784541,
      41.692126,
      680.75
     ],
     [
      44.784578,
      41.692151,
      681.25
     ],
     [
      44.78462,
      41.692202,
      683.25
     ],
     [
      44.784633,
      41.692221,
      684
     ],
     [
      44.784656,
      41.692261,
      686
     ],
     [
      44.784707,
      41.69236,
      691.25
     ],
     [
      44.78471,
      41.692408,
      694.25
     ],
     [
      44.784839,
      41.692478,
      696.75
     ],
     [
      44.784909,
      41.692521,
      698
     ],
     [
      44.784987,
      41.692597,
      699.75
     ],
     [
      44.785029,
      41.69262,
      700
     ],
     [
      44.785169,
      41.692598,
      697.5
     ],
     [
      44.785282,
      41.692581,
      695.25
     ],
     [
      44.785548,
      41.692595,
      692.5
     ],
     [
      44.78565,
      41.692692,
      695.25
     ],
     [
      44.785753,
      41.692693,
      694
     ],
     [
      44.785758,
      41.692717,
      695
     ],
     [
      44.785837,
      41.692824,
      698.5
     ],
     [
      44.785777,
      41.69285,
      700.25
     ],
     [
      44.785792,
      41.692898,
      702
     ],
     [
      44.785822,
      41.693001,
      706
     ],
     [
      44.785942,
      41.693048,
      707
     ],
     [
      44.785922,
      41.693162,
      712
     ],
     [
      44.786045,
      41.693225,
      713.5
     ],
     [
      44.786082,
      41.693244,
      714
     ],
     [
      44.786099,
      41.693286,
      715.75
     ],
     [
      44.786465,
      41.693398,
      715.5
     ],
     [
      44.786604,
      41.693459,
      715
     ],
     [
      44.786727,
      41.693474,
      713.75
     ],
     [
      44.786882,
      41.693467,
      711
     ],
     [
      44.787378,
      41.69344,
      703
     ],
     [
      44.787488,
      41.693447,
      701
     ],
     [
      44.787487,
      41.693455,
      701
     ],
     [
      44.787481,
      41.693501,
      700.75
     ],
     [
      44.787473,
      41.693557,
      700.5
     ],
     [
      44.787487,
      41.693578,
      700
     ],
     [
      44.787533,
      41.693593,
      698
     ],
     [
      44.787552,
      41.693598,
      697
     ],
     [
      44.787656,
      41.693591,
      692.5
     ],
     [
      44.787794,
      41.693509,
      692.5
     ],
     [
      44.787846,
      41.693473,
      691.75
     ],
     [
      44.78793,
      41.693394,
      691.25
     ],
     [
      44.788077,
      41.693292,
      688.25
     ],
     [
      44.788245,
      41.693187,
      681.5
     ],
     [
      44.788388,
      41.693063,
      674.5
     ],
     [
      44.788425,
      41.693041,
      672.75
     ],
     [
      44.788437,
      41.693034,
      672
     ],
     [
      44.788474,
      41.69303,
      670.75
     ],
     [
      44.788483,
      41.693056,
      671
     ],
     [
      44.788498,
      41.693097,
      671.25
     ],
     [
      44.788504,
      41.693224,
      673.75
     ],
     [
      44.788487,
      41.693387,
      675
     ],
     [
      44.788465,
      41.693474,
      673
     ],
     [
      44.788403,
      41.69364,
      670
     ],
     [
      44.788402,
      41.693669,
      669.25
     ],
     [
      44.788415,
      41.693723,
      666.75
     ],
     [
      44.788431,
      41.693756,
      664.75
     ],
     [
      44.788445,
      41.693872,
      660.25
     ],
     [
      44.788405,
      41.694025,
      656.75
     ],
     [
      44.788412,
      41.694028,
      656.25
     ],
     [
      44.788507,
      41.69396,
      654.5
     ],
     [
      44.788532,
      41.69395,
      653.75
     ],
     [
      44.788549,
      41.693956,
      652.75
     ],
     [
      44.788543,
      41.693976,
      652.25
     ],
     [
      44.788463,
      41.694069,
      652.75
     ],
     [
      44.788434,
      41.694087,
      653.25
     ],
     [
      44.788384,
      41.69411,
      654.75
     ],
     [
      44.78821,
      41.69417,
      651.5
     ],
     [
      44.788167,
      41.694185,
      650.75
     ],
     [
      44.788167,
      41.69419,
      650.75
     ],
     [
      44.788218,
      41.694201,
      650
     ],
     [
      44.788264,
      41.694211,
      649.25
     ],
     [
      44.78843,
      41.694247,
      649.25
     ],
     [
      44.788493,
      41.69424,
      646.5
     ],
     [
      44.788712,
      41.694174,
      638.25
     ],
     [
      44.788878,
      41.694076,
      634.5
     ],
     [
      44.788906,
      41.694065,
      633.5
     ],
     [
      44.788917,
      41.69407,
      633
     ],
     [
      44.788917,
      41.694099,
      632
     ],
     [
      44.788859,
      41.694169,
      632.25
     ],
     [
      44.788777,
      41.694299,
      632.75
     ],
     [
      44.788568,
      41.694422,
      639.5
     ],
     [
      44.788427,
      41.694477,
      644.75
     ],
     [
      44.788411,
      41.694503,
      645
     ],
     [
      44.788436,
      41.694618,
      641.5
     ],
     [
      44.788433,
      41.694675,
      640.5
     ],
     [
      44.788462,
      41.694705,
      638.5
     ],
     [
      44.788531,
      41.694747,
      634.5
     ],
     [
      44.788579,
      41.694788,
      631.5
     ],
     [
      44.788653,
      41.694816,
      627.5
     ],
     [
      44.788824,
      41.694904,
      617.5
     ],
     [
      44.788949,
      41.694996,
      609.5
     ],
     [
      44.789033,
      41.695041,
      604
     ],
     [
      44.78906,
      41.695079,
      601.5
     ],
     [
      44.789278,
      41.695097,
      591.5
     ]
    ]
   }
  }
 ]
}