{
 "type": "FeatureCollection",
 "features": [
  {
   "type": "Feature",
   "properties": {
    "creator": "BRouter-1.7.11-beta",
    "name": "brouter_trekking_0",
    "track-length": "6050",
    "filtered ascend": "128",
    "plain-ascend": "-118",
    "total-time": "1529",
    "total-energy": "131750",
    "cost": "24229",
    "messages": [
     [
      "Longitude",
      "Latitude",
      "Elevation",
      "Distance",
      "CostPerKm",
      "ElevCost",
      "TurnCost",
      "NodeCost",
      "InitialCost",
      "WayTags",
      "NodeTags",
      "Time",
      "Energy"
     ],
     [
      "44775598",
      "41687062",
      "712",
      "35",
      "1150",
      "0",
      "5",
      "0",
      "0",
      "highway=residential surface=asphalt",
      "",
      "8",
      "878"
     ],
     [
      "44779449",
      "41684168",
      "689",
      "638",
      "1150",
      "664",
      "157",
      "0",
      "0",
      "reversedirection=yes highway=residential surface=asphalt",
      "estimated_crossing_class=4",
      "97",
      "8013"
     ],
     [
      "44782200",
      "41684280",
      "673",
      "230",
      "1650",
      "746",
      "43",
      "0",
      "0",
      "highway=secondary surface=asphalt smoothness=good",
      "estimated_crossing_class=4",
      "116",
      "8013"
     ],
     [
      "44785836",
      "41683759",
      "643",
      "493",
      "1650",
      "1354",
      "167",
      "0",
      "0",
      "highway=secondary surface=asphalt smoothness=good",
      "estimated_crossing_class=4",
      "156",
      "8905"
     ],
     [
      "44787239",
      "41683869",
      "633",
      "117",
      "1650",
      "477",
      "1",
      "0",
      "0",
      "highway=secondary surface=asphalt",
      "estimated_crossing_class=4",
      "166",
      "8905"
     ],
     [
      "44787983",
      "41684173",
      "635",
      "74",
      "1650",
      "78",
      "3",
      "0",
      "0",
      "highway=secondary surface=asphalt",
      "estimated_crossing_class=4",
      "172",
      "9198"
     ],
     [
      "44790674",
      "41686447",
      "594",
      "707",
      "1650",
      "1890",
      "68",
      "0",
      "0",
      "highway=secondary surface=asphalt",
      "estimated_crossing_class=4",
      "239",
      "12452"
     ],
     [
      "44789844",
      "41686529",
      "592",
      "104",
      "1650",
      "0",
      "65",
      "0",
      "0",
      "highway=secondary surface=asphalt",
      "estimated_crossing_class=4",
      "254",
      "13926"
     ],
     [
      "44791653",
      "41686753",
      "585",
      "154",
      "1650",
      "33",
      "5",
      "0",
      "0",
      "highway=secondary surface=asphalt",
      "",
      "267",
      "15129"
     ],
     [
      "44794736",
      "41684897",
      "553",
      "584",
      "1650",
      "1475",
      "87",
      "0",
      "0",
      "highway=secondary surface=asphalt oneway=no",
      "estimated_crossing_class=4",
      "320",
      "17935"
     ],
     [
      "44795906",
      "41686687",
      "539",
      "225",
      "1650",
      "727",
      "9",
      "0",
      "0",
      "highway=secondary surface=asphalt oneway=no",
      "",
      "338",
      "18302"
     ],
     [
      "44796382",
      "41687129",
      "535",
      "62",
      "1650",
      "0",
      "0",
      "0",
      "0",
      "highway=secondary surface=asphalt",
      "",
      "343",
      "18317"
     ],
     [
      "44795730",
      "41687857",
      "526",
      "136",
      "1650",
      "0",
      "18",
      "0",
      "0",
      "highway=secondary surface=asphalt oneway=yes",
      "",
      "357",
      "19684"
     ],
     [
      "44794965",
      "41687876",
      "522",
      "64",
      "1650",
      "589",
      "0",
      "0",
      "0",
      "highway=secondary surface=asphalt",
      "",
      "365",
      "20450"
     ],
     [
      "44793356",
      "41687983",
      "517",
      "137",
      "1650",
      "362",
      "10",
      "0",
      "0",
      "highway=secondary surface=asphalt oneway=no",
      "estimated_crossing_class=4",
      "376",
      "20450"
     ],
     [
      "44791751",
      "41688476",
      "503",
      "149",
      "1650",
      "488",
      "17",
      "0",
      "0",
      "highway=secondary surface=asphalt oneway=no",
      "highway=crossing estimated_crossing_class=4 crossing=unmarked",
      "388",
      "20491"
     ],
     [
      "44789765",
      "41689498",
      "494",
      "295",
      "1650",
      "957",
      "71",
      "0",
      "0",
      "highway=secondary surface=asphalt oneway=no",
      "estimated_crossing_class=4",
      "429",
      "23369"
     ],
     [
      "44789728",
      "41689752",
      "493",
      "28",
      "1150",
      "0",
      "3",
      "0",
      "0",
      "reversedirection=yes highway=residential",
      "",
      "431",
      "23621"
     ],
     [
      "44790278",
      "41690002",
      "491",
      "54",
      "1350",
      "0",
      "52",
      "0",
      "0",
      "reversedirection=yes highway=service",
      "",
      "435",
      "23989"
     ],
     [
      "44790743",
      "41689591",
      "487",
      "61",
      "1150",
      "0",
      "86",
      "0",
      "0",
      "highway=residential",
      "",
      "440",
      "24381"
     ],
     [
      "44792679",
      "41690439",
      "483",
      "188",
      "1150",
      "215",
      "71",
      "0",
      "0",
      "reversedirection=yes highway=residential",
      "",
      "459",
      "25559"
     ],
     [
      "44792626",
      "41690601",
      "488",
      "18",
      "1150",
      "0",
      "93",
      "0",
      "0",
      "highway=residential",
      "",
      "462",
      "25834"
     ],
     [
      "44793558",
      "41690751",
      "486",
      "84",
      "1150",
      "0",
      "80",
      "0",
      "0",
      "reversedirection=yes highway=residential",
      "barrier=bar bicycle=yes foot=yes motor_vehicle=no motorcycle=yes",
      "477",
      "27398"
     ],
     [
      "44793870",
      "41690729",
      "483",
      "26",
      "3050",
      "0",
      "0",
      "0",
      "0",
      "reversedirection=yes highway=pedestrian",
      "barrier=bar bicycle=yes foot=yes motor_vehicle=no motorcycle=yes",
      "481",
      "27723"
     ],
     [
      "44795337",
      "41690776",
      "471",
      "126",
      "1150",
      "318",
      "17",
      "0",
      "0",
      "reversedirection=yes highway=residential",
      "",
      "492",
      "28201"
     ],
     [
      "44795381",
      "41690842",
      "471",
      "8",
      "1150",
      "0",
      "30",
      "0",
      "0",
      "highway=residential oneway=yes",
      "",
      "493",
      "28201"
     ],
     [
      "44795067",
      "41691075",
      "476",
      "37",
      "1150",
      "0",
      "67",
      "0",
      "0",
      "reversedirection=yes highway=residential",
      "",
      "497",
      "28582"
     ],
     [
      "44794608",
      "41691908",
      "481",
      "102",
      "1150",
      "0",
      "1",
      "0",
      "0",
      "reversedirection=yes highway=residential surface=asphalt",
      "",
      "518",
      "30674"
     ],
     [
      "44792977",
      "41694612",
      "491",
      "361",
      "1150",
      "0",
      "121",
      "0",
      "0",
      "reversedirection=yes highway=residential surface=cobblestone",
      "crossing=unknown",
      "676",
      "46562"
     ],
     [
      "44793014",
      "41694628",
      "490",
      "4",
      "1150",
      "11",
      "9",
      "0",
      "0",
      "reversedirection=yes highway=residential surface=cobblestone",
      "",
      "677",
      "46600"
     ],
     [
      "44791644",
      "41696235",
      "501",
      "220",
      "1450",
      "0",
      "116",
      "0",
      "0",
      "highway=tertiary surface=asphalt oneway=no",
      "",
      "734",
      "52347"
     ],
     [
      "44790121",
      "41696170",
      "536",
      "128",
      "1150",
      "0",
      "63",
      "0",
      "0",
      "highway=residential surface=sett smoothness=intermediate",
      "",
      "898",
      "68763"
     ],
     [
      "44789786",
      "41696204",
      "548",
      "53",
      "1350",
      "0",
      "125",
      "0",
      "0",
      "reversedirection=yes highway=service surface=paving_stones smoothness=intermediate",
      "",
      "1002",
      "79106"
     ],
     [
      "44789275",
      "41695600",
      "576",
      "191",
      "1350",
      "0",
      "479",
      "0",
      "0",
      "reversedirection=yes highway=service surface=paving_stones smoothness=good",
      "",
      "1310",
      "109876"
     ],
     [
      "44789283",
      "41695538",
      "577",
      "7",
      "5050",
      "0",
      "37",
      "0",
      "0",
      "highway=footway surface=paving_stones",
      "",
      "1320",
      "110927"
     ],
     [
      "44789088",
      "41695538",
      "586",
      "27",
      "40000",
      "0",
      "119",
      "0",
      "0",
      "highway=steps surface=paving_stones",
      "",
      "1364",
      "115354"
     ],
     [
      "44789254",
      "41695336",
      "585",
      "27",
      "5050",
      "0",
      "94",
      "0",
      "0",
      "highway=footway surface=paving_stones",
      "",
      "1407",
      "119582"
     ],
     [
      "44789276",
      "41695295",
      "585",
      "5",
      "40000",
      "0",
      "10",
      "0",
      "0",
      "highway=steps surface=paving_stones",
      "",
      "1413",
      "120228"
     ],
     [
      "44788961",
      "41695479",
      "594",
      "34",
      "5050",
      "0",
      "141",
      "0",
      "0",
      "highway=footway surface=paving_stones",
      "",
      "1468",
      "125682"
     ],
     [
      "44788936",
      "41695460",
      "596",
      "6",
      "40000",
      "0",
      "133",
      "0",
      "0",
      "highway=steps surface=paving_stones",
      "",
      "1477",
      "126645"
     ],
     [
      "44789264",
      "41695175",
      "589",
      "42",
      "5050",
      "0",
      "7",
      "0",
      "0",
      "highway=footway surface=paving_stones",
      "",
      "1522",
      "131106"
     ],
     [
      "44789269",
      "41695150",
      "590",
      "3",
      "40000",
      "0",
      "33",
      "0",
      "0",
      "highway=steps surface=paving_stones foot=yes",
      "",
      "1524",
      "131305"
     ],
     [
      "44789278",
      "41695097",
      "591",
      "6",
      "5050",
      "0",
      "0",
      "0",
      "0",
      "highway=footway surface=paving_stones",
      "",
      "1528",
      "131750"
     ]
    ],
    "times": [
     0,
     0.36,
     2.548,
     5.403,
     8.778,
     10.925,
     14.21,
     22.283,
     32.546,
     35.288,
     37.259,
     39.097,
     41.998,
     49.925,
     59.57,
     61.112,
     62.479,
     64.26,
     66.035,
     70.926,
     72.728,
     74.466,
     75.539,
     78.339,
     80.419,
     82.099,
     83.939,
     84.739,
     86.739,
     88.179,
     89.432,
     90.323,
     93.203,
     96.003,
     96.883,
     97.904,
     102.304,
     108.944,
     116.304,
     132.304,
     138.464,
     139.744,
     140.704,
     141.504,
     142.315,
     144.715,
     149.632,
     150.609,
     151.409,
     152.369,
     155.009,
     156.849,
     159.729,
     161.889,
     162.369,
     163.009,
     166.209,
     167.249,
     167.809,
     168.449,
     169.009,
     169.569,
     169.969,
     171.357,
     172.807,
     178.632,
     180.87,
     181.33,
     182.69,
     184.45,
     193.57,
     194.37,
     201.17,
     204.93,
     209.09,
     210.45,
     211.33,
     212.61,
     213.17,
     213.41,
     213.65,
     213.89,
     214.21,
     214.45,
     214.77,
     217.41,
     232.025,
     234.39,
     236.368,
     237.776,
     239.539,
     242.567,
     245.525,
     250.734,
     251.582,
     252.222,
     252.68,
     252.891,
     253.08,
     254.279,
     259.085,
     261.565,
     264.125,
     267.287,
     282.887,
     285.447,
     287.367,
     288.567,
     289.207,
     289.847,
     290.407,
     290.887,
     291.527,
     292.487,
     296.181,
     299.319,
     305.522,
     306.402,
     307.28,
     308.266,
     310.514,
     315.01,
     316.073,
     316.511,
     316.919,
     317.288,
     317.551,
     317.885,
     318.45,
     319.41,
     320.533,
     321.832,
     325.512,
     329.752,
     331.912,
     333.272,
     333.912,
     334.392,
     335.752,
     338.552,
     342.712,
     343.112,
     343.512,
     345.032,
     346.494,
     347.313,
     348.163,
     349.145,
     349.958,
     350.903,
     351.988,
     353.226,
     357.318,
     360.968,
     364.271,
     364.976,
     365.536,
     365.696,
     366.016,
     366.656,
     367.696,
     368.176,
     369.856,
     370.576,
     373.536,
     376.496,
     377.136,
     377.696,
     378.176,
     380.176,
     381.056,
     381.936,
     383.056,
     383.776,
     384.336,
     385.616,
     388.416,
     389.856,
     390.496,
     391.136,
     391.696,
     392.576,
     394.209,
     394.854,
     395.792,
     403.496,
     407.04,
     409.017,
     410.55,
     411.886,
     412.97,
     413.981,
     415.769,
     417.035,
     419.036,
     421.996,
     422.396,
     423.116,
     423.436,
     424.156,
     424.796,
     425.516,
     426.236,
     426.796,
     427.834,
     428.465,
     429.002,
     431.527,
     435.847,
     437.502,
     439.262,
     440.782,
     442.062,
     448.142,
     448.813,
     449.118,
     455.779,
     458.069,
     459.578,
     460.581,
     462.327,
     462.739,
     465.057,
     466.572,
     472.071,
     476.615,
     477.967,
     481.216,
     482.709,
     484.247,
     484.638,
     484.993,
     487.153,
     488.113,
     490.033,
     491.393,
     492.673,
     493.313,
     495.634,
     497.129,
     499.64,
     500.491,
     511.34,
     518.04,
     553.599,
     561.153,
     570.428,
     584.547,
     607.795,
     612.9,
     620.387,
     626.893,
     632.016,
     636.677,
     648.309,
     658.781,
     664.319,
     667.39,
     670.064,
     671.381,
     672.613,
     675.369,
     676.697,
     676.904,
     677.277,
     678.524,
     679.23,
     688.582,
     692.582,
     694.493,
     697.565,
     709.37,
     711.056,
     716.948,
     718.91,
     734.733,
     765.328,
     777.147,
     797.57,
     840.294,
     860.065,
     873.921,
     898.89,
     933.082,
     942.882,
     950.911,
     959.072,
     987.662,
     996.752,
     1002.328,
     1008.008,
     1013.789,
     1023.387,
     1048.533,
     1056.951,
     1060.295,
     1063.708,
     1069.033,
     1079.883,
     1104.941,
     1115.475,
     1120.847,
     1126.394,
     1131.851,
     1161.888,
     1166.224,
     1169.266,
     1178.828,
     1207.649,
     1215.82,
     1222.69,
     1227.935,
     1236.137,
     1252.572,
     1262.552,
     1280.233,
     1291.115,
     1301.725,
     1305.765,
     1310.019,
     1320.538,
     1328.177,
     1331.221,
     1334.339,
     1349.186,
     1359.434,
     1364.8,
     1375.599,
     1384.032,
     1400.554,
     1407.089,
     1413.542,
     1419.099,
     1430.965,
     1468.084,
     1471.222,
     1474.521,
     1477.714,
     1486.555,
     1499.812,
     1514.412,
     1522.324,
     1524.309,
     1528.765
    ]
   },
   "geometry": {
    "type": "LineString",
    "coordinates": [
     [
      44.77599,
      41.687156,
      710.25
     ],
     [
      44.775967,
      41.687156,
      710.5
     ],
     [
      44.775843,
      41.68715,
      711.25
     ],
     [
      44.775727,
      41.687113,
      712
     ],
     [
      44.775598,
      41.687062,
      712.5
     ],
     [
      44.775531,
      41.687015,
      712.5
     ],
     [
      44.775411,
      41.686951,
      712.75
     ],
     [
      44.775151,
      41.686852,
      714
     ],
     [
      44.774777,
      41.686779,
      717.5
     ],
     [
      44.774682,
      41.686753,
      718.25
     ],
     [
      44.77464,
      41.686706,
      718.25
     ],
     [
      44.774647,
      41.686641,
      717.5
     ],
     [
      44.774741,
      41.686528,
      716.5
     ],
     [
      44.775027,
      41.686241,
      713.75
     ],
     [
      44.775794,
      41.685806,
      708.25
     ],
     [
      44.775871,
      41.685715,
      708
     ],
     [
      44.77596,
      41.68563,
      707.25
     ],
     [
      44.776086,
      41.685509,
      706.5
     ],
     [
      44.776165,
      41.685373,
      706.5
     ],
     [
      44.77619,
      41.685088,
      707.75
     ],
     [
      44.77631,
      41.68502,
      707.25
     ],
     [
      44.776486,
      41.684998,
      706.25
     ],
     [
      44.776617,
      41.685014,
      705
     ],
     [
      44.777019,
      41.685113,
      701.25
     ],
     [
      44.777325,
      41.685092,
      699
     ],
     [
      44.777555,
      41.685022,
      698
     ],
     [
      44.777786,
      41.684916,
      696.5
     ],
     [
      44.777882,
      41.684857,
      695.75
     ],
     [
      44.778071,
      41.684687,
      695.25
     ],
     [
      44.778191,
      41.684551,
      695
     ],
     [
      44.778315,
      41.684452,
      695
     ],
     [
      44.778436,
      41.684416,
      694.25
     ],
     [
      44.778868,
      41.684399,
      691.5
     ],
     [
      44.779281,
      41.684321,
      689.25
     ],
     [
      44.779383,
      41.684261,
      689.25
     ],
     [
      44.779449,
      41.684168,
      689.75
     ],
     [
      44.780102,
      41.68413,
      685
     ],
     [
      44.781093,
      41.684224,
      679.25
     ],
     [
      44.7822,
      41.68428,
      673
     ],
     [
      44.7846,
      41.684395,
      662.25
     ],
     [
      44.785524,
      41.684433,
      653.25
     ],
     [
      44.785713,
      41.684401,
      651.75
     ],
     [
      44.785826,
      41.684341,
      651
     ],
     [
      44.785847,
      41.684253,
      651.25
     ],
     [
      44.785824,
      41.684166,
      652
     ],
     [
      44.78558,
      41.683969,
      650.75
     ],
     [
      44.785124,
      41.683675,
      651.25
     ],
     [
      44.785076,
      41.683597,
      650.5
     ],
     [
      44.785114,
      41.68351,
      648.25
     ],
     [
      44.785261,
      41.683512,
      646.25
     ],
     [
      44.785586,
      41.683682,
      645
     ],
     [
      44.785836,
      41.683759,
      643
     ],
     [
      44.786258,
      41.683846,
      641
     ],
     [
      44.786581,
      41.683897,
      639.25
     ],
     [
      44.786654,
      41.683899,
      638.5
     ],
     [
      44.786755,
      41.683901,
      637.75
     ],
     [
      44.787239,
      41.683869,
      633.25
     ],
     [
      44.787399,
      41.683872,
      632.25
     ],
     [
      44.787488,
      41.683881,
      631.75
     ],
     [
      44.787574,
      41.683901,
      631.5
     ],
     [
      44.787647,
      41.683926,
      631.75
     ],
     [
      44.787713,
      41.683959,
      632
     ],
     [
      44.787758,
      41.683992,
      632.5
     ],
     [
      44.787888,
      41.684088,
      634
     ],
     [
      44.787983,
      41.684173,
      635.25
     ],
     [
      44.788396,
      41.684551,
      634
     ],
     [
      44.788586,
      41.684714,
      632.25
     ],
     [
      44.788636,
      41.684742,
      631.75
     ],
     [
      44.788836,
      41.684785,
      629
     ],
     [
      44.7891,
      41.684825,
      625.5
     ],
     [
      44.790415,
      41.685112,
      612.5
     ],
     [
      44.790521,
      41.685145,
      611.25
     ],
     [
      44.791432,
      41.685484,
      603.5
     ],
     [
      44.791924,
      41.68569,
      602.75
     ],
     [
      44.79245,
      41.685944,
      597.5
     ],
     [
      44.792648,
      41.685948,
      595.75
     ],
     [
      44.792781,
      41.685931,
      595
     ],
     [
      44.792969,
      41.685917,
      593.75
     ],
     [
      44.793047,
      41.685929,
      593.25
     ],
     [
      44.79308,
      41.685942,
      592.75
     ],
     [
      44.793107,
      41.685966,
      592.5
     ],
     [
      44.793118,
      41.685994,
      592.25
     ],
     [
      44.793118,
      41.686029,
      592
     ],
     [
      44.793106,
      41.686057,
      591.75
     ],
     [
      44.793068,
      41.686083,
      591.75
     ],
     [
      44.792699,
      41.686186,
      593.25
     ],
     [
      44.791367,
      41.686458,
      595
     ],
     [
      44.791144,
      41.68647,
      594.25
     ],
     [
      44.790946,
      41.686468,
      594
     ],
     [
      44.79082,
      41.686464,
      594
     ],
     [
      44.790674,
      41.686447,
      594.5
     ],
     [
      44.790307,
      41.686433,
      595
     ],
     [
      44.790021,
      41.686411,
      595.75
     ],
     [
      44.789762,
      41.686377,
      598.25
     ],
     [
      44.789714,
      41.686389,
      598
     ],
     [
      44.789684,
      41.686421,
      597
     ],
     [
      44.789686,
      41.686459,
      595.5
     ],
     [
      44.789699,
      41.686476,
      595
     ],
     [
      44.789719,
      41.686489,
      594.25
     ],
     [
      44.789844,
      41.686529,
      592
     ],
     [
      44.790511,
      41.686588,
      589.25
     ],
     [
      44.790863,
      41.686664,
      587
     ],
     [
      44.791238,
      41.686727,
      585.5
     ],
     [
      44.791653,
      41.686753,
      585.5
     ],
     [
      44.793992,
      41.686862,
      571.75
     ],
     [
      44.794368,
      41.686907,
      565.75
     ],
     [
      44.794655,
      41.686931,
      561
     ],
     [
      44.794829,
      41.686927,
      558.75
     ],
     [
      44.794924,
      41.686917,
      557.5
     ],
     [
      44.795011,
      41.686895,
      556.75
     ],
     [
      44.795074,
      41.686852,
      556
     ],
     [
      44.795113,
      41.686811,
      556
     ],
     [
      44.795122,
      41.686738,
      557
     ],
     [
      44.795079,
      41.686636,
      559.5
     ],
     [
      44.79494,
      41.686376,
      562.25
     ],
     [
      44.79485,
      41.686114,
      564
     ],
     [
      44.794885,
      41.685495,
      558.5
     ],
     [
      44.794876,
      41.685418,
      558
     ],
     [
      44.794837,
      41.685347,
      557.75
     ],
     [
      44.794774,
      41.685286,
      558.25
     ],
     [
      44.794631,
      41.68518,
      559
     ],
     [
      44.794329,
      41.684975,
      558.75
     ],
     [
      44.794275,
      41.6849,
      558
     ],
     [
      44.794272,
      41.684868,
      557.5
     ],
     [
      44.794283,
      41.684837,
      557
     ],
     [
      44.794307,
      41.684811,
      556.25
     ],
     [
      44.794341,
      41.684793,
      555.75
     ],
     [
      44.794382,
      41.684783,
      555.25
     ],
     [
      44.79447,
      41.684789,
      554.75
     ],
     [
      44.794602,
      41.684821,
      554
     ],
     [
      44.794736,
      41.684897,
      553.75
     ],
     [
      44.79487,
      41.684999,
      553.25
     ],
     [
      44.79515,
      41.685361,
      550.5
     ],
     [
      44.795288,
      41.685827,
      548.5
     ],
     [
      44.79538,
      41.68606,
      546.75
     ],
     [
      44.795445,
      41.686204,
      545.5
     ],
     [
      44.795485,
      41.686269,
      544.75
     ],
     [
      44.795515,
      41.686314,
      544.25
     ],
     [
      44.795637,
      41.686441,
      541.5
     ],
     [
      44.795906,
      41.686687,
      539.25
     ],
     [
      44.796309,
      41.68705,
      535.75
     ],
     [
      44.796345,
      41.68709,
      535.5
     ],
     [
      44.796382,
      41.687129,
      535.25
     ],
     [
      44.796502,
      41.687273,
      534
     ],
     [
      44.796573,
      41.687414,
      532.75
     ],
     [
      44.796578,
      41.687497,
      532.25
     ],
     [
      44.796565,
      41.687575,
      531.75
     ],
     [
      44.796518,
      41.687655,
      531
     ],
     [
      44.796459,
      41.687714,
      530.5
     ],
     [
      44.796377,
      41.68777,
      530
     ],
     [
      44.79627,
      41.687808,
      529.25
     ],
     [
      44.796138,
      41.687828,
      528.75
     ],
     [
      44.79573,
      41.687857,
      526.5
     ],
     [
      44.79539,
      41.687877,
      524.75
     ],
     [
      44.795108,
      41.687887,
      523.25
     ],
     [
      44.795047,
      41.687885,
      522.75
     ],
     [
      44.794965,
      41.687876,
      522.25
     ],
     [
      44.794945,
      41.687873,
      522.5
     ],
     [
      44.794894,
      41.687865,
      523
     ],
     [
      44.794798,
      41.687865,
      523
     ],
     [
      44.794642,
      41.687883,
      522
     ],
     [
      44.794572,
      41.687904,
      520.75
     ],
     [
      44.794348,
      41.687992,
      516
     ],
     [
      44.794244,
      41.688005,
      515.25
     ],
     [
      44.793794,
      41.687999,
      516.25
     ],
     [
      44.793356,
      41.687983,
      517.75
     ],
     [
      44.793257,
      41.687993,
      517.5
     ],
     [
      44.793184,
      41.688014,
      516.75
     ],
     [
      44.793123,
      41.68804,
      515.5
     ],
     [
      44.792909,
      41.688194,
      508.25
     ],
     [
      44.792803,
      41.688247,
      506
     ],
     [
      44.792671,
      41.688269,
      505.5
     ],
     [
      44.792499,
      41.688269,
      506.25
     ],
     [
      44.792388,
      41.688281,
      506.25
     ],
     [
      44.792308,
      41.6883,
      506
     ],
     [
      44.792138,
      41.688359,
      504.75
     ],
     [
      44.791751,
      41.688476,
      503.75
     ],
     [
      44.791557,
      41.688543,
      502.25
     ],
     [
      44.791472,
      41.688566,
      501.5
     ],
     [
      44.791382,
      41.688582,
      501.25
     ],
     [
      44.791301,
      41.688588,
      501
     ],
     [
      44.791175,
      41.688581,
      501.5
     ],
     [
      44.790974,
      41.688533,
      503
     ],
     [
      44.79091,
      41.68851,
      503.75
     ],
     [
      44.790844,
      41.688477,
      504.75
     ],
     [
      44.790553,
      41.688301,
      513.25
     ],
     [
      44.790451,
      41.68828,
      515.5
     ],
     [
      44.790394,
      41.688283,
      515.75
     ],
     [
      44.790344,
      41.688298,
      515.75
     ],
     [
      44.790302,
      41.688322,
      515.25
     ],
     [
      44.790269,
      41.688353,
      514.5
     ],
     [
      44.790241,
      41.688393,
      513.5
     ],
     [
      44.790226,
      41.688444,
      512
     ],
     [
      44.790222,
      41.688503,
      510.25
     ],
     [
      44.790242,
      41.688636,
      506
     ],
     [
      44.790346,
      41.688957,
      495.25
     ],
     [
      44.790352,
      41.689003,
      493.75
     ],
     [
      44.790331,
      41.689085,
      491.5
     ],
     [
      44.790304,
      41.689113,
      491
     ],
     [
      44.790213,
      41.68916,
      490.25
     ],
     [
      44.790127,
      41.68919,
      490.75
     ],
     [
      44.790024,
      41.689215,
      491.75
     ],
     [
      44.789927,
      41.689256,
      492.75
     ],
     [
      44.789859,
      41.689298,
      493.5
     ],
     [
      44.789768,
      41.689377,
      494.5
     ],
     [
      44.789753,
      41.689441,
      494.5
     ],
     [
      44.789765,
      41.689498,
      494.25
     ],
     [
      44.789728,
      41.689752,
      493.75
     ],
     [
      44.790278,
      41.690002,
      491
     ],
     [
      44.79041,
      41.689853,
      490
     ],
     [
      44.79058,
      41.689706,
      488.75
     ],
     [
      44.790743,
      41.689591,
      487.5
     ],
     [
      44.790922,
      41.689639,
      486.5
     ],
     [
      44.791684,
      41.690017,
      482.25
     ],
     [
      44.791722,
      41.690075,
      483.5
     ],
     [
      44.791746,
      41.690091,
      483.75
     ],
     [
      44.792327,
      41.690333,
      484.25
     ],
     [
      44.792538,
      41.690402,
      483.75
     ],
     [
      44.792679,
      41.690439,
      483.75
     ],
     [
      44.79264,
      41.690519,
      486
     ],
     [
      44.792626,
      41.690601,
      488.25
     ],
     [
      44.792639,
      41.690616,
      488.5
     ],
     [
      44.792788,
      41.690632,
      488
     ],
     [
      44.792878,
      41.690663,
      488.25
     ],
     [
      44.793054,
      41.690775,
      490
     ],
     [
      44.793418,
      41.69077,
      487.75
     ],
     [
      44.793558,
      41.690751,
      486.25
     ],
     [
      44.79387,
      41.690729,
      483.5
     ],
     [
      44.794006,
      41.690749,
      483.25
     ],
     [
      44.794132,
      41.690798,
      483.25
     ],
     [
      44.794171,
      41.690804,
      483.25
     ],
     [
      44.794209,
      41.690802,
      482.75
     ],
     [
      44.79452,
      41.690732,
      479
     ],
     [
      44.79466,
      41.690712,
      477.5
     ],
     [
      44.794946,
      41.690718,
      475.5
     ],
     [
      44.79515,
      41.690738,
      473.5
     ],
     [
      44.795337,
      41.690776,
      471.75
     ],
     [
      44.795381,
      41.690842,
      471.75
     ],
     [
      44.795154,
      41.690993,
      474.75
     ],
     [
      44.795067,
      41.691075,
      476
     ],
     [
      44.794922,
      41.691258,
      477.75
     ],
     [
      44.794887,
      41.691312,
      478.25
     ],
     [
      44.794714,
      41.691683,
      481.25
     ],
     [
      44.794608,
      41.691908,
      481.75
     ],
     [
      44.793965,
      41.692483,
      489
     ],
     [
      44.793837,
      41.692569,
      492
     ],
     [
      44.793797,
      41.692726,
      492.5
     ],
     [
      44.793723,
      41.692984,
      493.25
     ],
     [
      44.793566,
      41.693433,
      494.5
     ],
     [
      44.793488,
      41.693535,
      495
     ],
     [
      44.79334,
      41.693595,
      497.25
     ],
     [
      44.793229,
      41.693636,
      499.25
     ],
     [
      44.793153,
      41.693655,
      500.75
     ],
     [
      44.793094,
      41.69368,
      501.75
     ],
     [
      44.792986,
      41.693799,
      502
     ],
     [
      44.79287,
      41.693914,
      502.25
     ],
     [
      44.792836,
      41.694007,
      501.25
     ],
     [
      44.792879,
      41.694112,
      498.5
     ],
     [
      44.792955,
      41.694165,
      496.25
     ],
     [
      44.792985,
      41.69421,
      495.25
     ],
     [
      44.792998,
      41.694272,
      494.5
     ],
     [
      44.792992,
      41.694492,
      492.5
     ],
     [
      44.792962,
      41.694595,
      492
     ],
     [
      44.792977,
      41.694612,
      491.5
     ],
     [
      44.793014,
      41.694628,
      490.75
     ],
     [
      44.792923,
      41.694707,
      491.25
     ],
     [
      44.792864,
      41.694738,
      491.75
     ],
     [
      44.792454,
      41.694913,
      494.75
     ],
     [
      44.792296,
      41.695,
      495.25
     ],
     [
      44.792242,
      41.695051,
      495.75
     ],
     [
      44.792195,
      41.695144,
      496
     ],
     [
      44.792049,
      41.695491,
      496.75
     ],
     [
      44.792026,
      41.695546,
      497
     ],
     [
      44.79196,
      41.695732,
      497.25
     ],
     [
      44.791929,
      41.695793,
      497.5
     ],
     [
      44.791644,
      41.696235,
      501.25
     ],
     [
      44.791202,
      41.696189,
      509.75
     ],
     [
      44.791052,
      41.696173,
      512.75
     ],
     [
      44.790838,
      41.696178,
      517
     ],
     [
      44.790517,
      41.696199,
      525.5
     ],
     [
      44.790371,
      41.6962,
      529.5
     ],
     [
      44.790272,
      41.696194,
      532.25
     ],
     [
      44.790121,
      41.69617,
      536.5
     ],
     [
      44.789995,
      41.69605,
      540.75
     ],
     [
      44.789956,
      41.69602,
      542.5
     ],
     [
      44.789917,
      41.696008,
      544
     ],
     [
      44.789883,
      41.69603,
      545.25
     ],
     [
      44.789848,
      41.696158,
      545.75
     ],
     [
      44.789819,
      41.696197,
      546.75
     ],
     [
      44.789786,
      41.696204,
      548
     ],
     [
      44.789761,
      41.696186,
      549
     ],
     [
      44.78974,
      41.69616,
      550
     ],
     [
      44.789728,
      41.696119,
      550.75
     ],
     [
      44.789728,
      41.695997,
      551.25
     ],
     [
      44.789721,
      41.695953,
      551.75
     ],
     [
      44.789709,
      41.695937,
      552.25
     ],
     [
      44.789689,
      41.69593,
      553
     ],
     [
      44.789655,
      41.695937,
      554.25
     ],
     [
      44.789618,
      41.695984,
      555.5
     ],
     [
      44.789555,
      41.696105,
      557.25
     ],
     [
      44.789515,
      41.696148,
      558.75
     ],
     [
      44.78948,
      41.696159,
      560
     ],
     [
      44.789451,
      41.696142,
      561.25
     ],
     [
      44.789444,
      41.696111,
      561.5
     ],
     [
      44.789483,
      41.695944,
      560.75
     ],
     [
      44.789475,
      41.695921,
      561
     ],
     [
      44.789446,
      41.695917,
      562.25
     ],
     [
      44.7894,
      41.695955,
      563.75
     ],
     [
      44.789303,
      41.696093,
      567
     ],
     [
      44.789269,
      41.696129,
      568.25
     ],
     [
      44.789223,
      41.696131,
      570
     ],
     [
      44.789198,
      41.696106,
      571
     ],
     [
      44.789212,
      41.696064,
      570.5
     ],
     [
      44.789271,
      41.695964,
      568.75
     ],
     [
      44.78927,
      41.695892,
      568.75
     ],
     [
      44.789248,
      41.695779,
      571.5
     ],
     [
      44.789263,
      41.69571,
      573
     ],
     [
      44.789299,
      41.695644,
      573.75
     ],
     [
      44.789298,
      41.695615,
      574.75
     ],
     [
      44.789275,
      41.6956,
      576
     ],
     [
      44.789283,
      41.695538,
      577.75
     ],
     [
      44.789289,
      41.69549,
      579
     ],
     [
      44.789287,
      41.695475,
      579.5
     ],
     [
      44.78927,
      41.695467,
      580.25
     ],
     [
      44.78918,
      41.695519,
      582.25
     ],
     [
      44.78912,
      41.695544,
      584.25
     ],
     [
      44.789088,
      41.695538,
      586
     ],
     [
      44.789105,
      41.695482,
      587
     ],
     [
      44.78913,
      41.695446,
      586.75
     ],
     [
      44.789208,
      41.695365,
      586
     ],
     [
      44.789254,
      41.695336,
      585
     ],
     [
      44.789276,
      41.695295,
      585.5
     ],
     [
      44.789228,
      41.695294,
      587.25
     ],
     [
      44.789151,
      41.695337,
      589.25
     ],
     [
      44.788961,
      41.695479,
      594.25
     ],
     [
      44.788944,
      41.695486,
      595
     ],
     [
      44.788927,
      41.695472,
      596.25
     ],
     [
      44.788936,
      41.69546,
      596
     ],
     [
      44.788981,
      41.695413,
      595.25
     ],
     [
      44.78904,
      41.695333,
      594.75
     ],
     [
      44.789141,
      41.69523,
      593
     ],
     [
      44.789264,
      41.695175,
      589.75
     ],
     [
      44.789269,
      41.69515,
      590.25
     ],
     [
      44.789278,
      41.695097,
      591.5
     ]
    ]
   }
  }
 ]
}